,Latitude,Longitude,Park Name,Address,City,State,Zip Code,Phone Number,Distance
0,42.34032,-72.02761,Pine Acres Family Camping Resort,203 Bechan Rd,Oakham,MA,01068, (508) 882-9509,33.659059636424146
1,42.06793,-72.22015,Oak Haven Family Campground,22 Main St,Wales,MA,01081, (413) 245-7148,18.960687189020554
2,42.4891,-73.23767,Bonnie Brae Cabins & Campsites,108 Broadway,Pittsfield,MA,01201, (413) 442-3754,40.09102132645673
3,42.551120000000004,-73.22955999999999,Mt Greylock Campsite Park,15 Scott Rd,Lanesborough,MA,01237, (413) 447-9491,42.541417868059646
4,42.5515,-71.53355,Boston Minuteman Campground,264 Ayer Rd,Littleton,MA,01460, (978) 772-0042,11.392950852739798
5,42.07047,-72.093,Sturbridge RV Resort,19 Mashapaug Rd,Sturbridge,MA,01566, (888) 563-7040,25.359378028920844
6,42.08978,-72.08310999999999,Pine Lake RV Resort & Cottages,30 River Rd,Sturbridge,MA,01566, (508) 347-9570,26.157686480794005
7,42.10096,-71.47234,Circle Cg Farm,131 N Main St,Bellingham,MA,02019, (508) 966-1136,17.80203207826065
8,42.041592,-71.28039100000001,Normandy Farms Family Campground Inc,72 West St,Foxboro,MA,02035, (866) 673-2767,12.847274337095946
9,41.792809999999996,-70.60384,Sandy Pond Campground,834 Bourne Rd,Plymouth,MA,02360, (508) 759-9336,33.65319958231779
10,41.60614,-70.57675,Cape Cod Campresort & Cabins,176 Thomas B Landers Rd,East Falmouth,MA,02536, (508) 548-1458,44.513996881835595
11,41.690909999999995,-70.48066,Peters Pond RV Resort,185 Cotuit Rd,Sandwich,MA,02563, (888) 326-7731,43.131700731726646
12,41.4353,-70.61029,Martha's Vineyard Family Campground,569 Edgartown Rd,Vineyard Haven,MA,02568, (508) 693-3772,53.87162774724316
13,41.75742,-70.08859,Shady Knoll Campground,1709 Main St,Brewster,MA,02631, (508) 896-3002,56.78311746696355
14,41.65146,-70.14147,Campers Haven Carefree RV Resort,184 Old Wharf Rd,Dennis Port,MA,02639, (508) 398-2811,58.292876775430024
15,41.84536,-69.98421,Atlantic Oaks,3700 State Hwy,Eastham,MA,02642, (508) 255-1437,59.23869018860463
16,41.70755,-70.1471,Old Chathan Road RV Camprgound,310 Old Chatham Rd,South Dennis,MA,02660, (888) 563-7040,55.8914104639888
17,41.77602,-70.80269,Gateway To Cape Cod RV Campground,90 Stevens Rd,Rochester,MA,02770, (888) 563-7040,28.3932223837096
18,41.412,-71.75055,Ashaway RV Resort,235 Ashaway Rd,Ashaway,RI,02808, (401) 377.8100,24.29168697539293
19,41.50074,-71.27195,Meadowlark,132 Prospect Ave,Middletown,RI,02842, (401) 846-9455,45.204905492764894
20,42.741609999999994,-71.68649,Field & Stream RV Park,7 Dupaw-Gould Rd,Brookline,NH,03033, (603) 673-4677,12.689676382369935
21,42.972002,-71.722838,Friendly Beaver Campground,98 Cochran Hill Rd,New Boston,NH,03070, (603) 487-5570,23.42297761522521
22,43.018390000000004,-71.16458,Pine Acres Resort,74 Freetown Rd,Raymond,NH,03077, (888) 563-7047,25.9926875632923
23,43.20527,-71.75078,Sandy Beach RV Resort,677 Clement Hill Rd,Contoocook,NH,03229, (888) 563-7040,38.06312604801476
24,42.797916,-72.513489,Hinsdale Campground At Thicket Hill Village,29 Pine St,Hinsdale,NH,03451, (603) 336-8906,46.3101716553779
25,42.867540000000005,-70.98739,Tuxbury Pond RV Resort,88 Whitehall Rd,South Hampton,NH,03827, (888) 563-7040,21.44457474998896
26,42.95924,-70.95898000000001,Green Gate Campground,185 Court St,Exeter,NH,03833, (603) 772-2100,27.784291426878273
27,43.27518,-70.5972,Moody Beach RV Campground,266 Post Rd,Wells,ME,04090, (888) 563-7040,53.19853918567174
28,42.78629,-73.19923,Pine Hollow Campground,342 Pine Hollow Rd,Pownal,VT,05261, (802) 823-5569,53.99469144095619
29,44.555295,-73.18529699999999,Lone Pine Campsites,52 Sunset View Rd,Colchester,VT,05446, (802) 878-5447,3.5864325889298567
30,44.635090000000005,-73.2676,Apple Island Resort,71 US Rt 2,South Hero,VT,05486, (802) 372-3800,10.159293422155118
31,44.09887,-72.54796,Limehurst Lake Campground,4104 Vt Route 14,Williamstown,VT,05679, (802) 433-6662,41.793269682063354
32,44.42216,-72.11483,Sugar Ridge RV Village & Campground,24 Old Stagecoach Rd,Danville,VT,05828, (802) 684-2550,52.69034886024014
33,41.64792,-72.90947,Bear Creek Campground At Lake Compounce,186 Enterprise Dr,Bristol,CT,06010, (860) 583-3300,8.07568471343638
34,41.84879,-71.79542,Stateline Campresort & Cabins,1639 Hartford Pike,East Killingly,CT,06243, (860) 774-3016,40.09565751240876
35,41.553540000000005,-72.01463000000001,Hidden Acres Family Campground,47 River Rd,Preston,CT,06365, (860) 887-9633,16.886601697435527
36,41.39985,-71.95905,Seaport RV Resort & Campground,45 Campground Rd,Old Mystic,CT,06372, (888) 203-2956,13.475867998219055
37,41.581379999999996,-71.85369,Natures Campsites,96 Ekonk Hill Rd,Voluntown,CT,06384, (860) 376-4203,24.12106126599455
38,41.30742,-72.58233,Riverdale Farm Campsite,111 River Rd,Clinton,CT,06413, (860) 669-5388,19.558552825793075
39,41.49943,-72.31784,Salem Farms Campground,39 Alexander Rd,Salem,CT,06420, (860) 859-2320,11.096879005301028
40,41.49975,-72.29711,Witch Meadow Lake Family Campground,139 Witch Meadow Rd,Salem,CT,06420, (860) 859-1542,10.628643397256164
41,41.62941,-73.04841,Gentile's Campground,223 Mount Tobe Rd,Plymouth,CT,06782, (860) 283-8437,7.488189277309221
42,41.65469,-73.09328000000001,Branch Brook Campground,435 Watertown Rd,Thomaston,CT,06787, (860) 283-8144,10.277211188279566
43,41.277590000000004,-74.63981,Pleasant Acres Farm RV Resort,61 Dewitt Rd,Sussex,NJ,07461, (800) 722-4166,25.84722509801027
44,40.91205,-75.0191,Triplebrook RV & Camping Resort,58 Honey Run Rd,Blairstown,NJ,07825, (888) 343-2267,23.585176776195727
45,39.76128,-74.31589,Long Beach Carefree RV Resort,30 Rt 72,Barnegat,NJ,08005, (609) 698-5684,4.05256847196261
46,39.461209999999994,-74.50665,Shady Pines Camping Resort,443 S 6th Ave,Galloway,NJ,08025, (609) 652-1516,20.5790321631567
47,39.61115,-74.40824,Atlantic Shore Pines Campground,450 Ishmael Rd,Tuckerton,NJ,08087, (609) 296-9163,9.208341893521089
48,38.98265,-74.90666,Seashore Campsites & RV Resort,720 Seashore Rd,Cape May,NJ,08204, (800) 313-2267,59.95231342113245
49,39.07622,-74.89475999999999,King Nummy Trail Campground,205 S Delsea Dr,Cape May Court House,NJ,08210, (609) 465-4242,54.2941321794756
50,39.12555,-74.78662,Sea Pines RV Resort & Campground,1535 Rt 9,Swainton,NJ,08210, (888) 563-7040,48.16857988661456
51,39.12596,-74.81107,Big Timber Lake RV and Camping Resort,116 Swainton Goshen Rd,Cape May Court House,NJ,08210, (888) 306-2853,48.882602357554326
52,39.150040000000004,-74.7644,Driftwood RV Resort & Campground,1955 Rt 9 North,Clermont,NJ,08210, (888) 363-2901,46.10098672186736
53,39.5263,-74.5995,Holly Acres Campground,218 Frankfurt Ave,Egg Harbor City,NJ,08215, (609) 965-5055,20.777892380398416
54,39.19924,-74.7122,Echo Farms RV Resort,3066 US Rt 9,Ocean View,NJ,08230, (609) 624-3589,41.72676582278807
55,39.2037,-74.72001999999999,Lake & Shore RV,515 Corson Tavern Rd,Ocean View,NJ,08230, (609) 624-1494,41.698992350589556
56,39.47422,-74.58358,Pomona RV Park,536 S Pomona Rd,Galloway,NJ,08240, (609) 965-2123,22.510345940258436
57,39.54037,-74.46763,Chestnut Lake RV Campground,631 Chestnut Neck Rd,Port Republic,NJ,08241, (888) 563-7040,14.962186558148787
58,39.4162,-74.83622,Country Oaks Campground,13 S Jersey Ave,Dorothy,NJ,08317, (609) 476-2143,35.49159170359798
59,39.41853,-74.79914000000001,Mays Landing Campground,1079 12th Ave,Mays Landing,NJ,08330, (888) 563-7045,33.78074350193815
60,40.11889,-74.45748,Timberland Lake Campground,1335 Reed Rd,Jackson,NJ,08527, (732) 928-0500,15.169664044494413
61,40.10068,-74.27188000000001,Tip Tam Camping Resort,301 Brewers Bridge Rd,Jackson,NJ,08527, (732) 363-4036,6.849609732401047
62,40.10042,-74.41549,Indian Rock RV Park,920 West Veterans Hwy,Jackson,NJ,08527, (732) 928-0034,14.033037615925805
63,41.32242,-74.3734,Black Bear Campground,197 Wheeler Rd,Florida,NY,10921, (845) 651-7717,23.442458344355476
64,41.7956,-74.2482,Rondout Valley Resort,105 Mettacahonts Rd,Accord,NY,12404, (888) 563-7040,48.89331379678195
65,41.73977,-74.54472,Jellystone Park At Birchwood Acres,85 Martinfeld Road,Greenfield Park,NY,12435, (800) 552-4724,51.31615970343876
66,41.72902,-74.50907,Skyway Camping Resort,99 Mountaindale Rd,Greenfield Park,NY,12435, (800) 447-5992,49.72664839540192
67,42.092490000000005,-74.01863,Rip Van Winkle Campgrounds Inc,149 Blue Mountain Rd,Saugerties,NY,12477, (800) 246-3357,54.921229307628536
68,42.11651,-73.54502,Waubeeka Family Camground,133 Farm Rd,Copake,NY,12516, (518) 329-4681,47.10194515933308
69,42.091159999999995,-73.78814,Brook N Wood Family Campground,1947 CR Rt 8,Elizaville,NY,12523, (888) 625-3186,48.95421039339548
70,41.90406,-73.81268,Interlake RV Park & Sales,428 Lake Dr,Rhinebeck,NY,12572, (845) 266-5387,38.197311126187735
71,44.38745,-73.82457,North Pole Resorts,5644 Rte 86,Wilmington,NY,12997, (518) 946-7733,33.157152473734705
72,43.584790000000005,-76.18619,Brennan Beach RV Resort,80 Brennan Beach,Pulaski,NY,13142, (888) 563-7040,36.717163580212606
73,42.889901,-75.54892199999999,Cider House Campground,6769 State Route 20,Bouckville,NY,13310, (315) 825-8477,38.34589690372467
74,43.1061,-75.60514,The Villages At Turning Stone,5065 Sr 365,Verona,NY,13478, (315) 361-7275,33.8457059643605
75,43.20399999999999,-78.405,Niagara Shores Campground & Conference Center,6419 Lake Rd,Appleton,NY,14008, (716) 778-8568,40.45525679911228
76,42.88498,-78.30741,Skyline RV Resort,10933 Town Line Rd,Darien Center,NY,14040, (585) 591-2021,38.546416904653526
77,42.66114,-78.38534,Beaver Meadow Family Campground,1455 Beaver Meadow Rd,Java Center,NY,14082, (585) 457-3101,50.127525607638745
78,43.230151,-78.629861,Niagara County Camping Resort,7369 Wheeler Rd,Lockport,NY,14094, (716) 434-3991,51.95029061316145
79,42.74896,-77.71132,Conesus Lake Campground,5609 E Lake Rd,Conesus,NY,14435, (585) 346-CAMP,25.7122748941471
80,43.224470000000004,-76.78472,Cherry Grove Campground,12669 Ridge Rd,Wolcott,NY,14590, (315) 594-8320,28.45917621102267
81,42.51597,-76.58714,Spruce Row Campground & RV Park,2271 Kraft Rd,Ithaca,NY,14850, (607) 387-9225,40.63420282443697
82,40.1281,-79.9558,Pine Cove Beach Club & RV Resort,1495 SR 481,Charleroi,PA,15022, (724) 239-2900,19.034334750424303
83,40.692663,-79.32746999999999,Wheel In Campground,113 Wheelin Camp Ground,Shelocta,PA,15774, (724) 354-3693,37.12953730446635
84,40.9298,-80.12604,Bear Run Campground,184 Badger Hill Rd,Portersville,PA,16051, (724) 368-3564,16.528281476521826
85,41.17735,-79.74291,Gaslight Campground,6297 Emlenton Clintonville Rd,Emlenton,PA,16373, (724) 867-6981,38.630097841383055
86,40.201209999999996,-76.61091,Hershey RV Park & Lodging,1590 Hershey Rd,Elizabethtown,PA,17022, (717) 367-1179,12.475169831235146
87,40.42286,-76.46684,Jonestown Aok Campground,145 Old Rt 22,Jonestown,PA,17038, (717) 865-2526,19.21503057640741
88,40.55918,-77.59924000000001,Waterside Campground & RV Park,475 Locust Rd,Lewistown,PA,17044, (717) 248-3974,45.536203498322735
89,40.34617,-77.42766,Paradise Stream Family Campground,693 Paradise Stream Rd,Loysville,PA,17047, (717) 789-2117,33.26135188005678
90,40.23219,-76.79844,Harrisburg East Campground,1134 Highspire Rd,Harrisburg,PA,17111, (717) 939-4331,5.356572928219207
91,39.96353,-76.9561,Gettysburg Farm RV Campground,6200 Big Mount Rd,Dover,PA,17315, (888) 563-7040,25.28925801070069
92,40.064018,-77.226726,Mountain Creek Campground,349 Pine Grove Rd,Gardners,PA,17324, (717) 486-7681,28.25794124622143
95,39.77883,-77.23577,Round Top Campground,180 Knight Rd,Gettysburg,PA,17325, (717) 334-9565,27.586951540656717
94,39.8182,-77.28534,Gettysburg Campground,2030 Fairfield Rd,Gettysburg,PA,17325, (717) 334-3304,29.465623415425686
93,39.82437,-77.19668,Drummer Boy Camping Resort,1 Rocky Grove Rd,Gettysburg,PA,17325, (800) 293-2808,31.255976346454922
96,40.207159999999995,-75.99118,Sun Valley RV Resort,451 E. Maple Grove Rd,Narvon,PA,17507, (888) 563-7040,17.603692073196964
97,40.238677,-76.083761,Shady Grove Campground,65 Poplar Dr,Denver,PA,17517, (717) 484-4225,15.720414755133753
98,40.263703,-76.159951,Hickory Run Family Camping Resort,285 Greenville Rd,Denver,PA,17517, (717) 336-5564,15.390366474164875
99,40.01489,-76.14439,Country Acres Campground,20 Leven Rd,Gordonville,PA,17529, (866) 675-4745,6.497097436871186
100,39.85845,-76.33098100000001,Tucquan Park Family Campground,917 River Rd,Holtwood,PA,17532, (717) 284-2156,14.012290784465353
101,39.83814,-76.05785999999999,Oma's Family Campground,2085 Kirkwood Pike,Kirkwood,PA,17536, (717) 529-2020,18.200472316814835
102,40.01634,-76.39497,PA Dutch Country RV Resort,185 Lehman Rd,Manheim,PA,17545, (888) 563-7040,7.783622208498452
103,40.229532,-76.45237,Pinch Pond Family Campground,3075 Pinch Rd,Manheim,PA,17545, (800) 659-7640,15.992580658363684
104,40.0654,-76.01726,Spring Gulch Resort Campground,475 Lynch Rd,New Holland,PA,17557, (888) 563-7040,12.699306824354158
106,40.025128,-76.16766700000001,Flory's Cottages & Camping,Po Box 308,Ronks,PA,17572, (717) 687-6670,5.083619033876993
105,40.009149,-76.161814,Mill Bridge Village And Campresort,101 S Ronks Rd,Ronks,PA,17572, (717) 687-8181,5.86126570571326
107,39.997890000000005,-76.32282,Circle M Camping Resort,2111 Millersville Rd,Lancaster,PA,17603, (888) 563-7040,5.200098994096708
108,40.94214,-76.85207,Yogi At Shangri La,670 Hidden Paradise Rd,Milton,PA,17847, (570) 524-4561,43.71802669581148
109,41.180451,-76.318655,Whispering Pines Camping Estates,1557 N Bendertown Rd,Stillwater,PA,17878, (570) 925-6810,57.85348600239629
110,40.51303,-76.51501,Twin Grove RV Resort & Cottages,1445 Suedburg Rd,Pine Grove,PA,17963, (800) 562-5471,20.539052435350744
111,40.59818,-76.39109,Echo Valley Campground,52 Camp Rd,Tremont,PA,17981, (570) 695-3659,29.316289670293806
112,40.75875,-75.75705,StonyBrook RV Resort,1435 Germans Rd,Lehighton,PA,18235, (570) 386-4088,16.628417953354944
113,40.99954,-75.18129,Timothy Lake North RV Park,1 Timothy Lake Rd,East Stroudsburg,PA,18301, (888) 563-7040,32.68306310957646
114,41.045429999999996,-75.15406999999999,Mountain Vista Campground,Rr 2 Box 2190,East Stroudsburg,PA,18301, (570) 223-0111,32.07458645605332
115,40.99954,-75.18129,Timothy Lake South RV Park,1 Timothy Lake Rd,East Stroudsburg,PA,18301, (888) 563-7040,32.68306310957646
116,40.919832,-75.371851,Silver Valley Campsites/Best Holiday,Rr 4 Box 4214,Saylorsburg,PA,18353, (570) 992-4824,26.500321350310355
118,41.06754,-75.31945,Scotrun RV Resort,224 Ermine Way,Scotrun,PA,18355, (888) 563-7040,36.984325215294334
117,41.06411,-75.33314,Four Seasons Campgrounds,249 Babbling Brook Rd,Scotrun,PA,18355, (570) 629-2504,36.51527437866345
119,41.454370000000004,-75.45104,Clayton Park Recreational Area,26 Eagle Eye Dr,Lake Ariel,PA,18436, (570) 698-6080,59.52854259016773
120,41.15616,-75.37873,Hemlock Campground & Cottages,559 Hemlock Rd,Tobyhanna,PA,18466, (570) 894-4388,41.92154419802951
121,41.06585,-75.75272,Lehigh Gorge Campground,4585 State St,White Haven,PA,18661, (570) 443-9191,35.846789241964125
122,33.61332,-80.34931,Taw Caw Campground & Marina,1328 Joyner Dr,Summerton,SC,19148, (803) 478-2171,55.28534330187774
123,40.269414000000005,-75.304622,Village Scene RV Park,2151 Koffel Rd,Hatfield,PA,19440, (215) 362-6030,4.335483786529286
124,40.5807,-75.85608,Robin Hill Campground,149 Robin Hill Rd,Lenhartsville,PA,19534, (888) 563-7040,15.218988192853455
125,40.51427,-76.11851,Appalachian RV Campground,60 Motel Drive,Shartlesville,PA,19554, (888) 563-7040,29.223104072762343
126,38.87638,-77.61081,Greenville Farm Family Campground,14004 Shelter Lane,Haymarket,VA,20169, (703) 754-7944,8.161269519640808
127,38.605027,-77.352751,Prince William Forest RV Campground,16058 Dumfries Rd,Dumfries,VA,22025, (703) 221-2474,4.073735548827366
129,38.23932,-76.96856,Monroe Bay Campground,1412 Monroe Bay Circle,Colonial Beach,VA,22443, (804) 224-7418,30.007167786926065
128,38.20369,-76.97400999999999,Harbor View RV Park,15 Harbor View Circle,Colonial Beach,VA,22443, (888) 563-7040,30.13400833163543
130,37.987794,-77.769346,R & D Family Campground,22085 Sparta Rd,Milford,VA,22514, (804) 633-9515,25.26199143541011
131,38.31025,-77.65513,Wilderness Presidential Resort,9220 Plank Rd,Spotsylvania,VA,22553, (540) 972-7433,7.643396564125724
132,39.18756,-78.20492,Candy Hill Campground,165 Ward Ave,Winchester,VA,22602, (800) 462-0545,3.3602785032331304
133,38.88839,-78.23031999999999,Front Royal RV Campground,585 Koa Drive,Front Royal,VA,22630, (540) 635-2741,19.00379440788559
134,38.956579999999995,-78.23181,North Fork Resort,301 North Fork Rd,Front Royal,VA,22630, (540) 636-2995,14.462999846921885
135,38.35417,-78.28205,Madison Vines RV Resort & Cottages,110 Campground Lane,Madison,VA,22727, (540) 948-4186,22.91424874498849
136,38.71524,-78.66192,Shenandoah Valley Campground,168 Industrial Park Road,Mt Jackson,VA,22842, (540) 477-3080,22.49945652046842
137,38.03972,-78.73979,Misty Mountain RV & Camp Resort,56 Misty Mountain Rd,Greenwood,VA,22943, (888) 647-8900,13.707815619240305
138,37.87128,-78.91861,Devils Backbone Camp,200 Mosbys Run,Roseland,VA,22967, (540) 602-6018,26.939025352008034
139,37.70995,-77.4472,Americamps RV Resort,11322 Air Park Rd,Ashland,VA,23005, (804) 798-5298,7.8059506146416044
140,37.53613,-76.53495,Thousand Trails Chesapeake Bay RV Resort,12014 Trails Ln,Gloucester,VA,23061, (888) 563-7041,29.71918376909297
141,37.49088,-76.27467,Gwynn's Island RV Resort,551 Buckchase Rd,Gwynn,VA,23066, (804) 725-3498,29.20812990695931
142,37.405958,-76.93459,Rockahock Campgrounds & Resort RV Park,1428 Outpost Rd,Lanexa,VA,23089, (804) 966-8362,31.777390788906423
143,38.097947999999995,-77.891987,Christopher Run Campground,6478 Zachary Taylor Hwy,Lake Anna,VA,23117, (540) 894-4744,24.553108566011225
144,37.34339,-76.2774,New Point RV Resort,846 Sand Bank Rd,New Point,VA,23125, (248) 327-2373,20.33801830996035
145,37.5397,-78.01788,Cozy Acres Campground/RV Park,2177 Ridge Road,Powhatan,VA,23139, (804) 598-2470,22.737946892065253
146,37.6102,-76.43783,Grey's Point Camp,3601 Greys Point Rd,Topping,VA,23169, (888) 563-7040,34.903316753747696
147,37.64929,-76.58634,Bethpage Camp Resort,679 Brown's Lane,Urbanna,VA,23175, (888) 563-7040,37.77211389516348
148,37.386759999999995,-76.7669,Williamsburg RV Campground Thousand Trails,4301 Rochambeau Dr,Williamsburg,VA,23188, (888) 563-7040,24.41471588773656
149,37.376290000000004,-76.76682,American Heritage RV Park,146 Maxton Ln,Williamsburg,VA,23188, (888) 530-2267,23.844618944811472
150,37.306133,-76.72814100000001,Anvil Campground,5243 Mooretown Rd,Williamsburg,VA,23188, (800) 633-4442,18.78737643487946
151,37.479820000000004,-75.79597,Virginia Landing RV Campground,40226 Upshur Neck Road,Quinby,VA,23423, (888) 563-7040,46.412304818983564
152,36.702432,-76.607187,Davis Lakes And Campground,200 Byrd St,Suffolk,VA,23434, (757) 539-1191,24.83765785120709
153,36.805095,-75.99370400000001,Holiday Trav L Park Of Virginia Beach,1075 General Booth Blvd,Virginia Beach,VA,23451, (866) 850-9630,11.872318542088768
154,36.55768,-76.00685,North Landing Beach Riverfront Campground and Resort,161 Princess Anne Rd,Virginia Beach,VA,23457, (757) 426-6241,22.944086536816982
155,37.02216,-76.2985,The Colonies RV & Travel Park at Fort Monroe,501 Fenwick Rd,Hampton,VA,23651, (757) 722-2200,12.393213011498842
156,37.13323,-77.50835,Camptown Campground,22819 Campton Dr,Petersburg,VA,23803, (804) 469-4569,26.833208984847186
157,37.164320000000004,-77.51302,Picture Lake Campground,7818 Boydton Plank Rd,Petersburg,VA,23803, (804) 861-0174,24.681262352053924
158,37.077155,-77.352422,South Forty Camp Resort,2809 Courtland Rd,Petersburg,VA,23805, (877) 732-8345,33.22302175990201
159,36.75584,-77.48294,Yogi Bear's Jellystone Park Camp Resort Emporia,2940 Sussex Dr,Emporia,VA,23847, (434) 634-3115,52.75567171296203
160,36.563565999999994,-78.076978,Lake Gaston Americamps,9 Lakeside Ln,Bracey,VA,23919, (434) 636-2668,59.49421158640593
161,36.6577,-79.8788,Indian Heritage RV Park,184 Tensbury Dr,Martinsville,VA,24112, (276) 632-9500,41.39192809810645
162,36.83354,-80.71375,Lake Ridge RV Resort,8736 Double Cabin Rd,Hillsville,VA,24343, (866) 513-1773,57.444370272130385
163,38.04802,-79.09940999999999,Walnut Hills Campground and RV Park,484 Walnut Hills Rd,Staunton,VA,24401, (540) 337-3920,29.29243828463639
164,37.831528000000006,-79.377365,Lee Hi Campground,2516 N Lee Hwy,Lexington,VA,24450, (540) 463-3478,49.91567320226551
165,38.22193,-79.01326,Shenandoah Valley Campground,476 Bald Rock Rd,Verona,VA,24482, (540) 248-CAMP,16.510004622888708
166,36.701859999999996,-79.33355,Paradise Lake & Campground,593 Keeling Dr,Keeling,VA,24566, (434) 836-2620,51.95432127661717
167,37.338409999999996,-78.93726,Paradise Lake Family Campground,1105 West Lake Rd,Spout Spring,VA,24593, (434) 993-3332,55.80268110114016
168,39.56817,-77.88333,Leatherman's Falling Waters Campsite,7685 Williamsport Pike,Falling Waters,WV,25419, (800) 527-4902,27.908010373598255
169,38.91091,-79.70779,Revelles River Resort,5 Faulkner Rd,Bowden,WV,26254, (304) 636-0023,56.809383287890206
170,39.685629999999996,-79.77331,Sand Springs Camping Area,Sand Springs Rd,Morgantown,WV,26507, (304) 594-2415,50.09834276102048
171,35.85902,-80.39618,Forest Lake Preserve,192 Thousand Trails Dr,Advance,NC,27006, (888) 563-7040,14.820107880641995
172,35.92426,-80.65409,Lake Myers RV & Camping Resort,2862 US 64 West,Mocksville,NC,27028, (888) 563-7040,21.173511345855736
173,36.45433,-80.63665999999999,Mayberry Campground,114 Bunker Rd,Mount Airy,NC,27030, (336) 789-6199,32.253661235078134
174,36.3418,-80.44803,Greystone RV Park,1164 Pilot Knob Park Rd,Pinnacle,NC,27043, (336) 368-5588,20.47120457311801
175,35.604707,-79.850115,Zooland Family Campground LLC,3671 Pisgah Covered Bridge Rd,Asheboro,NC,27205, (336) 381-3422,31.26754445562626
177,35.45765,-78.39428000000001,Four Oaks Lodging & RV Resort,4606 Us Highway 301 S,Four Oaks,NC,27524, (919) 963-3596,27.952619771337627
176,35.45131,-78.38793000000001,Raleigh Oaks RV Resort & Cottages,497 US 701 S,Four Oaks,NC,27524, (800) 377-8436,28.505318182391868
178,35.74474,-77.873213,Kamper's Lodge Of America,3465 Us Highway 301 N,Wilson,NC,27893, (252) 237-0905,42.35395733127087
179,35.358959999999996,-80.69059,Camping World Racing Resort,6600 Bruton Smith Blvd,Concord,NC,28027, (704) 455-4445,15.836285562221857
180,35.15698,-78.70761999999999,Fayetteville RV Resort & Cottages,6250 Wade Stedman Rd,Wade,NC,28395, (910) 484-5500,41.22248577157762
181,34.431540000000005,-77.56902,Lanier's Campground,1161 Spot Lane,Holly Ridge,NC,28445, (910) 328-9431,21.4489818896246
182,33.93691,-78.50161,Brunswick Beaches RV Resort,7200 Koa Dr Sw,Sunset Beach,NC,28468, (888) 562-4240,28.66925070430642
183,34.712959999999995,-77.21134,Deep Creek RV Resort & Campground,181 Waterfront Road,Hubert,NC,28539, (910) 330-9333,49.4821513401785
184,34.70933,-77.2289,Hawkins Creek Campground,252 Reid Acres Ln,Hubert,NC,28539, (910) 340-4131,48.55844341167051
185,34.69166,-77.47868000000001,Cabin Creek Campground,3200 Wilmington Hwy,Jacksonville,NC,28540, (910) 346-4808,37.91477501582992
186,34.70162,-76.99676,Goose Creek Resort,350 Red Barn Rd,Newport,NC,28570, (252) 393-2628,58.94243809445097
187,34.679959999999994,-77.09114,Waterway RV Park,850 Cedar Point Blvd,Cedar Point,NC,28584, (252) 393-8715,53.609796942843865
188,36.28918,-80.87746,Byrd's Branch Campground & Country Store,225 Martin Byrd Rd,Elkin,NC,28621, (336) 526-1146,34.91795739028752
189,35.86609,-80.7065,Midway Campground & RV Resort,114 Midway Dr,Statesville,NC,28625, (855) 882-7999,21.15620239496878
190,36.0012,-80.83113,Van Hoy Farms Family Campground,742 Jericho Rd,Harmony,NC,28634, (704) 539-5493,28.852929795307425
191,35.95366,-81.51214,Green Mountain Park Resort,2495 Dimmette Rd,Lenoir,NC,28645, (888) 563-7040,45.04758144163778
192,35.73854,-81.72483000000001,Riverside Golf & RV Park,611 Independence Blvd,Morganton,NC,28655, (828) 433-6464,50.27282354940059
193,35.376,-83.4562,Smoky Mountain Meadows Campground,755 E Alarka Rd,Bryson City,NC,28713, (828) 488-3672,52.65754665330383
194,35.468521,-83.300551,Happy Holiday RV Village,1553 Wolfetown Rd,Cherokee,NC,28719, (828) 497-9204,55.72659320953911
195,35.55402,-83.25894,Yogi In The Smokies,317 Galamore Bridge Rd,Cherokee,NC,28719, (828) 497-9151,54.92452670242955
196,35.30155,-82.40204,Lakewood RV Resort,15 Timmie Ln,Flat Rock,NC,28731, (888) 819-4200,32.4827214530586
197,35.44103,-82.52161,Rutledge Lake RV Resort,125 Jillian Trail,Fletcher,NC,28732, (828) 654-7873,43.34430861421752
198,35.68744,-82.06345999999999,Tom Johnson Camping World's Mountain Resort,348 Resistoflex Rd,Marion,NC,28752, (800) 225-7802,51.6599491017531
199,35.71792,-82.07238000000001,Buck Creek RV Park & Driving Range,2576 Toms Creek Rd,Marion,NC,28752, (828) 724-4888,53.79318811598001
200,35.586342,-82.405426,Mama Gertie's Hideaway Campground,15 Uphill Rd,Swannanoa,NC,28778, (828) 686-4258,50.16370317885718
202,35.44239,-83.3317,Fort Wilderness Campground and RV Park,284 Fort Wilderness Rd,Whittier,NC,28789, (828) 497-9331,55.254133231494045
201,35.44274,-83.30724000000001,Flaming Arrow Campground,283 Flaming Arrow Dr,Whittier,NC,28789, (877) 497-6161,56.38011884532862
203,35.36801,-82.40648,Jaymar Travel Park,140 Jaymar Park Dr,Hendersonville,NC,28792, (828) 685-3771,37.05051844520503
204,35.29497,-82.42639,Town Mountain Travel Park,48 Town Mountain Rd,Hendersonville,NC,28792, (828) 697-6692,32.28073688208527
205,35.58379,-82.46846,Scenic RV Resort,45 Scenic Dr,Asheville,NC,28805, (888) 563-7040,51.746898029947815
206,35.55834,-82.60307,Asheville Bear Creek RV Park,81 S Bear Creek Rd,Asheville,NC,28806, (800) 833-0798,52.426528973962554
207,35.13685,-83.97703,Peachtree Cove RV Park,68 Old Peachtree Rd,Marble,NC,28905, (828) 557-2722,53.168822468558105
208,35.12161,-84.00114,Valley River RV Resort,65 Old Tomotla Rd,Marble,NC,28905, (828) 385-4220,53.988501819419334
209,33.976977000000005,-81.156048,Barnyard RV Park,201 Oak Dr,Lexington,SC,29073, (800) 633-6351,6.522613856233994
210,33.520759999999996,-80.42763000000001,Palmetto Shores RV Resort,5215 Dingle Pond Rd,Summerton,SC,29148, (803) 478-6336,54.89257628254292
211,33.667970000000004,-81.19844,River Bottom Farms Family Campground,357 Cedar Creek Rd,Swansea,SC,29160, (803) 568-4182,27.956083019664778
212,34.21812,-81.21391,Broad River Campground & RV Park,16842 State Hwy 215 South,innsboro,SC,29180, (803) 749-9100,11.036406634317482
213,34.985659999999996,-82.04059000000001,Spartanburg/Cunningham RV Park,600 Campground Rd,Spartanburg,SC,29303, (864) 576-1973,3.9733945636886467
214,34.2467,-81.98939,Moon Landing RV Park & Marina,4105 Watts Bridge Rd,Cross Hill,SC,29332, (864) 998-4292,44.5760400896643
215,34.432165999999995,-81.755834,Magnolia RV Park & Campground,567 Fairview Church Rd,Kinards,SC,29355, (864) 697-1214,37.62113608086579
216,32.779188,-80.15092299999999,Lake Aire RV Park & Campground,4375 Highway 162,Hollywood,SC,29449, (843) 571-1271,6.790510677407196
217,32.802938,-80.107043,Oak Plantation Campground LP,3540 Savannah Hwy,Seabrook Island,SC,29455, (843) 766-5936,4.172207875412378
218,33.17987,-80.51405,Jolly Acres RV Park & Storage,289 Horne Taylor Rd,St George,SC,29477, (843) 563-8303,38.373436739859216
219,32.883790000000005,-80.71592,New Green Acres RV Park,396 Campground Rd,Walterboro,SC,29488, (800) 474-3450,40.02439294180728
220,34.49757,-79.30655,Camp Pedro,3345 Hwy 301 N,Hamer,SC,29547, (843) 774-2411,58.996826709811344
221,33.795571,-78.75054399999999,Briarcliffe RV Resort,10495 N Kings Hwy,Myrtle Beach,SC,29572, (843) 272-2730,11.357969759937113
222,33.687921,-78.999528,Cypress Camping Resort,101 Waterway Lane,Myrtle Beach,SC,29588, (843) 293-0300,4.970691323634609
223,34.760009000000004,-82.384507,Springwood RV Park,810 Donaldson Rd,Greenville,SC,29605, (864) 277-9789,6.631973801547844
224,34.49877,-82.97758,Carolina Landing RV Resort,120 Carolina Landing Drive,Fair Play,SC,29643, (888) 563-7040,44.4163280066985
225,34.62425,-82.7851,Clemson RV Park at the Grove,150 Dalton Dr,Pendleton,SC,29670, (864) 228-2858,30.574229022345996
226,34.56391,-82.857372,Lake Hartwell Camping & Cabins,400 Ponderosa Pt,Townville,SC,29689, (888) 427-8935,36.22319886933096
227,35.0601,-80.9041,Crown Cove RV Park,8332 Regent Pkwy,Fort Mill,SC,29715, (803) 547-3500,7.067659882004989
228,32.62529,-80.87449000000001,The Oaks at Point South RV,1292 Campground Rd,Yemassee,SC,29945, (888) 563-7040,50.244614336925096
229,33.92823,-84.50684,Atlanta Marietta RV Resort,1031 Wylie Rd SE,Marietta,GA,30067, (770) 427-6853,3.9215918038147652
230,33.81969,-84.11333,Stone Mountain Park Campground,4003 Stonewall Jackson Dr,Stone Mountain,GA,30083, (770) 498-5710,8.990883348371286
231,34.108816,-84.71179599999999,Allatoona Landing Campground,24 Allatoona Landing Rd Se,Cartersville,GA,30121, (770) 974-6089,10.639068151245924
232,34.13313,-85.30828000000001,Cedar Creek RV & Outdoor Center,6770 Cave Spring Rd SW,Cave Spring,GA,30124, (706) 777-3030,43.27675076924111
233,33.8126,-84.63436999999999,Sweetwater Creek RV Reserve,2558 Wren Circle,Austell,GA,30168, (770) 743-4378,10.555153538009854
234,33.25707,-84.09340999999999,Forest Glen Mobile Home & RV Park,218 Glade Rd,Jackson,GA,30233, (770) 228-3399,25.759752654428514
235,33.47429,-84.216493,Atlanta South RV Park,281 MT Olive Rd,Mcdonough,GA,30253, (770) 957-2610,9.538481082517515
237,34.536840000000005,-83.76715,Leisure Acres Campground,3840 Westmoreland Rd,Cleveland,GA,30528, (706) 865-6466,29.990260718762244
236,34.64765,-83.73565,Yonah Mountain Campground,3678 Helen Hwy,Cleveland,GA,30528, (706) 865-6546,37.07671057571406
238,34.63994,-84.50109,Plum Nelly Campground,15828 Hwy 515 S,Ellijay,GA,30536, (706) 698-7586,35.93497968239546
239,34.89177,-83.77051,Bald Mountain Camping Resort,751 Gander Gap Rd,Hiawassee,GA,30546, (706) 896-8896,50.85464498171109
240,34.74948,-83.66819,Creekwood Resort,5730 Hwy 356,Sautee Nacoochee,GA,30571, (706) 878-2164,45.025286376045806
241,34.31838,-84.89035,Calhoun AOk Campground,2523 Redbud Rd NE,Calhoun,GA,30701, (706) 629-7511,24.950539588011925
242,33.02687,-83.87065,L & D RV Park,1655 Dames Ferry Rd,Forsyth,GA,31029, (478) 994-8977,46.138946355261744
243,30.85175,-82.01864,Okefenokee RV Park,252 Bowery Ln,Homeland,GA,31537, (912) 496-2220,47.39804832094247
244,30.82185,-82.00258000000001,Jenny Ridge Venue & RV Park,2790 Second St South,Folkston,GA,31537, (912) 496-1172,45.13886040231983
245,30.76033,-81.65835,Country Oaks Campground & RV Park,6 Carlton Cemetery Rd,Kingsland,GA,31548, (912) 729-6212,35.807218370176635
246,30.89459,-83.35656,Valdosta Oaks RV Park,4630 N Valdosta Rd,Valdosta,GA,31602, (229) 247-0494,59.0663997745673
247,30.9497,-84.02605,Sugar Mill RV Park,4857 Mcmillan Rd,Ochlocknee,GA,31773, (229) 227-1451,35.46908701694363
248,30.832620000000002,-83.9462,Eastern Pines RV Park,277 Old Boston Rd,Thomasville,GA,31792, (833) 682-4508,30.128326616622292
249,30.644920000000003,-81.8698,Kelly's Countryside RV Park,36065 Kelly Ln,Callahan,FL,32011, (904) 845-4252,31.236965857227535
250,29.982429999999997,-81.74288,Clay County Fairgrounds,2493 SR 16 West,Green Cove Springs,FL,32043, (904) 284-1615,15.163385159748088
251,30.256970000000003,-82.63701,Lake City Campground,4743 N Us 441,Lake City,FL,32055, (866) 773-CAMP,52.8172809424797
252,30.2432,-82.64083000000001,Lake City RV Resort,3864 N US Hwy 441,Lake City,FL,32055, (386) 752-0830,52.98993657585697
253,29.952170000000002,-81.30484,North Beach Camp Resort,4125 Coastal Hwy,St Augustine,FL,32084, (800) 542-8316,24.774095857807847
254,29.8323,-81.37794,St Johns RV Park,2493 SR-207,ST Augustine,FL,32086, (904) 824-9840,30.367979707859185
255,29.851613,-81.358991,Compass RV Park,1505 Sr-207,St Augustine,FL,32086, (904) 824-3574,29.487760643451814
256,29.91933,-81.42182,Stagecoach RV Park,2711 Cr-208,St Augustine,FL,32092, (904) 824-2319,23.864023866211628
257,29.114279999999997,-80.98523,Rose Bay Travel Park,5200 S. Nova Rd,Port Orange,FL,32127, (386) 767-4308,40.262198587913154
258,29.132314,-81.028177,Daytona Beach RV Resort,4601 S Clyde Morris Blvd,Port Orange,FL,32129, (386) 761-2663,40.1236737607413
259,29.134471,-81.015149,Nova Family Campground,1190 Herbert St,Port Orange,FL,32129, (386) 767-0095,40.68848095779169
261,29.521040000000003,-81.14766999999999,Beverly Beach Camptown,2815 N Oceanshore Blvd,Flagler Beach,FL,32136, (800) 255-2706,55.41143127766413
260,29.436190000000003,-81.14486,Bulow RV Resort,3345 Old Kings Rd South,Flagler Beach,FL,32136, (888) 563-7040,55.876905774371686
262,28.9421,-81.92827,Blue Parrot RV Resort,40840 CR-25,Lady Lake,FL,32159, (352) 753-2026,36.54230866403128
263,28.94313,-81.89752,Grand Oaks Resort & Museum,3525 Griffin Ave,Lady Lake,FL,32159, (352) 750-6300,35.01342091695185
264,28.99645,-80.94288399999999,New Smyrna Beach RV Park,1300 Old Mission Rd,New Smyrna Beach,FL,32168, (800) 928-9962,34.88096790399889
265,29.001520000000003,-80.94036,Sugar Mill Ruins Travel Park,1050 Old Mission Rd,New Smyrna Beach,FL,32168, (386) 427-2284,35.249516441787556
266,29.344179999999998,-81.13739,Sunshine Holiday Daytona RV Resort,1701 N US-1,Ormond Beach,FL,32174, (888) 563-7040,50.011024916986415
267,29.31301,-81.10285999999999,Harris Village & Adult RV Park Llc,1080 N Us-1,Ormond Beach,FL,32174, (386) 673-0494,48.77543007672768
268,29.317591999999998,-81.052521,Coral Sands RV Resort,1047 Ocean Shore Blvd,Ormond Beach,FL,32176, (800) 441-1831,50.32739268779596
269,30.516906,-81.63914399999999,Pecan Park RV Resort,650 Pecan Park Rd,Jacksonville,FL,32218, (888) 604-6770,19.315119000254978
270,30.456709999999998,-81.70775,Flamingo Lake RV Resort,3640 Newcomb Rd,Jacksonville,FL,32218, (800) 782-4323,17.533864293677198
271,30.507959999999997,-84.33808,Big Oak RV Park,4024 N Monroe St,Tallahassee,FL,32303, (850) 562-4660,8.195384378580501
272,30.481409999999997,-84.17025,Tallahassee RV Park,6504 Mahan Dr,Tallahassee,FL,32308, (850) 878-7641,2.880198476640971
273,30.60922,-84.80995,Triple C's Campground & RV Park,2309 Flat Creek Rd,Chattahoochee,FL,32324, (850) 442-3333,37.09197700189449
274,30.47816,-83.89466,A Campers World,397 Campground Rd,Lamont,FL,32336, (850) 997-3300,18.97958882316953
275,30.396109999999997,-83.36816,Ragans Family Campground,1051 SW Old St Augustine Rd,Madison,FL,32340, (850) 973-8269,50.573095555780895
276,30.4683,-83.4376,Madison RV & Golf Resort,445 SW Country Club Rd,Madison,FL,32340, (850) 688-0363,46.21874817152484
277,30.477659999999997,-83.91598,Tallahassee East Campground,346 Koa Rd,Monticello,FL,32344, (844) 997-3890,17.707938573356383
278,30.0178,-84.39200000000001,Panacea RV Park,1089 Coastal Hwy,Panacea,FL,32346, (850) 984-5883,32.3410115142713
279,30.311320000000002,-87.42855,Perdido Key RV Resort,13770 River Rd,Pensacola,FL,32507, (877) 402-7873,47.26824146784767
280,30.5195,-87.32616999999999,Pensacola RV Park,3117 Wilde Lake Blvd,Pensacola,FL,32526, (850) 944-1734,48.02751185032182
281,29.81751,-82.51528,Travelers Campground,17701 April Blvd,Alachua,FL,32615, (386) 462-2505,52.657043107428095
282,29.8752,-82.54861,High Springs Campground,24004 Old Bellamy Rd,High Springs,FL,32643, (386) 454-1688,52.55908638110664
283,29.4499,-82.21486,Sportsman's Cove Campground,5423 Avenue F Box 107,Mcintosh,FL,32664, (352) 591-1435,58.686252584982164
284,29.816029999999998,-82.16884,Dixieland Music & RV Park,17500 US Hwy 301,Waldo,FL,32694, (352) 468-3988,36.32523722865132
285,28.63,-81.4986,Lost Lake RV Park,3400 Clarcona Rd,Apopka,FL,32703, (407) 886-1996,5.3778134758210046
286,28.89061,-81.35384,Highbanks Marina & Campresort,488 West Highbanks Road,Debary,FL,32713, (386) 668-4491,16.275910731692235
287,28.87698,-81.69621,Southern Palms RV Resort,1 Avocado Ln,Eustis,FL,32726, (888) 563-7040,22.529489864429575
288,28.948666999999997,-81.263319,Orange City RV Resort,2300 E Graves Ave,Orange City,FL,32763, (800) 545-7354,21.90418251224234
289,28.811803,-81.3721,Twelve Oaks RV Resort,6300 W State Road 46,Sanford,FL,32771, (800) 633-9529,10.74286143127124
290,28.76515,-81.75411,Fisherman's Cove Golf & RV Resort,3950 N Eichelberg Rd,Tavares,FL,32778, (352) 343-1233,21.66722623602207
291,28.557190000000002,-80.80255,Whispering Pines,359 Cheney Hwy,Titusville,FL,32780, (321) 267-2081,30.38432343781971
292,28.524669,-80.864346,The Great Outdoors RV,125 Plantation Dr,Titusville,FL,32780, (321) 269-5004,26.988609973085403
293,28.355009999999996,-80.79247,J O Y RV Park,245 Flamingo Drive,Cocoa,FL,32926, (321) 631-0305,35.17838951656679
294,28.35083,-80.79177,Sonrise Palms Christian RV Park,660 Tucker Ln,Cocoa,FL,32926, (321) 633-4335,35.35486897494024
295,27.998820000000002,-80.60729,Enchanted Lakes RV Resort,750 Malabar Rd,Malabar,FL,32950, (321) 723-8847,59.11108310559013
296,28.29665,-80.73899,Space Coast RV Resort,820 Barnes Blvd,Rockledge,FL,32955, (888) 563-7040,40.01578515301469
297,25.471420000000002,-80.46889,Boardwalk RV Resort,100 NE 6th Ave,Homestead,FL,33030, (305) 248-2487,13.00102678115393
298,25.07628,-80.46124,Riptide RV Resort & Marina,97680 Overseas Hwy,Key Largo,FL,33037, (305) 852-8481,39.831673230350354
299,26.289379999999998,-80.11288,Breezy Hill RV Resort,800 NE 48th St,Pompano Beach,FL,33064, (888) 563-7040,2.556167424096309
300,26.2897,-80.11216,Highland Woods RV Resort,900 NE 48th St,Pompano Beach,FL,33064, (888) 563-7040,2.6059805389693143
301,26.227246,-80.198613,Aztec RV Resort,1 A Sundial Circle (Aztec Blvd.),Margate,FL,33068, (954) 780-8868,4.378573522897745
302,25.57476,-80.45185,Miami Everglades Resort,20675 SW 162 Ave,Miami,FL,33187, (888) 563-7040,5.933178129494103
303,26.16358,-80.18070999999999,Sunshine Holiday Ft Lauderdale,2802 W Oakland Park Blvd,Oakland Park,FL,33311, (888) 563-7040,6.201936104326053
304,26.1635,-80.17158,Paradise Island RV Resort,2121 NW 29th Ct,Fort Lauderdale,FL,33311, (800) 487-7395,6.59091995333847
305,26.08804,-80.17223,Yacht Haven Park & Marina,2323 W State Road 84,Fort Lauderdale,FL,33312, (800) 581-2322,4.711857219785854
306,30.6166,-85.1333,Alliance Hill RV Resort,639 Plymouth Loop,Marianna,FL,33428, (850) 688-8561,55.97118554519266
307,26.32818,-80.99539,Big Cypress RV Resort,34950 Halls Rd,Clewiston,FL,33440, (863) 983-1330,44.60543768239117
308,26.5858,-80.10683,Palm Beach Traveler Park,6159 Lawrence Rd,Lake Worth,FL,33462, (561) 967-3139,2.219705975959156
309,26.77723,-81.22821,The Glades RV Resort,1679 Indian Hills Dr,Moore Haven,FL,33471, (863) 983-8070,39.784889561557506
310,26.985259999999997,-81.09855,North Lake Estates RV Resort/PMP,12044 East SR 78,Moore Haven,FL,33471, (888) 239-2113,54.49673578061538
311,26.825020000000002,-80.66639,Pahokee Campground & Marina,190 North Lake Avenue,Pahokee,FL,33476, (561) 924-7832,29.202332245378308
312,26.94258,-80.20786,Palm Beach Motorcoach Resort,11075 Indiantown Road,Jupiter,FL,33478, (561) 741-1555,11.917361005934318
313,26.93964,-80.23916,West Jupiter Camping Resort,17801 130Th Ave N,Jupiter,FL,33478, (888) 746-6073,13.06635461216144
314,28.665340000000004,-82.13707,Blueberry Hill RV Resort,6233 Lowery St,Bushnell,FL,33513, (888) 239-2113,36.34659136843086
315,28.669749,-82.138856,Red Oaks RV Resort,5551 Sw 18Th Ter,Bushnell,FL,33513, (352) 793-7117,36.57495462897834
316,28.615070000000003,-82.18794,Breezy Oaks RV Park,9683 CR 671,Bushnell,FL,33513, (352) 569-0300,31.92007112389848
317,28.4201,-82.19091,Town and Country RV Resort,18005 US 301 N,Dade City,FL,33523, (352) 567-7707,20.14924862010697
321,28.313779999999998,-82.17379,Grove Ridge RV Resort,10721 US Hwy 98,Dade City,FL,33525, (352) 523-2277,15.9036745284114
320,28.292209999999997,-82.13528000000001,Citrus Hill RV Resort,9267  US 98,Dade City,FL,33525, (352) 567-6045,17.25635224720327
318,28.31772,-82.17900999999999,Blue Jay RV Resort,38511 Wilds Rd,Dade City,FL,33525, (352) 567-9678,15.788506541860261
319,28.284270000000003,-82.14303000000001,Many Mansions RV Park,40703 Stewart Rd,Dade City,FL,33525, (800) 359-0135,16.602980210549592
322,28.019379999999998,-82.24519000000001,Tampa East RV Resort,4630 Mcintosh Rd,Dover,FL,33527, (800) 454-7336,8.565073789277875
323,28.75587,-82.10741999999999,Lake Pan RV Village,190 County Road 488,Lake Panasoffkee,FL,33538, (352) 793-2051,42.40390439940692
324,28.756184,-82.116178,Countryside RV Park,741 Cr-489,Lake Panasoffkee,FL,33538, (352) 793-8103,42.56915248578274
325,28.253120000000003,-82.1352,Forest Lake Estates RV Resort,41219 Hockey Dr,Zephyrhills,FL,33540, (877) 570-2267,16.33379728948075
326,28.2712,-82.17949,Baker Acres RV Resort,7820 Wire Rd [Lot 1],Zephyrhills,FL,33540, (813) 782-3950,14.205752639418906
334,28.223879999999998,-82.2052,Happy Days RV Park,4603 Allen Rd,Zephyrhills,FL,33541, (813) 788-4858,11.703936275468694
337,28.21221,-82.16150999999999,Majestic Oaks RV Resort,3751 Laurel Valley Blvd,Zephyrhills,FL,33541, (813) 793-7518,14.207115804739834
336,28.209429999999998,-82.19946,Glen Haven RV Resort,37251 Chancey Rd,Zephyrhills,FL,33541, (813) 782-1856,11.885713234529442
335,28.221829999999997,-82.19697,Hillcrest RV Resort,4421 Lane Rd,Zephyrhills,FL,33541, (813) 782-1947,12.168022258742244
333,28.2509,-82.1637,The Oaks at Zephyrhills,39442 County Rd 54,Zephyrhills,FL,33541, (866) 499-9026,14.623478020038839
332,28.22307,-82.23572,Zephyr Palms RV Resort,35120 SR 54 W,Zephyrhills,FL,33541, (813) 782-5610,9.877151607134051
331,28.208509999999997,-82.191,Southern Charm RV Resort,37811 Chancey Rd,Zephyrhills,FL,33541, (813) 783-3477,12.390970281829333
330,28.208409999999997,-82.19346999999999,Sweetwater RV Resort,27647 Chancey Rd,Zephyrhills,FL,33541, (813) 788-7513,12.240466266286004
329,28.2064,-82.18755,Palm View Gardens RV Resort,3331 Gall Blvd,Zephyrhills,FL,33541, (813) 782-8685,12.585148808002042
328,28.208540000000003,-82.19503,Settler's Rest RV Resort,37549 Chancey Rd,Zephyrhills,FL,33541, (813) 782-2003,12.146914427099636
327,28.206459999999996,-82.19761,Landing Resort,37400 Chancey Rd,Zephyrhills,FL,33541, (813) 783-1644,11.974967524062022
338,28.21763,-82.264122,Beginning Point RV Park,4205 Lado Dr,Wesley Chapel,FL,33543, (813) 788-2415,8.105750253977968
339,28.218590000000003,-82.24739,Ralph's Travel Park,34408 State Rd 54 West,Zephyrhills,FL,33543, (813) 782-8223,9.112879808585122
340,28.258409999999998,-82.3419,Quail Run Resort,6946 Old Pasco Rd,Wesley Chapel,FL,33544, (800) 582-7084,5.7341995145301965
341,28.18872,-82.45874,Winter Quarters Pasco RV Resort,21632 State Road 54,Lutz,FL,33549, (888) 563-7040,4.020898710499559
342,28.11522,-82.64135999999999,"Silver Dollar Golf, Trap Club & RV Resort",12515 Silver Dollar Drive,Odessa,FL,33556, (888) 563-7040,6.118073605796695
343,27.867729999999998,-82.28859,Hidden River Resort,12500 McMullen Loop,Riverview,FL,33569, (813) 677-1515,4.522167378173949
347,27.68615,-82.49375,Hawaiian Isles,4054 Aloha Blvd,Ruskin,FL,33570, (813) 645-1098,12.682405546396296
346,27.689729999999997,-82.45593000000001,River Vista RV Village,2206 Chaney Dr,Ruskin,FL,33570, (800) 607-2532,12.895170198199796
344,27.70593,-82.39388000000001,Sun Lake RV Resort,3006 14Th Ave Se,Ruskin,FL,33570, (813) 645-7860,14.770254953585393
345,27.69629,-82.45968,Tampa South RV Resort,2900 S Us Highway 41,Ruskin,FL,33570, (813) 645-1202,13.330693748971843
348,27.845209999999998,-82.32573000000001,Rice Creek RV Resort,10719 Rice Creek Dr,Riverview,FL,33578, (813) 677-6640,5.250672289496305
349,28.75808,-82.061233,Shady Brook Golf & RV Resort,178 N Us 301,Sumterville,FL,33585, (352) 568-2244,39.66049204005296
350,28.06454,-82.30127,Southern Aire RV Resort,10511 Florence Ave,Thonotosassa,FL,33592, (813) 986-1596,10.033461748242063
351,28.063990000000004,-82.30539,Spanish Main RV Resort,12110 Spanish Main Resort Trail,Thonotosassa,FL,33592, (813) 986-2415,9.952993163615545
352,28.6099,-82.06724,Sunshine Village Mh/RV Resort,2236 SE 100 Lane,Webster,FL,33597, (352) 793-8626,35.14999023665498
353,28.60983,-82.06958,Webster RV Resort,2085 County Road 740,Webster,FL,33597, (352) 793-6765,35.06583124320583
354,28.042983000000003,-82.451196,Tampa RV Park,10314 N Nebraska Ave,Tampa,FL,33612, (813) 971-3460,7.93509146211993
355,28.02978,-82.63056999999999,Bay Bayou RV Resort,12622 Memorial Hwy,Tampa,FL,33635, (813) 855-1000,3.184623455551887
356,27.924690000000002,-82.73314,Avalon RV Resort,16860 US Hwy 19 N,Clearwater,FL,33764, (727) 531-6124,2.183885169620627
357,27.89378,-82.73374,Vacation Village RV Resort,6900 Ulmerton Rd,Largo,FL,33771, (888) 563-7051,4.3066551025446795
358,27.894372999999998,-82.756867,Yankee Traveler RV Park,8500 Ulmerton Rd,Largo,FL,33771, (727) 531-7998,4.588947264333993
359,27.8806,-82.72802,Rainbow Village of Largo RV Resort,11911 66th ST N,Largo,FL,33773, (727) 536-3545,5.20368624723237
360,28.109824,-81.94066,Lakeland RV Resort,900 Old Combee Rd,Lakeland,FL,33805, (863) 687-6146,27.176358995854134
361,27.99387,-81.90460999999999,Sanlan RV & Golf Resort,3929 US Hwy 98 South,Lakeland,FL,33812, (863) 665-1726,26.566435852900266
362,27.6271,-81.8236,Pioneer Creek RV Resort,138 E Broward St,Bowling Green,FL,33834, (863) 375-4343,37.113957749998136
363,28.208940000000002,-81.5756,Kissimmee South RV Resort [Formerly Three Worlds RV Resort],3700 Us Hwy 17-92N,Davenport,FL,33837, (863) 424-1286,21.758797730864266
364,27.775579999999998,-81.60025,Camp Inn RV Resort,10400 Hwy 27,Frostproof,FL,33843, (863) 635-2500,45.85776124980672
365,27.7556,-81.57477,Rainbow RV Resort,700 CR 630A,Frostproof,FL,33843, (888) 650-8189,47.695108567589976
366,28.11743,-81.6464,Central Park RV Resort,1501 W Commerce Ave,Haines City,FL,33844, (863) 422-5322,29.321126566144013
367,27.207209999999996,-81.32361999999999,Sunshine RV Resort,303 SR-70E,Lake Placid,FL,33852, (863) 465-4815,56.89401382755436
368,27.852451000000002,-81.585955,Lake Wales RV & Campsites,15898 Hwy 27,Lake Wales,FL,33859, (863) 638-9011,45.35278220354226
369,28.163901,-81.801859,Le Lynn RV Resort,1513 Sr-559,Polk City,FL,33868, (800) 736-0409,32.38387642513145
370,27.5186,-81.50798,Outback RV Resort At Tanglewood,3000 Tanglewood Pkwy,Sebring,FL,33872, (863) 402-1501,57.5706844731079
371,27.4832,-81.48586,Sebring Gardens RV Community,1920 Brunns Rd,Sebring,FL,33872, (863) 385-7624,59.958078560818514
372,27.586703999999997,-81.815449,Crystal Lake Village,237 Maxwell Dr,Wauchula,FL,33873, (800) 661-3582,39.10937583138105
373,27.508129999999998,-81.80225,Peace River RV & Camping Resort,2555 US Hwy 17 South,Wauchula,FL,33873, (888) 563-7040,41.115377712023395
374,28.24727,-81.59031,Rainbow Chase RV Resort,6300 W Lake Wilson Rd,Davenport,FL,33896, (863) 424-2688,19.836643302105543
375,27.97747,-81.3769,Camp Mack,14900 Camp Mack Rd,Lake Wales,FL,33898, (800) 243-8013,35.78645299564089
376,26.706709999999998,-81.900577,Tamiami RV Park,16555 N Cleveland Ave,North Fort Myers,FL,33903, (239) 997-2697,11.281763026756424
377,26.750474,-81.92061600000001,Sunseeker's RV Park,19701 N Tamiami Trl,North Fort Myers,FL,33903, (239) 731-1303,14.46404075298122
381,26.689709999999998,-81.78978000000001,Orange Harbor Co-Op & RV Resort,5749 Palm Beach Blvd,Fort Myers,FL,33905, (239) 694-3707,11.275678030607292
380,26.669190000000004,-81.82218,Tice Courts & RV Park,541 New York Dr,Fort Myers,FL,33905, (239) 694-3545,9.16391979678016
379,26.66583,-81.81806,Orange Grove Mobile Home & RV Park,647 Nuna Ave,Fort Myers,FL,33905, (239) 694-5534,9.042587748958866
378,26.653890000000004,-81.80637,Lazy J RV & Mobile Home Park,1263 Golden Lake Rd,Fort Myers,FL,33905, (239) 694-5038,8.618044186271728
382,26.49292,-81.95935,Siesta Bay RV Resort,19333 Summerlin Rd,Fort Myers,FL,33908, (888) 239-2113,6.360581033321353
383,26.49803,-81.85300000000001,Fort Myers RV Resort,16800 S Tamiami Tr,Fort Myers,FL,33908, (239) 267-2141,3.462305399586321
384,26.5046,-81.94286,Fort Myers Beach RV Resort,16299 San Carlos Blvd,Fort Myers,FL,33908, (888) 563-7040,5.064978975584499
385,26.456290000000003,-81.82395,Woodsmoke Camping Resort,19551 S Tamiami Trl,Fort Myers,FL,33908, (800) 231-5053,3.288928077103062
386,26.50583,-81.96783,Groves RV Resort,16175 John Morris Rd,Fort Myers,FL,33908, (239) 466-4300,6.38267061405349
387,26.45757,-81.83121,Shady Acres RV Park,19370 S Tamiami Trail,Fort Myers,FL,33908, (888) 634-4080,3.5695430113655884
388,26.718651,-81.809488,Seminole Campground,8991 Triplett Rd,North Fort Myers,FL,33917, (239) 543-2919,12.636203112758576
389,26.71317,-81.82584,Pioneer Village RV Resort,7974 Samville Rd,North Fort Myers,FL,33917, (888) 563-7040,11.987211376458147
390,26.708966999999998,-81.785362,Upriver RV Resort,17021 Upriver Dr,North Fort Myers,FL,33917, (800) 848-1652,12.582563193513598
393,26.445586,-81.936617,Red Coconut RV Resort,3001 Estero Blvd,Fort Myers Beach,FL,33931, (888) 262-6226,7.834976131934237
391,26.49015,-81.94283,Gulf Air RV Resort,17279 San Carlos Blvd SW,Fort Myers Beach,FL,33931, (888) 563-7040,5.666087420360854
392,26.48895,-81.94345,Indian Creek RV Resort,17340 San Carlos Blvd,Fort Myers Beach,FL,33931, (239) 466-6060,5.749651841087091
394,26.761740000000003,-81.4522,Moss Landing RV Resort,900 Aqua Isle Blvd,La Belle,FL,33935, (863) 674-7119,27.881727156693046
395,26.73664,-81.47404,Grandma's Grove RV Park,2250 SR 80 W,La Belle,FL,33935, (863) 675-2567,25.724009491863068
396,26.787129999999998,-81.43482,Whisper Creek RV Resort,1887 N State Road 29,Labelle,FL,33935, (877) 545-6888,29.856471762433628
397,26.88252,-82.02356,Gulf View RV Resort,10205 Burnt Store Rd,Punta Gorda,FL,33950, (888) 563-7040,25.032998006726455
398,26.981759999999998,-82.20744,Harbor Lakes RV Resort,3737 El Jobean Rd,Port Charlotte,FL,33953, (888) 563-7040,24.787177734230337
399,26.81375,-81.95881,Sun N Shade RV Park,14880 Tamiami Trl,Punta Gorda,FL,33955, (941) 639-5388,19.257217415013827
400,26.534779999999998,-82.08591,Pine Island KOA,5120 H Stringfellow Rd,St James City,FL,33956, (888) 563-7040,13.1273208992358
401,26.975309999999997,-81.89527,Shell Creek RV Resort,35711 Washington Loop Rd,Punta Gorda,FL,33982, (941) 639-4234,29.684355206485108
402,26.294290000000004,-81.79826,Lake San Marino RV Park,1000 Wiggins Pass Rd,Naples,FL,34110, (239) 597-4202,5.265533748670278
403,26.07227,-81.71578000000001,Marco Naples RV Resort,100 Barefoot Williams Rd,Naples,FL,34113, (239) 774-1259,10.864308686850553
404,26.15447,-81.66979,Club Naples RV Resort,3180 Beck Blvd,Naples,FL,34114, (888) 239-2113,7.98305509460492
405,26.055629999999997,-81.68921999999999,Naples Motorcoach Resort,13300 Tamiami Trail E,Naples,FL,34114, (866) 942-2942,12.557362819555287
406,26.10275,-81.6858,Naples RV Resort,8230 Collier Blvd,Naples,FL,34114, (888) 239-2113,9.839470797690671
407,26.264940000000003,-81.68755999999999,Crystal Lake RV Resort,14960 Collier Blvd,Naples,FL,34119, (239) 348-0017,6.244012351982681
408,26.355940000000004,-81.78226,Bonita Lake RV Resort,26325 Old 41 Rd,Bonita Springs,FL,34135, (239) 992-2481,9.206707601423297
409,26.33679,-81.75849000000001,Imperial Bonita Estates RV Resort,27700 Bourbonniere Dr,Bonita Springs,FL,34135, (800) 690-6619,8.063399896868905
410,26.38475,-81.8053,Gulf Coast Camping Resort,24020 Production Circle,Bonita Springs,FL,34135, (239) 992-3808,7.319587400811644
411,26.33179,-81.72894000000001,Sanctuary RV Resort,13660 Bonita Beach Rd SE,Bonita Springs,FL,34135, (239) 237-1877,8.174963283256075
412,25.869770000000003,-81.38277,Everglades Isle Motorcoach Resort & Marina,803 N Collier Ave,Everglades City,FL,34139, (239) 695-2600,34.34243434496716
414,27.44845,-82.47576,Pleasant Lake RV Resort,6633 53rd Ave E,Bradenton,FL,34203, (941) 756-5076,3.7630820095641666
413,27.450836,-82.48517199999999,Horseshoe Cove Carefree RV Resort,5100 60Th St E,Bradenton,FL,34203, (941) 758-5335,3.682629832115572
415,27.44039,-82.56649,Arbor Terrace RV Resort,405 57Th Ave W,Bradenton,FL,34207, (941) 755-6494,7.233720038429022
416,27.505390000000002,-82.4817,Winters Quarters Manatee RV Resort,800 Kay Rd NE,Bradenton,FL,34212, (888) 563-7040,0.623776800478743
417,27.473214000000002,-82.687436,Buttonwood Inlet RV Resort,12316 Cortez Ave,Cortez,FL,34215, (941) 798-3090,13.392896174995407
418,27.591165999999998,-82.54494100000001,Fiesta Grove RV Resort,8615 Bayshore Rd,Palmetto,FL,34221, (941) 722-7661,7.5466812384775634
419,27.59617,-82.54111999999999,Terra Ceia RV Resort,9303 Bayshore Dr,Palmetto,FL,34221, (888) 563-7040,7.69458066653769
420,27.56682,-82.56492,Fisherman's Cove RV Resort,100 61st St E,Palmetto,FL,34221, (941) 729-3685,7.20495041696357
421,27.53773,-82.48873,Ellenton Gardens RV Resort,7310 US 301 N,Ellenton,FL,34222, (941) 722-0341,2.6053119206345134
422,27.338929999999998,-82.42681999999999,Sun N Fun RV Resort,7125 Fruitville Rd,Sarasota,FL,34240, (941) 371-2505,8.328737670119692
426,27.20914,-81.83057,Big Tree RV Resort,2626 NE Hwy 70,Arcadia,FL,34266, (863) 494-7247,40.894859574244734
425,27.280413,-81.834506,Little Willie's RV Resort,5905 Ne Cubitis Ave,Arcadia,FL,34266, (863) 494-2717,40.72856534253103
427,27.20905,-81.81493,Toby's RV Resort,3550 NE Hwy 70,Arcadia,FL,34266, (888) 563-7040,41.85698228003788
423,27.308938,-81.819857,Craig's RV Park Inc,7895 Ne Cubitis Ave,Arcadia,FL,34266, (863) 494-1820,41.818322346524994
424,27.29428,-81.83051999999999,Cross Creek RV Resort,6837 NE Cubitis Ave,Arcadia,FL,34266, (863) 494-7300,41.055911091393746
428,27.07961,-82.01331,Riverside RV Resort,9770 SW CR-769,Arcadia,FL,34269, (888) 563-7040,31.4792257051356
429,27.13229,-82.44363,Royal Coachman RV Resort,1070 Laurel Rd E,Nokomis,FL,34275, (888) 563-7040,7.674432785866005
430,27.06881,-82.32104,Ramblers Rest RV Campground,1300 N River Rd,Venice,FL,34293, (888) 563-7040,15.603915863171999
431,27.048532,-82.403963,Florida Pines Mobile Home Court,150 Satulah Cir,Venice,FL,34293, (941) 493-0019,13.93739226835145
432,28.855559999999997,-82.537201,Rock Crusher Canyon RV Park Llc,237 S Rock Crusher Rd,Crystal River,FL,34429, (352) 564-9350,46.774224457149266
433,28.89933,-82.62505999999999,Crystal Isles RV Park,11419 W Fort Island Trail,Crystal River,FL,34429, (888) 563-7040,50.95297181909199
434,28.79785,-82.605902,Nature's Resort RV Park & Marina,10359 W Halls River Rd,Homosassa,FL,34448, (800) 301-7880,43.92453121010775
435,28.79123,-82.60186,Homosassa River RV Resort,10200 W Fishbowl Dr,Homosassa,FL,34448, (800) 471-3722,43.416592791470656
436,28.7132,-82.57625,Chassahowitzka River Campground,8600 W Miss Magee Dr,Homosassa,FL,34448, (352) 382-2200,37.82346746915778
437,29.017390000000002,-82.67246999999999,Gulf Coast RV Resort,13790 W Foss Groves Path,Inglis,FL,34449, (352) 447-2900,59.563737797581375
438,29.02587,-82.16738000000001,Ocala Sun RV Resort,2559 Sw Highway 484,Ocala,FL,34473, (352) 307-1100,51.959595777394334
439,29.156278000000004,-82.185891,Ocala RV Camp Resort,3200 Sw 38Th Ave,Ocala,FL,34474, (352) 237-2138,57.727565748809596
440,29.217990000000004,-82.14891,Wild Frontier RV Resort,3101 Nw 16th Ave,Ocala,FL,34475, (352) 629-3540,58.614009247787315
441,29.26073,-82.13027,Cliftwood RV Park,7101 W Anthony Rd,Ocala,FL,34479, (352) 368-3887,59.753801174508965
442,29.21698,-82.06218,The Springs RV Resort,2950 NE 52nd Ct,Silver Springs,FL,34488, (352) 236-5250,54.700855209799755
443,29.196070000000002,-81.93143,Lake Waldena Resort,23582 East Hwy 40,Silver Springs,FL,34488, (800) 748-7898,48.2499531201804
444,29.0145,-82.0113,Sunkissed Village RV Resort,14330 S US 441,Summerfield,FL,34491, (813) 842-6605,43.47331089554057
445,28.565690000000004,-82.37479,Clover Leaf Forest RV Resort,910 N Broad St,Brooksville,FL,34601, (888) 563-7040,26.003424168667514
446,28.586129999999997,-82.37573,Belle Parc RV Resort,11089 Ancient Trail,Brooksville,FL,34601, (352) 796-5760,27.407607961622997
447,28.433729999999997,-82.51292,Topics RV Resort,13063 County Line Rd,Spring Hill,FL,34609, (888) 563-7040,18.409777441025383
448,28.3997,-82.48167,Big Oaks RV & Mobile Home Community,16654 US-41,Spring Hill,FL,34610, (352) 799-5533,15.524149935127587
449,28.217579999999998,-82.68101999999999,Seven Springs Travel Park,8039 Old County RD 54,New Port Richey,FL,34653, (727) 376-0000,13.40385403085028
450,28.37465,-82.65866,Barrington Hills RV Resort,9412 New York Ave,Hudson,FL,34667, (888) 563-7040,20.665046070983006
451,28.3897,-82.6473,Three Lakes RV Park,10354 Smooth Water Dr,Hudson,FL,34667, (888) 239-2113,20.801513319586316
452,28.39143,-82.66713,Winter Paradise RV Resort,16108 US Hwy 19,Clearwater,FL,34667, (727) 868-2285,21.793884445749278
453,28.310309999999998,-82.70348,Oak Springs RV Resort,10521 Scenic Dr,Port Richey,FL,34668, (727) 863-5888,19.784408399682555
454,28.32745,-82.70045,Sundance Lakes RV Resort,6848 Hachem Dr,Port Richey,FL,34668, (727) 862-3565,20.81651024983688
455,28.32409,-82.70321,Ja Mar North Travel Park,6650 San Marco Dr,Port Richey,FL,34668, (727) 862-8882,20.66010152028316
456,28.182640000000003,-82.73727,Holiday Travel Park,1622 Aires Dr,Holiday,FL,34690, (877) 570-2267,13.48127101077495
457,28.057109999999998,-82.77418,Dunedin RV Resort & The Blue Moon Inn,2920 Alt 19 N,Dunedin,FL,34698, (727) 784-3719,7.484448147239535
458,28.3788,-81.6788,Orlando RV Resort,2110 Thousand Trail Blvd,Clermont,FL,34714, (888) 563-7040,17.4166733812024
459,28.34321,-81.66436999999999,Lake Magic RV Resort,9600 Hwy 192 W,Clermont,FL,34714, (888) 563-7040,17.955536819018665
460,28.63795,-81.78716,Clerbrook Golf & RV Resort,20005 Hwy 27,Clermont,FL,34715, (888) 563-7040,22.521570970071565
461,28.32835,-81.39101,Mill Creek RV Resort,2775 Michigan Ave,Kissimmee,FL,34744, (407) 847-6288,11.68797822021927
462,28.328390000000002,-81.49577,Sherwood Forest RV Resort,5302 W Irlo Bronson Hwy,Kissimmee,FL,34746, (888) 563-7040,12.28433769111408
463,28.163690000000003,-81.43966999999999,Merry D RV Sanctuary Inc,4261 Pleasant Hill Rd,Kissimmee,FL,34746, (800) 208-3434,22.860991575357506
464,28.325590000000002,-81.51653,Tropical Palms RV Resort,2650 Holiday Trail,Kissimmee,FL,34746, (888) 563-7040,12.956992559076008
465,28.7279,-81.86399999999999,Ridgecrest RV Resort,26125 US Hwy 27,Leesburg,FL,34748, (352) 787-1504,27.51053748891169
466,28.757040000000003,-81.88606999999999,Holiday RV Village,28229 Cr-33,Leesburg,FL,34748, (800) 428-5334,29.216716867947795
467,28.874609999999997,-82.08931,Wildwood RV Village,882 E SR-44,Wildwood,FL,34785, (352) 748-2774,43.34755409497894
468,28.85975,-82.07483,Three Flags RV Campground,1755 E SR. Rd 44,Wildwood,FL,34785, (888) 563-7040,42.18164719333104
469,28.824609999999996,-81.98216,Rails End RV Resort,7250 SR 44,Wildwood,FL,34785, (352) 748-1224,36.0854710778251
470,28.55064,-81.59929,Stage Stop Campground,14400 W Colonial Dr,Winter Garden,FL,34787, (407) 656-8000,11.267899987069773
471,28.55133,-81.59066999999999,Winter Garden RV Resort,13905 W Colonial Dr,Winter Garden,FL,34787, (888) 563-7040,10.79267590424919
472,27.48428,-80.37979,Road Runner Travel Resort,5500 Saint Lucie Blvd,Fort Pierce,FL,34946, (800) 833-7108,49.971743383328985
473,27.27764,-80.28801,Port St Lucie RV Resort,3703 Se Jennings Rd,Port St Lucie,FL,34952, (772) 337-3340,34.666984622550565
474,27.241529999999997,-80.2238,Ocean Breeze Resort,3000 NE Indian River Drive,Jensen Beach,FL,34957, (772) 334-2494,31.061015829271735
475,27.190490000000004,-80.75372,Lakeside North RV Resort,6500 Highway 441 SE,Okeechobee,FL,34974, (863) 763-6200,47.95529136494823
476,27.21231,-80.7983,Zachary Taylor RV Resort,2995 US Highway 441 SE,Okeechobee,FL,34974, (863) 763-3377,50.94165378464101
477,27.145809999999997,-80.69471,Water's Edge Motor Coach & RV Resort,12766 Hwy 441 SE,Okeechobee,FL,34974, (863) 357-5757,43.22674142581726
478,27.206329999999998,-80.8306,Silver Palms RV Resort,4143 Hwy 441 S,Okeechobee,FL,34974, (888) 323-4833,52.06959062665856
479,34.213756,-86.904303,Cullman Campground,220 Cr-1185,Cullman,AL,35057, (256) 734-5853,40.36544977889068
480,33.65998,-86.71937,Carson Village Mobile Home & RV Park,400 North Carson Rd,Birmingham,AL,35215, (205) 854-0059,20.07377410020108
481,34.05409,-87.14684,Hidden Cove Outdoor Resort,687 CR 3919,Arley,AL,35541, (888) 563-7040,50.323897849448116
482,34.233090000000004,-86.51827,Quail Creek RV Resort,233 Quail Creek Dr,Hartselle,AL,35640, (256) 784-5033,35.50747867860961
483,34.70758,-86.95499000000001,Swan Creek Community [MHP],10420 US Hwy 31 [Lot 67],Tanner,AL,35671, (256) 355-5392,20.199166434179716
484,34.534566999999996,-86.089185,Windemere Cove RV Resort,10174 Cr 67,Langston,AL,35755, (256) 228-3010,32.60917901288241
485,34.613487,-86.234912,Parnell Creek RV Park,115 Parnell Cir,Woodville,AL,35776, (256) 508-7308,22.781334339099303
486,34.002829999999996,-86.0807,The Cove Lakeside RV Resort and Campground,4122 Old Pump Station Rd,Gadsden,AL,35904, (256) 467-3158,59.12879493359657
487,34.042190000000005,-86.02062,Noccalula Falls Campground,1600 Noccalula Rd,Gadsden,AL,35904, (256) 543-7412,58.67507285544738
488,34.447585,-85.746901,Wills Creek RV Park Llc,1310 Airport Rd W,Fort Payne,AL,35968, (256) 845-6703,47.718414573553744
489,32.20527,-86.40858,Montgomery South RV Park & Cabins,731 Venable,Hope Hull,AL,36043, (334) 284-7006,18.671514699741245
490,31.89136,-86.01031,Deer Run RV Park,25629 Us Highway 231,Troy,AL,36081, (800) 552-3036,33.60954933590748
491,32.325286,-86.331092,The Woods RV Park & Campground,4350 Sassafras Cir,Montgomery,AL,36105, (877) 356-1887,10.909769059547958
492,32.452605,-86.206148,Capital City RV Park,4655 Old Wetumpka Hwy,Montgomery,AL,36110, (877) 271-8026,6.900247969311594
493,31.101059999999997,-87.48498000000001,Wind Creek Atmore Casino RV Park,303 Poarch Rd,Atmore,AL,36502, (866) 946-3360,48.801852100835305
494,30.220840000000003,-88.06732,Bay Palms RV Resort,15440 Dauphin Island Pkwy,Coden,AL,36523, (251) 873-4700,29.686807354565442
495,30.873016999999997,-88.054454,I 65 RV Campground,730 Jackson Rd,Creola,AL,36525, (800) 287-3208,15.848436249340345
496,30.393977000000003,-87.549362,Lake Osprey RV Country Club,12096A County Road 95,Elberta,AL,36530, (251) 986-3800,38.203181195012284
498,30.381,-87.76805999999999,RV Hideaway Campground,10723 Magnolia Springs Hwy,Foley,AL,36535, (251) 965-6777,27.884291686603216
497,30.399179999999998,-87.64316,Alabama Coast Campground,11959 Barin Field Rd,Foley,AL,36535, (251) 752-0474,33.15011081928175
499,30.624314000000002,-87.606638,Azalea Acres RV Park,27450 Glass Rd,Robertsdale,AL,36567, (251) 947-9530,30.50195200903102
500,30.625758,-87.624966,Hilltop RV Park,23420 Cr-64,Robertsdale,AL,36567, (251) 960-1129,29.406115701788202
501,30.302120000000002,-87.47589,Wales West RV Resort & Light Railway,13670 Smiley St,Silverhill,AL,36576, (888) 569-5337,45.166577724958586
502,30.557639,-88.19235,I 10 Kampground,6430 Theodore Dawes Rd,Theodore,AL,36582, (800) 272-1263,7.7333462029346745
503,30.589170000000003,-88.25281,All About Relaxing RV Park,8950 Three Notch Rd,Theodore,AL,36582, (251) 375-0661,9.052658918272657
504,30.627728,-88.095095,Shady Acres Campground [Mhp],2500 Old Military Rd,Mobile,AL,36605, (251) 478-0013,2.025678947399347
505,32.62685,-85.27965999999999,Lakeside RV Park,5664 US Hwy 280e,Opelika,AL,36804, (334) 705-0701,53.967143893402636
506,32.58262,-85.51929,Eagle's Landing RV Park,1900 Wire Road,Auburn,AL,36832, (334) 821-8805,39.8113136035783
507,32.553670000000004,-85.51044,Auburn RV Park at Leisure Time Campground,2670 S College St,Auburn,AL,36832, (334) 821-2267,39.59469751210013
508,36.63466,-87.32261,Clarksville RV Park & Campground,1270 Tylertown Rd,Clarksville,TN,37040, (931) 648-8638,41.92808411573969
509,36.15874,-86.60826,Nashville Shores Lakeside Resort,4001 Bell Rd,Hermitage,TN,37076, (615) 889-7050,15.595492301126336
510,36.26024,-86.67602,Old Hickory MH Community,500 Cheyenne Boulevard #306,Madison,TN,37115, (615) 868-9674,14.395375906897435
511,35.96588,-86.5306,Nashville I 24 Campground,1130 Rocky Fork Rd,Smyrna,TN,37167, (615) 459-5818,16.076387111292654
512,36.23424,-86.70371999999999,Two Rivers Campground,2616 Music Valley Dr,Nashville,TN,37214, (615) 883-8559,12.110345053106503
513,35.30324,-85.77099,Bigfoot Adventure RV Park & Campground,514 Brawley Rd,Tracy City,TN,37387, (931) 488-8652,39.97488854616981
514,34.97929,-85.21265,Chattanooga Holiday Travel Park,1709 S Mack Smith Rd,Chattanooga,TN,37412, (800) 693-2877,1.266827199304557
515,35.7444,-83.41335,Greenbrier Campground,2353 E Pkwy,Gatlinburg,TN,37738, (865) 430-7415,42.18790854171681
516,35.76258,-83.30221999999999,Smoky Bear Campground and RV Park,4857 East Parkway,Gatlinburg,TN,37738, (865) 436-8372,47.99585175020907
517,35.72589,-83.48272,Twin Creek RV Resort,1202 E Parkway,Gatlinburg,TN,37738, (800) 252-8077,38.79811861626531
518,36.10289,-84.025787,Volunteer Park Family Campground,9514 Diggs Gap Rd,Heiskell,TN,37754, (865) 938-6600,15.641002512883
519,35.87246,-84.37648,Soaring Eagle Campground & RV Park Inc,3152 Buttermilk Rd W,Lenoir City,TN,37771, (865) 376-9017,13.30558583385437
520,35.8713,-83.22516,Triple Creek Campground,141 Lower Bogard Rd,Newport,TN,37821, (423) 465-3060,51.42234918902948
523,35.851158,-83.56688,River Plantation RV Park Inc,1004 Parkway,Sevierville,TN,37862, (800) 758-5267,32.37470740392968
521,35.84213,-83.54208,The Ridge Outdoor Resort,1250 Middle Creek Rd,Sevierville,TN,37862, (888) 559-2267,33.82511802309551
522,35.864779999999996,-83.50891,Duvall in the Smokies RV Campground & Cabins,1518 Dolly Parton Parkway,Sevierville,TN,37862, (865) 440-2082,35.541134719353074
524,35.795759999999994,-83.59064000000001,King's Holly Haven RV Park,647 Wears Valley Rd,Pigeon Forge,TN,37863, (888) 204-0247,31.670190848425563
525,35.77205,-83.54616,Mill Creek Resort,449 W Mill Creek Rd,Pigeon Forge,TN,37863, (865) 428-3498,34.485028334786755
526,35.77388,-83.53718,Riveredge RV Park,4220 Huskey St,Pigeon Forge,TN,37863, (866) 777-6127,34.94253342720178
527,35.77625,-83.53915,Camp Rivers Landing RV Park,304 Day Springs Rd,Pigeon Forge,TN,37863, (800) 848-9097,34.795502163437924
528,35.792362,-83.544907,Yogi Bear's Jellystone Park of Pigeon Forge/Gatlinburg,3404 Whaley Dr,Pigeon Forge,TN,37863, (865) 453-8117,34.228692635368176
529,35.801778999999996,-83.589026,Creekside RV Park,2475 Henderson Springs Rd,Pigeon Forge,TN,37863, (800) 498-4801,31.669462914744372
530,35.7946,-83.56237,Pine Mountain RV Park,411 Pine Mountain Rd,Pigeon Forge,TN,37863, (877) 753-9994,33.237431836009556
532,35.92075,-83.58148,Ripplin' Waters Campground & Cabin Rental,1930 Winfield Dunn Pkwy,Sevierville,TN,37876, (888) 747-7546,31.436903135905983
533,35.92821,-83.5867,Riverside RV Park & Resort,4280 Boyds Creek Hwy,Sevierville,TN,37876, (800) 341-7534,31.175144586739492
531,35.934304,-83.58726999999999,Two Rivers Landing RV Resort,2328 Business Center Cir,Sevierville,TN,37876, (866) 727-5781,31.17455835117032
534,35.03123,-89.0122,Cherokee Landing RV,1385 Old Stateline Rd,Saulsbury,TN,38067, (888) 563-7040,44.52813107445186
535,35.0491,-90.02596,Memphis Graceland RV Park & Campground,3691 Elvis Presley Blvd,Memphis,TN,38116, (866) 571-9236,12.961076625092895
536,35.42738,-87.45524,Natchez Trace Wilderness Preserve,1363 Napier Rd,Hohenwald,TN,38462, (888) 563-7040,51.50317427160884
537,35.992608000000004,-84.929792,Spring Lake RV Resort,255 Fairview Dr,Crossville,TN,38571, (877) 707-1414,44.710322501319325
538,35.97828,-84.96253,Bean Pot Campground,23 Bean Pot Campground Loop,Crossville,TN,38571, (877) 848-7958,46.39964949404198
539,36.0212,-84.92945,Deer Run RV Resort,3609 Peavine Firetower Rd,Crossville,TN,38571, (931) 484-3333,45.01862612084383
540,34.696,-89.9666,Memphis South RV Park & Campground,256 Campground Dr,Coldwater,MS,38618, (662) 622-0056,25.97306577465573
541,34.811690000000006,-90.41673,Hollywood Casino Hotel & RV Park,1150 Casino Strip Blvd,Robinsonville,MS,38664, (800) 871-0711,38.69581761915912
543,34.941982,-89.997559,EZ Daze RV Park,536 We Ross Pkwy,Southaven,MS,38671, (662) 342-7720,13.431510481434659
542,34.991859999999996,-89.99416,Southaven RV Park,270 Stateline Rd,Southaven,MS,38671, (662) 393-8585,11.768302137412451
544,32.607344,-90.08353699999999,Movietown RV Park,109 Movietown Dr,Canton,MS,39046, (601) 859-7990,13.277461681996101
545,32.32188,-90.32516,Springridge RV Park/Mobile Home Estates,499 Springridge Rd,Clinton,MS,39056, (800) 513-0728,12.465963655709446
546,32.3383,-89.6953,Green Tree RV Park & Campground,2169 Hwy 80,Morton,MS,39117, (601) 278-4823,27.10277056395287
547,32.3155,-90.89589000000001,Ameristar RV Park,725 Lucy Bryson St,Vicksburg,MS,39180, (800) 700-7770,44.350449637340866
548,32.30018,-90.89571,Magnolia RV Park Resort,211 Miller St,Vicksburg,MS,39180, (601) 631-0388,44.53151044856886
549,32.2372,-90.92283,River Town Campground,5900 Hwy 61 S,Vicksburg,MS,39180, (601) 630-9995,47.09274740744266
550,30.510262,-89.652636,Sun Roamers RV Resort,41 Mississippi Pines Blvd,Picayune,MS,39466, (601) 798-5818,46.331804988439124
551,30.43745,-89.08292,Campgrounds of the South,10406 Three Rivers Rd,Gulfport,MS,39503, (228) 539-2922,59.36699808380967
552,30.40117,-89.02614,Baywood RV Park & Campground Inc,1100 Cowan Rd,Gulfport,MS,39507, (888) 747-4840,56.80378469979036
553,30.291974,-89.45543599999999,Bay Hide Away RV Park & Campground,8360 Lakeshore Rd,Bay St Louis,MS,39520, (228) 466-0959,45.16181589040358
554,30.33264,-89.35424,Hollywood Casino RV Park Gulf Coast,711 Hollywood Blvd,Bay St Louis,MS,39520, (866) 758-2591,51.80876332176964
555,30.410740000000004,-88.88664,Boomtown Casino RV Park,676 Bayview Ave,Biloxi,MS,39530, (800) 627-0777,48.70663009003575
556,30.395529999999997,-88.94861,Cajun RV Park,1860 Beach Blvd,Biloxi,MS,39531, (877) 225-8699,52.54302167600277
557,30.45735,-88.97761,Oaklawn RV Park,8400 W Oaklawn Rd #37,Biloxi,MS,39532, (228) 392-1233,52.9391673396854
558,30.46505,-88.85193000000001,Martin Lake Resort,14605 Parker Rd,Biloxi,MS,39532, (228) 875-9157,45.57054573093682
559,30.457629999999998,-88.97294000000001,Mazalea Travel Park,8220 W Oaklawn Rd,Biloxi,MS,39532, (800) 877-8575,52.66473141127942
560,30.41235,-88.62956,Indian Point RV Resort,1600 Indian Point Pkwy,Gautier,MS,39553, (866) 497-1011,34.61361500210139
561,30.898770000000003,-84.58886,Flint River RV Park,801 W Shotwell St,Bainbridge,GA,39819, (229) 246-5802,37.610313036612204
562,37.808105,-85.517025,White Acres Campground,3022 Boston Rd,Bardstown,KY,40004, (502) 348-9677,28.525596769201503
563,38.301787,-84.553125,Whispering Hills RV Park,257 Rogers Gap Rd,Georgetown,KY,40324, (502) 863-2552,20.671233478129583
564,37.8205,-83.7258,4 Guys RV Park,10137 Campton Rd,Stanton,KY,40376, (606) 481-1611,39.94605580392432
565,37.38835,-84.32966,Renfro Valley RV Park,2385 Richmond St,Mount Vernon,KY,40456, (800) 765-7464,44.068065514325596
566,38.21054,-84.80093000000001,Elkhorn Campground,165 N Scruggs Ln,Frankfort,KY,40601, (502) 695-9154,24.86806289554777
567,38.48314,-84.56924000000001,Three Springs Campground,595 Campground Rd,Corinth,KY,41010, (859) 823-0258,32.819822607584484
568,38.74925,-84.60307,Northern KY RV Park,3315 Dixie Highway,Dry Ridge,KY,41035, (859) 428-2000,16.63087036356578
569,38.84887,-84.62886999999999,Oak Creek Campground,13329 Oak Creek Rd,Walton,KY,41094, (859) 485-9131,9.633409287090794
570,36.71394,-86.5274,Dads Bluegrass Campground,2889 Scottsville Rd,Franklin,KY,42135, (270) 253-5191,44.36928327183074
571,37.28046,-87.10305,Western Kentucky RV Park,700 Youngstown Rd,Central City,KY,42330, (270) 757-0345,52.947505493632306
572,37.724109000000006,-85.816438,Elizabethtown Crossroads Campground,209 Tunnel Hill Rd,Elizabethtown,KY,42701, (270) 737-7600,34.13349737585689
573,40.23202,-82.98524,Cross Creek Camping Resort,3190 S Old State Rd,Delaware,OH,43015, (800) 988-2267,5.606606422325455
574,40.12322,-82.49466,Lazy River At Granville,2340 Dry Creek Rd Ne,Granville,OH,43023, (740) 366-4385,22.270845968348606
575,39.9503,-83.17577,Alton RV Park,6552 W Broad St,Galloway,OH,43119, (614) 878-9127,10.948085469297993
576,41.55335,-82.8378,Cedarlane RV Park,2926 NE Catawaba Rd (rte 53n),Port Clinton,OH,43452, (419) 797-9907,41.30544375438572
577,41.49402,-83.02,The Resort at Erie Landing,4495 W Darr-Hopfinger Rd,Port Clinton,OH,43452, (419) 734-2460,32.05473464637524
578,41.5432,-84.30272,Sauder Village RV Park,22611 SR 2,Archbold,OH,43502, (800) 590-9755,34.64843090686549
579,39.965121999999994,-81.988475,Wolfies Campground,101 Buckeye Dr,Zanesville,OH,43701, (740) 454-0925,49.00277290726678
580,40.488478,-80.740178,Austin Lake Park & Campground,1002 Twp Hwy 285A,Toronto,OH,43964, (740) 544-5253,30.339967589357006
581,41.917241,-80.576211,Evergreen Lake Park,703 Center Rd,Conneaut,OH,44030, (440) 599-8802,52.53905842642828
582,41.86412,-80.92477,Indian Creek Camping Resort,4710 Lake Rd East,Geneva On The Lake,OH,44041, (888) 687-3209,35.75489531443153
583,41.232820000000004,-82.021135,American Wilderness Campground,17273 Avon Belden Rd,Grafton,OH,44044, (440) 926-3700,12.183342111814024
584,41.72724,-80.8243,Kenisee Lake,2021 Mill Creek Rd,Jefferson,OH,44047, (888) 563-7040,35.13148081823244
585,41.25914,-81.30288,Woodside Lake Park,2486 Frost Rd,Streetsboro,OH,44241, (866) 241-0492,10.618160140081097
586,41.29983,-81.22289,Roundup Lake Campground,3392 SR-82,Mantua,OH,44255, (330) 562-9100,14.984058639994133
587,41.090559999999996,-81.38888100000001,Cherokee Park Campground,3064 SR 43,Mogadore,OH,44260, (330) 673-1964,13.430295149818226
588,41.06194,-81.34738,Countryside Campground,2687 SR 43,Mogadore,OH,44260, (330) 628-1212,16.209410644791962
589,41.047127,-81.843153,Maple Lakes Recreational Park,4275 Blake Rd,Seville,OH,44273, (330) 336-2251,18.705267693620396
590,40.87141,-82.12965,Hickory Lakes Campground,23 Township Rd 1300,West Salem,OH,44287, (419) 869-7587,34.86753547169721
591,40.77264,-81.92121999999999,Evergreen Park RV Resort,16359 Dover Rd,Dundee,OH,44624, (888) 359-6429,37.99331022157508
592,28.21825,-82.19619,Rainbow Village RV Resort,4150 Lane Rd,Zephyrhills,FL,44651, (813) 782-5075,12.170922741169578
594,40.55285,-81.83575,Berlin RV Park & Campground Ltd,5924 SR 39,Millersburg,OH,44654, (330) 674-4774,51.98376348086216
593,40.549517,-81.782818,Scenic Hills RV Park,4483 Township Hwy 367,Millersburg,OH,44654, (330) 893-3607,51.35316956656243
595,40.6869,-81.59940999999999,Baylor Beach Park,8777 Manchester Ave SW,Navarre,OH,44662, (888) 9baylor,40.09143664615688
596,40.50385,-81.37049,Wood's Tall Timber Lake Resort,1921 Tall Timber Rd NE,New Philadelphia,OH,44663, (330) 602-4000,52.91090465874687
597,41.26128,-82.76744000000001,Gotta Getaway RV Park,4888 US Hwy 20e,Bellevue,OH,44811, (800) 305-9644,41.61298471364284
598,41.32945,-82.62167,Milan Travel Park,11404 US 250 N,Milan,OH,44846, (800) 433-4627,32.94924296034573
599,41.42062,-82.75616,Camp Sandusky,3518 Tiffin Ave,Sandusky,OH,44870, (800) 875-1044,38.753346774414034
600,39.457809999999995,-83.94163,Thousand Trails Wilmington,1786 SR 380,Wilmington,OH,45177, (888) 563-7040,16.647748186413068
601,39.953088,-84.743996,Arrowhead Campground,1361 Thomas Rd,New Paris,OH,45347, (937) 996-6203,39.38355039609896
602,39.38301,-83.08758,Sun Valley Campground,10105 Cr-550,Chillicothe,OH,45601, (740) 775-3490,47.26005428811117
603,39.2704,-86.2492,Bill Monroe Memorial Music Park & Campground,5163 SR 135 N,Morgantown,IN,46160, (812) 988-6422,26.744001748169417
605,39.663090000000004,-86.22815,Indy Lakes RV Campground,4001 W Southport Rd,Indianapolis,IN,46217, (317) 888-6006,7.6463750179577525
604,39.67817,-86.19492,Lake Haven Retreat,1951 W Edgewood Ave,Indianapolis,IN,46217, (317) 783-5267,6.322917122578523
606,41.73819,-85.9589,Elkhart Campground,25608 Cr-4E,Elkhart,IN,46514, (574) 264-2914,11.07941352154344
607,41.7096,-86.53687,Lakeside RV Resort,7089 N Chicago Rd,New Carlisle,IN,46552, (574) 654-3260,18.892722629419307
608,41.71917,-85.45838,Twin Mills RV Resort,1675 W SR 120,Howe,IN,46746, (888) 563-7040,36.88614327409819
609,40.48316,-85.65253,White Oaks Mobile Home Park,7145 S Meridian Street,Marion,IN,46953, (765) 674-6166,44.86080880179772
610,39.27787,-86.12803000000001,Indian Lakes RV Campground,7234 E SR 46,Batesville,IN,47006, (888) 563-7040,24.90185417027976
611,38.781684999999996,-84.98385400000001,Follow The River RV Resort,12273 Markland Town Rd,Florence,IN,47020, (812) 427-3330,22.936953109450897
612,38.97387,-84.84468000000001,"Little Farm On the River RV Park Camping Resort-Rising Sun,IN 47040, (812) 438",,Rising Sun,IN,47040, (812) 438-4500,10.536355312417625
613,38.952909999999996,-84.84679,Rising Star Casino Resort & RV Park,777 Rising Star Dr,Rising Sun,IN,47040, (800) 472-6311,10.875085204848146
615,38.27924,-85.75461999999999,Louisville North Campground,900 Marriott Dr,Clarksville,IN,47129, (812) 282-4474,7.051116818868459
614,38.356629999999996,-85.75036,Silver Lakes MHC & RV Park,5935 US 31 E,Clarksville,IN,47129, (812) 282-6667,10.020694458705917
616,39.120459999999994,-85.96587,Columbus Woods N Waters Kampground,8855 S 300 W,Columbus,IN,47201, (800) 799-3928,36.27185365707618
617,39.0973,-85.4876,Ceraland Park,3989 South 525 East,Columbus,IN,47203, (812) 377-5849,45.701764157160966
618,39.423728000000004,-85.625327,Hidden Paradise Campground,802 E Jefferson St,Saint Paul,IN,47272, (765) 525-6582,28.81312645921458
619,39.888524,-84.840361,Grandpa's Farm,4244 Sr-227 N,Richmond,IN,47374, (765) 962-7907,42.04185017626952
620,39.86586,-84.85122,Deer Ridge Camping Resort,3696 Smyrna Rd,Richmond,IN,47374, (765) 939-0888,42.03751929495383
621,39.189890000000005,-86.16415,Westward Ho Campground,4557 E SR-46,Nashville,IN,47448, (812) 988-0008,31.145097115554098
622,38.6452,-87.53200000000001,Vincennes RV Park,500 E Robinson Ln,Vincennes,IN,47591, (812) 891-0007,45.2243816728173
623,40.76528,-87.11514,Caboose Lake Campground,3657 W Us-24,Remington,IN,47977, (877) 600-CAMP,50.071873771063125
624,42.68893,-82.70631999999999,Northpointe Shores RV Resort,10413 Dixie Highway,Ira Township,MI,48023, (586) 250-2800,14.509077652476165
625,42.86623,-82.55700999999999,Saint Clair (Thousand Trails),1299 Wadhams Rd,Saint Clair,MI,48079, (888) 563-7040,26.98269199547736
626,42.223240000000004,-83.49414,Wayne County Fairgrounds RV Park,10871 Quirk Rd,Belleville,MI,48111, (734) 697-7002,12.821743461624928
627,41.97838,-83.39321,Camp Lord Willing Management RV Park & Campground,1600 Stumpmier Rd,Monroe,MI,48162, (877) 210-8700,24.102938016598056
628,42.1927,-83.56291999999999,Detroit/Greenfield RV Park,6680 Bunton Rd,Ypsilanti,MI,48197, (734) 482-7722,9.648401658167037
629,43.195409000000005,-83.506603,Covenant Hills Camp & Retreat,10359 E Farrand Rd,Otisville,MI,48463, (810) 631-4531,35.39089031804077
630,44.32914,-84.80383,Houghton Lake Travel Park Campground,370 Cloverleaf Ln,Houghton Lake,MI,48629, (517) 546-6361,47.11241630586702
631,43.31709,-83.73418000000001,Yogi Bear's Jellystone Park Camp Resort,1339 Weiss St,Frankenmuth,MI,48734, (989) 652-6668,47.63033124097603
632,43.406890000000004,-83.4447,Ber Wa Ga Na Campground,2601 W Sanilac Rd (M-46),Vassar,MI,48768, (989) 673-7125,48.92243503469122
633,43.619597,-84.888153,Soaring Eagle Hideaway RV Park,5050 E Airport Rd,Mt Pleasant,MI,48858, (989) 817-4800,59.04640718778666
634,41.99736,-85.0251,Waffle Farm Campgrounds,790 N Union City Rd,Coldwater,MI,49036, (517) 278-4315,37.13477630182493
635,42.346157,-84.995009,Camp Turkeyville RV Resort,18935 15 1/2 Mile Rd,Marshall,MI,49068, (269) 781-4293,33.78560499731086
636,41.881209999999996,-86.36321,Bear Cave Resort,4085 Bear Cave Rd,Buchanan,MI,49107, (888) 563-7040,14.907986293423297
637,42.196969,-84.205833,Apple Creek Campground & RV Park,11185 Orban Rd,Grass Lake,MI,49240, (517) 522-3467,23.815610522838707
638,42.041959999999996,-84.43036,"Somerset Beach Campground & Retreat Center-Somerset Center,MI 49282, (517) 688",,Somerset Center,MI,49282, (517) 688-3783,37.5933689510591
639,42.031867999999996,-83.869312,Indian Creek Camp & Conference Center,9415 Tangent Rd,Tecumseh,MI,49286, (517) 423-5659,15.159648538801823
640,43.21355,-85.57175,Lakeside Camp Park,13677 White Creek Ave Ne,Cedar Springs,MI,49319, (616) 696-1735,20.96600669651167
641,42.724709999999995,-85.74224,Hungry Horse Campground,2016 142Nd Avenue,Dorr,MI,49323, (616) 681-9843,10.543097098672076
642,42.586490000000005,-85.66342,Hidden Ridge RV Resort,2306 12Th St,Hopkins,MI,49328, (269) 672-9196,20.669836847057166
643,43.31757,-86.23456999999999,Lake Sch nepp a ho Family Campground,490 East Tyler Rd,Muskegon,MI,49445, (231) 766-2209,38.641136860431324
644,44.924640000000004,-85.18590999999999,Chain O'lakes Campground,7231 SM 88,Bellaire,MI,49615, (231) 533-8432,23.13966730449533
645,44.713812,-85.164234,Kalkaska RV Park & Campground,580 M-72 Se,Kalkaska,MI,49646, (231) 258-9863,20.139545512262934
646,44.23422,-86.29377,The Bluffs on Manistee Lake,956 Tennessee Ave,Manistee,MI,49660, (231) 887-4512,49.58338787114577
647,44.26493,-86.30491500000001,Insta Launch Campground & Marina,20 Park Ave,Manistee,MI,49660, (866) 452-8642,48.536558452797365
648,44.27274,-86.27133,Little River Casino RV Park,2700 Orchard Hwy,Manistee,MI,49660, (866) 572-4386,46.943155648563696
649,44.67018,-85.68137,Holiday Park Campground,4860 Us-31S,Traverse City,MI,49685, (231) 943-4410,6.908880702376299
650,44.77329,-85.46457,Traverse Bay RV Resort,5555 M 72 East,Williamsburg,MI,49690, (231) 938-5800,5.984936905264269
651,45.3584,-85.05435,Petoskey RV Resort,5505 Charlevoix Ave,Petoskey,MI,49770, (888) 517-2340,50.06962359893547
652,41.68456,-92.90188,Kellogg RV Park,1570 Highway 224 S,Kellogg,IA,50135, (641) 526-8535,47.51958324367514
653,41.577124,-93.87365799999999,Timberline Campground,31635 Ashworth Rd,Waukee,IA,50263, (515) 987-1714,3.691237028345951
654,42.0257,-96.12645,On Ur Wa RV Park,1111 28Th St,Onawa,IA,51040, (712) 423-1387,52.46184599235279
655,41.81123,-91.85312900000001,Amana Colonies RV Park,3890 C St,Amana,IA,52203, (800) 471-7616,14.499097252697045
656,42.230336,-91.86568299999999,Lazy Acres RV Park,5486 32Nd Ave,Center Point,IA,52213, (319) 443-4000,38.93906683462824
657,41.69155,-91.80237,Sleepy Hollow RV Park & Campground,3340 Blackhawk Ave NW,Oxford,IA,52322, (319) 826-4900,9.584413768291864
658,40.95872,-91.52508,Crossroads RV Park,708 S Iris St,Mount Pleasant,IA,52641, (319) 385-9737,51.20650909785664
659,41.646,-91.12746,Hunt's Cedar River Campground,1231 306th St,Tipton,IA,52772, (563) 946-2431,25.59181638723282
660,41.60399,-90.63011,Interstate RV Park,8448 N Fairmount St,Davenport,IA,52806, (563) 386-7292,5.379228697801925
661,43.73522,-88.16575999999999,Westward Ho RV Resort& Campground,N5456 Division Rd,Glenbeulah,WI,53023, (920) 526-3407,24.199077944428527
662,43.8041,-87.98159,Plymouth Rock Camping Resort,N7271 Lando St,Plymouth,WI,53073, (888) 563-7040,25.799447471913744
663,43.44692,-88.1652,Lake Lenwood Beach & Campground,7053 Lenwood Dr,West Bend,WI,53090, (262) 334-1335,12.291317798968814
665,42.82901,-88.98795,Lakeland Camping Resort,2803 E State Rd 59,Milton,WI,53563, (888) 563-4070,27.479123454938414
664,42.79684,-88.9817,Blackhawk Camping Resort,3407 E Blackhawk Dr,Milton,WI,53563, (888) 563-7040,29.54952113596132
666,42.97455,-89.21517,Badgerland Campground,2671 Circle Dr,Stoughton,WI,53589, (608) 873-5800,13.640173525570772
667,43.48523,-89.51225,Sky High Camping Resort,N5740 Sky High Dr,Portage,WI,53901, (608) 742-2572,25.021135885556046
668,43.52802,-89.77681,Ho Chunk Gaming RV Park,S3214 County Rd BD,Baraboo,WI,53913, (800) 746-2486,32.19422260466244
669,43.53218,-89.75766,Fox Hill RV Park,E11371 N Reedsburg Rd,Baraboo,WI,53913, (608) 356-5890,32.08295190959215
670,43.75659,-89.80292,Dells Camping Resort,1130 Freedom Ct,Wisconsin Dells,WI,53935, (608) 305-8404,47.43738191865511
671,43.743190000000006,-89.85094000000001,Ho-Chunk RV Resort & Campground,N 2884 28th Ave,Lyndon Station,WI,53944, (608) 666-2040,47.35346778700485
672,43.72231,-89.88495,Yukon Trails Camping,N2330 Cty Rd HH,Lyndon Station,WI,53944, (888) 563-7040,46.65686561901432
673,43.79055,-89.34775,Buffalo Lake Camping Resort,555 Lake Ave,Montello,WI,53949, (888) 297-2915,43.176304985214564
674,43.66278,-89.84725999999999,Arrowhead Resort Campground,W1530 Arrowhead Rd,Wisconsin Dells,WI,53965, (888) 563-7040,42.13540884617771
675,43.63113,-89.78801999999999,Sherwood Forest Camping & RV Park,S 352 Hwy 12 & 16,Wisconsin Dells,WI,53965, (877) 474-3796,39.002669802968946
676,45.07125,-87.13565,Baileys Grove Campground,2552 County Road F,Baileys Harbor,WI,54202, (866) 839-2559,59.52543463316482
677,44.475471999999996,-87.504112,Kewaunee Village RV Park & Campground,333 Terraqua Dr,Kewaunee,WI,54216, (800) 274-9684,23.834441419395827
678,44.84867,-87.40653,Tranquil Timbers Camping Retreat,3668 Grondin Rd,Sturgeon Bay,WI,54235, (888) 563-7040,39.28737489765781
679,44.26551,-88.90183,Yogi Bear's Jellystone Park Camp-Resort,E6506 Hwy 110,Fremont,WI,54940, (888) 563-7040,20.4856442646257
680,43.971000000000004,-89.34533,Lake Of the Woods Campground,N9070 14th Ave,Wautoma,WI,54982, (920) 787-3601,47.356385471737596
681,44.17172,-89.15491999999999,Evergreen Campsites & Resort,W 5449 Archer Lane,Wild Rose,WI,54984, (866) 450-2267,33.76604543170482
682,44.271,-93.30194,Camp Faribo,21851 Bagley Ave,Fairbault,MN,55021, (507) 332-8453,33.01264868498561
683,46.01,-92.91112,Grand Casino Hinckley RV Resort,1326 Fire Monument Rd,Hinckley,MN,55037, (800) 472-6321,59.89129201498204
684,44.23196,-93.46428,Camp Maiden Rock West,24505 Jackson Ave,Morristown,MN,55052, (507) 685-2280,36.68538861320814
685,43.95446,-93.24552,Hope Oak Knoll Campground,9545 Cr-3,Owatonna,MN,55060, (507) 451-2998,36.73740100246915
686,44.052040000000005,-93.2535,River View Campground,2554 SW 28th St,Owatonna,MN,55060, (507) 451-8050,36.48141071455629
687,45.38392,-92.69743000000001,Wildwood Campground,20078 Lake Blvd,Shafer,MN,55074, (651) 465-6315,29.647236770459564
689,45.40435,-94.08966,A-J Acres,1300 195th Street E,Clearwater,MN,55320, (320) 558-2847,11.231166800792847
688,45.42411,-94.06495,St Cloud/Clearwater RV Park,2454 Cr-143,Clearwater,MN,55320, (320) 558-2876,10.72874182664503
690,43.82051,-91.62059,Money Creek Haven,18502 CR 26,Houston,MN,55943, (507) 896-3544,47.675873460634165
691,43.74523,-91.93793000000001,Eagle Cliff Campground & Lodging,35455 State Hwy 16,Lanesboro,MN,55949, (507) 467-2598,35.996079582696034
692,43.71067,-92.03295,The Old Barn Resort,24461 Heron Road,Preston,MN,55965, (800) 552-2512,33.90086176961608
693,44.372640000000004,-92.02155,Big River Resort,1110 Hiawatha Drive East,Wabasha,MN,55981, (651) 565-9932,33.235752923597715
694,44.00887,-96.31591999999999,Pipestone RV Campground,919 N Hiawatha Ave,Pipestone,MN,56164, (507) 825-2455,40.277824728173925
695,45.56774,-94.11102,St Cloud Campground & RV Park,2491 2Nd St Se,Saint Cloud,MN,56304, (320) 251-4463,4.468028963085055
696,45.98838,-94.86596999999999,Camp S'More Campground,24797 US 71,Long Prairie,MN,56347, (320) 732-2517,38.719553911915895
697,46.917429999999996,-95.04881999999999,Big Pines RV Park,501 Central Avenue South,Park Rapids,MN,56470, (218) 237-8815,54.73197167321368
698,47.14456,-94.63233000000001,Trails RV Park,9424 State 371 Nw,Walker,MN,56484, (877) 280-0322,57.92493252147706
699,43.61118,-96.65094,Sioux Falls Yogi Bear,26014 478Th Ave,Brandon,SD,57005, (605) 332-2233,8.119064548367227
700,43.68873,-97.3889,Dakota Sunsets RV Park & Campground,25495 US-81,Salem,SD,57058, (605) 425-9085,34.786062142953
701,43.44635,-96.80599000000001,Red Barn RV Park,47003 272Nd St,Tea,SD,57064, (605) 368-2268,5.675385743865102
702,43.54361,-96.78177,Tower RV Park,4609 W 12th St,Sioux Falls,SD,57106, (605) 332-1173,3.021067473372883
703,46.83446,-100.54261,A Prairie Breeze RV Park,2810 158th St NE,Menoken,ND,58558, (701) 224-8215,11.072681786889158
704,45.80212,-109.96096999999999,Spring Creek Campground & Trout Ranch,257 Main Boulder Rd [Hwy 298 S],Big Timber,MT,59011, (406) 932-4387,53.99433250191274
705,45.6479,-109.24512,Mountain Range RV Park,19 Mountain Range Rd,Columbus,MT,59019, (406) 322-1140,33.335219433229874
706,45.03886,-110.72431999999999,Yellowstone RV Park,121 Hwy 89 S,Gardiner,MT,59030, (406) 848-7496,49.53487206340957
707,45.73949,-107.61426000000002,Grandview Camp & RV Park,1002 N Mitchell Ave,Hardin,MT,59034, (800) 622-9890,46.36299711195144
708,45.41661,-110.68457,Yellowstone's Edge RV Park,3502 Us Highway 89 S,Livingston,MT,59047, (800) 865-7322,27.761439574480185
709,45.63677,-110.58023,Osen's RV Park and Campground,20 Merrill Lane,Livingston,MT,59047, (406) 222-0591,24.32526319858743
710,45.7065,-109.54175,Old West RV Park,5 South Division St.,Reed Point,MT,59069, (406) 326-2394,46.9714125957646
712,45.76364,-108.53541000000001,Billings Village RV Park,325 S Billings Blvd,Billings,MT,59101, (406) 248-8685,1.9468184305417189
711,45.76381,-108.48357,Yellowstone River RV Park & Campground,309 Garden Ave,Billings,MT,59101, (800) 654-0878,4.378697056645343
713,48.82618,-113.41963,Chewing Black Bones Campground,3719 Highway 89,Babb,MT,59411, (406) 732-4046,58.52843244131983
714,48.334270000000004,-113.14545,Sleeping Wolf Campground & RV Park,56 Sleeping Wolf Lane,Browning,MT,59416, (406) 338-5622,55.16750568998712
715,48.749970000000005,-113.42623999999999,Johnson's of St Mary Campground & RV Park,21 Red Eagle Rd,St Mary,MT,59417, (406) 732-4207,54.77302092810537
716,48.48741,-113.26333000000001,Red Eagle Campground,30 Two Medicine Area Rd,East Glacier Park,MT,59427, (884) 335-5178,52.23360236816565
717,48.26699,-113.44082,Glacier Meadow RV Park,15735 US 2 East,Essex,MT,59434, (877) 612-2267,41.20328900533449
718,45.32113,-112.09963,Ruby Valley Campground & RV Park,2280 Mt Hwy 287,Alder,MT,59710, (406) 842-5677,56.82699459948013
719,46.408741,-112.724953,Indian Creek RV Park & Campground,745 Maverick Ln,Deer Lodge,MT,59722, (800) 294-0726,37.2931423857359
720,45.36642,-111.72991999999999,Ennis RV Village,15 Geyser St,Ennis,MT,59729, (866) 682-5272,39.97073079101327
721,46.51976,-112.79433999999999,Riverfront RV Park,115 Riverfront Ln,Garrison,MT,59731, (800) 255-1318,38.296795854051716
723,46.96461,-114.13055,Jim & Mary's RV Park,9800 Us Highway 93 N,Missoula,MT,59808, (406) 549-4416,6.54094899781229
722,46.96161,-114.13288999999999,Jellystone RV Park,9900 Jellystone Dr,Missoula,MT,59808, (800) 318-9644,6.465475016692111
724,46.2739,-114.15956000000001,Black Rabbit RV Park,2101 N 1st St,Hamilton,MT,59840, (866) 707-5050,43.25076123638772
725,47.69186,-114.11997,Eagle Nest RV Resort,35800 Eagle Nest Dr (Mt 35),Polson,MT,59860, (406) 883-5904,38.77216652272195
726,47.300709999999995,-115.13236,Campground St Regis,44 Frontage Rd West,St Regis,MT,59866, (888) 247-8734,58.76843616830828
727,47.2881,-115.08209,Nugget RV Park,1037 Old Highway 10 E,Saint Regis,MT,59866, (888) 800-0125,56.275323631414985
728,48.25184,-114.252109,Rocky Mountain 'Hi' RV Park And Campground,825 Helena Flats Rd,Kalispell,MT,59901, (800) 968-5637,3.8931248661075206
729,48.22343,-114.24483000000001,Spruce Park On the River,1985 MT Hwy 35,Kalispell,MT,59901, (406) 752-6321,4.116504413145728
730,48.01315,-114.05511000000001,Outback Montana RV Park & Campground,13772 Outback Lane,Bigfork,MT,59911, (406) 837-6973,19.96651375150822
731,48.369535,-114.179078,Columbia Falls RV Park,103 Us Highway 2 E,Columbia Falls,MT,59912, (888) 401-7268,11.699963419085146
732,48.364909999999995,-113.6632,Glacier Haven RV & Campground,14297 Us-2 East,West Glacier,MT,59916, (406) 888-9987,32.1383408600614
733,48.38754,-114.04465,Mountain Meadow RV Park & Cabins,9125 Hwy 2 E,Hungry Horse,MT,59919, (406) 387-9125,16.95830243371858
734,48.02254,-114.22707,Edgewater RV Resort,7140 Hwy 93 S,Lakeside,MT,59922, (800) 424-3798,15.440785774503796
735,47.8893,-114.21571999999999,Rollins RV Park & Restaurant,23711 Hwy 93,Rollins,MT,59931, (406) 844-3501,24.461829799567543
736,48.497,-113.98368,West Glacier RV Park & Cabins,350 River Bend Drive,West Glacier,MT,59936, (844) 868-7474,24.218125216138716
737,48.494659999999996,-113.979899,North American RV Park & Yurt Village,10784 Hwy 2E,Coram,MT,59936, (800) 704-4266,24.213910798645365
738,42.174209999999995,-88.5786,Lehman's Lakeside RV Resort,19609 Harmony Rd,Marengo,IL,60152, (815) 923-4533,12.289874716060488
739,41.48475,-88.20156,Leisure Lake Resort,21900 Sw Frontage Rd,Joliet,IL,60404, (815) 741-9405,17.983535763456487
740,41.48333,-88.14554,RV Park At Hollywood Casino Joliet,777 Hollywood Blvd,Joliet,IL,60434, (815) 744-9400,16.748420484123397
741,42.238640000000004,-88.77847,Pine Country RV & Camping Resort,5710 Shattuck Rd,Belvidere,IL,61008, (888) 563-7048,10.935500254901008
742,41.54738,-90.21135,Sunset Lakes Resort,3333 290th St North,Hillsdale,IL,61257, (888) 460-1197,16.800028017400116
743,41.67308,-89.27748000000001,Mendota Hills Campground,642 US Rt 52,Amboy,IL,61310, (815) 849-5930,47.541607746639656
744,41.72345,-89.26541999999999,O'Connell's Yogi Bear Park,970 Green Wing Rd,Amboy,IL,61310, (915) 857-3860,44.06488392647851
745,41.32897,-88.69243,Glenwood RV Resort,551 Wilson St,Marseilles,IL,61341, (815) 795-6000,38.32400173569489
746,40.90833,-90.23528,Galesburg East Campground,1081 E Us Highway 150,Knoxville,IL,61448, (309) 289-2267,37.8616332608083
747,40.78089,-89.93795,Millpoint Park,310 Ash Ln,East Peoria,IL,61611, (309) 231-6497,20.056777821599425
748,40.595490000000005,-89.15659000000001,Kamp Komfort RV Park & Campground,21408 N 600 East Rd,Carlock,IL,61725, (309) 376-4411,23.060002728562015
749,38.983979999999995,-89.69796,Rustic Acres Campground,12246 Binney Rd,New Douglas,IL,62074, (217) 456-1122,47.6922784311846
750,38.57366,-90.18670999999999,Cahokia RV Parque,4060 Mississippi Ave,Cahokia,IL,62206, (618) 332-7700,9.382980567563887
751,38.798626,-90.47359200000001,Sundermeier RV Park,111 Transit St,Saint Charles,MO,63301, (800) 929-0832,7.201479353348551
752,39.37276,-91.16424,Cozy C RV Campground,16733 US 54,Bowling Green,MO,63334, (573) 324-3055,49.798801233814046
753,38.860690000000005,-91.31316,Jonesburg Gardens Campground,15 Hwy E,Jonesburg,MO,63351, (636) 488-5630,38.363517531804554
754,38.89593,-91.55938,Lazy Day Campground,214 Highway J,Danville,MO,63361, (573) 564-2949,51.83579482894695
755,37.96885,-90.54308,Stone Park Resort & Amphitheatre,8614 Berry Road,Bonne Terre,MO,63628, (573) 315-7510,38.825869622285204
756,39.02069,-94.19678,Trailside RV Park & Store,1000 Rd Mize Rd,Grain Valley,MO,64029, (800) 748-7729,8.698024830518388
757,39.0097,-93.97156,Country Gardens RV Park,7089 Outer Rd,Odessa,MO,64076, (816) 633-8720,20.831614206497203
758,38.70609,-94.43788,Peculiar Park Place,22901 Se Outer Rd,Peculiar,MO,64078, (816) 779-6300,18.72701941026149
760,39.8584,-94.81201,AOK Campground & RV Park,822 S Belt Hwy,Saint Joseph,MO,64507, (816) 279-5417,43.42019754657823
759,39.759009999999996,-94.80498,Beacon RV Park,822 S Belt Hwy,St Joseph,MO,64507, (816) 279-5417,36.76460758906125
761,38.51704,-94.67619,Rutlader Outpost & RV Park,33565 Metcalf Rd,Louisburg,KS,66053, (866) 888-6779,26.920244157328803
762,39.0228,-94.7052,Walnut Grove RV Park,10218 Johnson Dr,Merriam,KS,66203, (913) 262-3023,4.666815866182475
763,38.644890000000004,-95.68485,Crossroads RV Park & Campground,23313 S US Hwy 75,Lyndon,KS,66451, (785) 221-5482,55.73027345280687
764,39.030023,-95.629184,Deer Creek Valley RV Park Llc,3140 Se 21St St,Topeka,KS,66607, (785) 357-8555,48.46448575959612
765,37.80988,-96.79635,Deer Grove RV Park,2873 Se Us Highway 54,El Dorado,KS,67042, (316) 321-6272,25.085292589032765
766,37.678672999999996,-97.521226,All Seasons RV Park,15520 W Maple St,Goddard,KS,67052, (316) 722-1154,16.290476132459887
767,38.02709,-97.55458,Spring Lake RV Resort,1308 South Spring Lake Rd.,Halstead,KS,67056, (316) 835-3443,30.01634046163445
768,37.868181,-97.341921,North Star RV Park/Mhp,650 W 101St St N,Valley Center,KS,67147, (316) 755-0592,14.51685931198963
769,37.63499,-97.28973,K & R RV Park,3200 S Sotheast Blvd,Wichita,KS,67216, (316) 684-1531,4.738942887565954
770,37.74523,-97.30221,Usi RV Park,2920 E 33Rd St N,Wichita,KS,67219, (316) 838-8699,6.2299000778470806
771,38.39394,-97.62487,McPherson RV Ranch & Horse Motel,2201 E Northview Ave,Mcpherson,KS,67460, (620) 241-5621,53.899927297933594
772,38.0577,-97.88894,Flamingo Flats Mobile Home & RV Park,2214 E 4th Ave,Hutchinson,KS,67501, (405) 476-5200,44.73707717365958
773,38.0077,-97.94547,Lighthouse Landing RV Park & Cabins,9 Heartland Dr,South Hutchinson,KS,67505, (800) 921-1236,45.48382974181064
774,40.97142,-96.39546,Pine Grove RV Park,23403 Mynard Rd,Greenwood,NE,68366, (402) 944-3550,20.608017221751208
775,40.824690000000004,-97.80684000000001,Prairie Oasis Campground & Cabins,913 Road B,Henderson,NE,68371, (402) 723-5227,58.45492710368156
776,40.65827,-95.8431,Victorian Acres RV Park & Campground,6591 Highway 2,Nebraska City,NE,68410, (402) 873-6866,38.48196848632445
777,40.81945,-97.46325,Double Nickel Campground & Country Store,907 Road S,Waco,NE,68460, (402) 728-5558,40.51629959624537
778,40.824459999999995,-97.5943,York Kampground,214 Naomi Rd,York,NE,68467, (402) 362-0091,47.375160045389336
779,40.857690000000005,-96.71718,Camp A Way RV Park,200 Campers Cir,Lincoln,NE,68521, (402) 476-2282,8.221043061213912
780,30.01195,-90.00041,Jude Travel Park Of New Orleans,7400 Chef Menteur Hwy,New Orleans,LA,70126, (800) 523-2196,7.3011279646683285
781,29.67152,-90.72197,Capri Court [Mhp],101 Capri Ct,Houma,LA,70364, (800) 428-8026,41.98542972382337
782,30.714909999999996,-90.56955,Natalbany Creek Campground & RV Park,30218 LA 16 West,Amite,LA,70422, (985) 748-4311,36.26503055257626
783,30.485559999999996,-90.33417,Reunion Lake RV Resort,43234 Hwy 445,Ponchatoula,LA,70454, (985) 520-6600,38.04538864523009
784,30.24222,-89.75765,Pine Crest RV & Mh Park Of New Orleans,2601 Old Spanish Trl,Slidell,LA,70461, (800) 879-5936,28.3700847580722
785,30.32344,-91.82259,Cajun Palms RV Resort,1055 N Barn Rd,Breaux Bridge,LA,70517, (337) 667-7772,17.52893539231139
786,30.335379999999997,-91.71030999999999,Frenchmen's Wilderness Campground,2026 Atchafalaya River Hwy,Breaux Bridge,LA,70517, (337) 228-2616,23.440060562094594
787,30.338076,-91.924918,Poche's RV Park and Fish N Camp,1080 Sawmill Hwy,Breaux Bridge,LA,70517, (337) 332-0326,14.393480181440566
788,30.24533,-92.19546,Frog City RV Park,3003 Daulaut Dr,Duson,LA,70529, (337) 873-9085,10.964500213716336
789,29.973414000000002,-91.84488499999999,Koc Kampground,3104 Curtis Ln,New Iberia,LA,70560, (337) 364-6666,17.331011700625943
790,30.231370000000002,-93.02059,Blue Heron RV Park,601 W US 90,Iowa,LA,70647, (337) 508-0600,58.690143710523195
791,30.247020000000003,-93.01361999999999,Cypress Bend RV Park,717 N Thompson,Iowa,LA,70647, (877) 409-2784,58.37571261567946
792,30.541970000000003,-92.81936999999999,Coushatta Luxury RV Resort At Red Shoes Park,711 Pow Wow Pkwy,Kinger,LA,70648, (800) 584-7263,53.4230806671545
793,30.012694,-90.827656,Poche Plantation RV Resort,6554 Louisiana Hwy 44,Convent,LA,70723, (225) 715-9510,31.679028466070175
794,30.454651000000002,-90.743847,Lakeside RV Park,28370 S Frost Rd,Livingston,LA,70754, (225) 686-7676,19.82199930935519
795,35.129690000000004,-90.16714,Tom Sawyers Mississippi River Park,1286 S 8Th St,West Memphis,AR,72301, (870) 735-9770,21.472156727611136
796,35.0205,-97.93952,Pecan Grove RV Resort,600 W Almar Dr,Chickasha,OK,73018, (405) 224-0500,46.441541088702856
797,35.87319,-97.5067,Cedar Valley RV Park,725 Masters Dr,Guthrie,OK,73044, (405) 282-4478,18.53618316245162
798,35.467259999999996,-97.72606999999999,Mustang Run RV Park,11528 W I40 Service Rd,Oklahoma City,OK,73099, (405) 577-6040,14.527751484239506
799,35.53764,-97.46472,Twin Fountains RV Resort,2727 NE 63rd St,Oklahoma City,OK,73111, (405) 475-5514,5.962878440235541
800,35.456681,-97.655528,Council Road RV Park,8108 SW 8th St,Oklahoma City,OK,73128, (405) 789-2103,12.404549669953031
801,35.45823,-97.63513,Rockwell RV Park,720 S Rockwell Ave,Oklahoma City,OK,73128, (405) 787-5992,11.699980193908718
802,35.417134999999995,-97.487563,Roadrunner RV Park,4800 S Hattie Ave,Oklahoma City,OK,73129, (405) 677-2373,13.185593607554573
803,33.752320000000005,-97.12614,Fun Town RV Park at WinStar,21902 Merle Wolfe Rd,Thackerville,OK,73459, (580) 276-8900,43.35459177516939
804,33.78652,-97.14339,Red River Ranch RV Resort,19691 US 77,Thackerville,OK,73459, (800) 568-7837,45.912289858496294
805,36.746179999999995,-95.96386,Riverside RV Resort & Campground,1211 SE Adams Blvd,Bartlesville,OK,74003, (918) 336-6431,50.60120731609323
806,36.09704,-95.99464,Cherry Hill RV & Mh Communtiy,4808 S Elwood Ave,Tulsa,OK,74107, (918) 446-9342,8.250860425813228
807,36.16741,-95.86635,Mingo RV Park,801 N Mingo Rd,Tulsa,OK,74116, (918) 832-8824,10.580266210446199
808,36.48837,-95.05909,Crooked Creek RV Park,2036 N 3rd St,Langley,OK,74350, (918) 770-6111,56.618844539198115
809,35.75013,-96.06867,Tulsa RV Ranch,2538 Hwy 75,Beggs,OK,74421, (918) 267-5656,20.89640892796438
810,35.28078,-95.57907,Xtreme RV Resort,203 Adams St,Eufaula,OK,74432, (918) 707-5636,53.50539537358054
811,35.35992,-95.57391,Little Turtle RV & Storage,114161 Highway 69,Eufaula,OK,74432, (918) 618-2140,48.478614817894545
812,35.55049,-95.09678000000001,Marval Resort,4450 E 1011 Rd,Gore,OK,74435, (800) 340-4280,54.7558280565871
813,35.49708,-95.95023,Hwy 75 RV Park & Storage,13705 Coalton Rd,Henryetta,OK,74437, (918) 752-8733,35.875488538422694
814,35.83817,-95.40236,Hidden Valley RV Park,6388 Highway 69,Porter,OK,74454, (918) 681-4457,29.806935458627507
815,33.90364,-96.54089,Do Drop Inn RV Resort,560 Platter Dike Rd,Calera,OK,74730, (580) 965-3600,47.71997366029921
816,33.85317,-96.50249000000001,River View RV & Recreational Park,300 S Dickson Dr,Colbert,OK,74733, (580) 296-8439,44.66855179123796
817,35.709579999999995,-96.81904,Oak Glen RV Park/MHP,3 Edinborough,Chandler,OK,74834, (800) 521-6681,40.70384464447483
818,35.23202,-96.67105,Bar H Bar RV Park,11242 N Hwy 99,Seminole,OK,74868, (405) 303-2200,54.92423585582628
819,32.96835,-96.93053,Sandy Lake Mh & RV Park Carefree RV Resort,1815 Sandy Lake Rd,Carrollton,TX,75006, (972) 242-6808,2.82163274162072
820,32.69304,-97.04868,Traders Village RV Park,2602 Mayfield Rd,Grand Prairie,TX,75052, (972) 647-8205,3.8843044437114385
821,32.614504,-97.064285,Loyd Park Camping Cabins & Lodge,City Of Grand Prairie 3401 Ragland Rd,Grand Prairie,TX,75052, (972) 237-4120,5.619455473523562
822,33.4037,-96.73992,Good Shepherd RV Park,1096 Fox Lane,Gunter,TX,75058, (214) 843-3930,13.657812893616189
823,33.61437,-96.60639,Lazy L RV Park,310 W Wilson Ave,Sherman,TX,75090, (903) 870-7772,27.466431353534617
824,32.573694,-95.854545,Mill Creek Ranch Resort,2102 N Trade Days Blvd,Canton,TX,75103, (866) 599-7275,41.43278328098919
825,32.52694,-95.72485999999999,Wagon Train RV Park,7869 Interstate 20,Canton,TX,75103, (352) 409-4130,49.53373311534938
826,32.063559999999995,-96.51471,American RV Park,4345 W Hwy 31,Corsicana,TX,75110, (903) 872-0233,44.8540546941401
827,33.02352,-96.20692,Dallas Ne Campground,4258 Fm 36 S,Caddo Mills,TX,75135, (903) 527-3615,15.987482292700584
828,32.21244,-96.02603,Shiloh on the Lake,14638 Travis Parkway,Malakoff,TX,75148, (903) 489-0639,53.8363264729323
829,32.687059999999995,-96.20523,Bluebonnet Ridge RV Park,16543 Fm 429,Terrell,TX,75161, (866) 419-0100,20.691252125420576
831,32.615990000000004,-95.977549,Canton I 20 RV Park,24481 Interstate 20,Wills Point,TX,75169, (903) 873-8561,33.88966925046724
830,32.63171,-95.95062,Canton Creek RV Park,32891 TX-64,Wills Point,TX,75169, (903) 865-6000,34.55215250983898
832,33.08498,-96.04399000000001,East Texas RV Park,2935 SH 69S,Greenville,TX,75402, (903) 454-8900,26.31846395851438
833,32.87253,-95.90189000000001,Lake Tawakoni RV,1246 Rains CR1470,Point,TX,75472, (888) 563-7040,31.714141263466313
834,33.09541,-95.65021999999999,Shady Lake RV Park,2306 Tx Hwy 19s,Sulphur Springs,TX,75482, (903) 885-8885,47.960785174810994
835,32.729620000000004,-97.61438000000001,Cowtown RV Park,7000 E Interstate 20,Aledo,TX,76008, (817) 441-7878,12.516841711733003
836,32.41865,-97.16813,Texas Ranch RV Resort,9101 E. US 67,Alvarado,TX,76009, (817) 295-5594,18.558498460690434
837,32.684898,-97.138974,Treetops RV Resort,1901 W Arbrook Blvd,Arlington,TX,76015, (800) 747-0787,1.4274154072834073
838,32.50145,-97.2932,Mockingbird Hill Mobile Home & RV Park,1990 S Burleson Blvd,Burleson,TX,76028, (817) 295-3011,13.894297581436474
839,32.23958,-97.74521,Oakdale Park,1019 NE Barnard St,Glen Rose,TX,76043, (254) 897-2321,36.04716701966095
840,32.4502,-97.73984,Bennett's RV Ranch,3101 Old Granbury Rd,Granbury,TX,76049, (817) 279-7500,24.90385728056401
841,32.955459999999995,-97.07376,The Vineyards Campground & Cabins,1501 N Dooley St,Grapevine,TX,76051, (888) 329-8993,2.431907772495509
842,32.53453,-97.10983,Texan RV Ranch,1961 Lone Star Rd,Mansfield,TX,76063, (817) 473-1666,10.311275694368438
843,32.946999999999996,-98.06192,Country Living Retreat,3399 S US Highway 281,Mineral Wells,TX,76067, (940) 452-7970,42.30747376926236
844,32.699,-97.77076,Hooves N' Wheels RV Park,4128 Granbury Hwy,Weatherford,TX,76087, (817) 599-4686,21.163629880656405
845,32.699939,-97.965336,Oak Creek RV Park,7652 W I-20,Weatherford,TX,76088, (817) 594-0200,32.48736930035597
846,32.693509999999996,-97.23846,Lakeview RV & Mh Community,4793 E Loop 820 South,Fort Worth,TX,76119, (800) 767-7756,7.252540417319906
847,33.361339,-97.70039,A + RV Park,667 E Franklin St,Alvord,TX,76225, (940) 427-9621,38.595447733309996
848,33.235440000000004,-96.89525,Shady Creek RV Park and Storage,11893 Fm 1385,Aubrey,TX,76227, (972) 347-5384,5.532289384924963
849,33.82744,-96.82903,Lake Texoma RV,209 Thousand Trails Rd,Gordonville,TX,76245, (888) 563-7040,43.150564506273604
850,33.378190000000004,-96.96709,Shark Tooth RV Ranch,11670 Massey Road,Pilot Point,TX,76258, (940) 600-2749,16.09360712288693
851,33.028586,-97.250791,Northlake Village RV Park,13001 Cleveland Gibbs Rd,Northlake,TX,76262, (817) 430-3303,9.629019144117203
852,33.442456,-97.765043,Camper's Paradise RV Park,4242 Us Hwy 287 Access Rd N,Bowie,TX,76270, (940) 872-2429,45.31870809591343
853,33.18083,-97.83498,Bay Landing RV,2305 W Hwy 380,Bridgeport,TX,76426, (888) 563-7040,35.539808471650844
854,33.252520000000004,-98.23735,Hidden Lake RV Ranch & Safari,3100 Lowrance Rd.,Jacksboro,TX,76458, (940) 567-6900,58.45060798830277
855,32.51307,-98.36965,Cactus Rose RV Park,115 W I 20,Mingus,TX,76463, (254) 693-5976,57.20922786080949
856,32.62168,-98.10923000000001,Coffee Creek RV Resort & Cabins,13429 S Hwy 281,Santo,TX,76472, (940) 769-2277,41.03802812555197
857,33.01663,-97.86112,West Gate RV Park,10850 Texas Route 199,Poolville,TX,76487, (817) 523-2240,32.412297033595294
858,31.056929999999998,-97.58628,Basin RV Park,10502 FM 2410,Belton,TX,76513, (254) 393-1450,39.023965213676625
859,30.703879999999998,-97.48905,Retreat at 971 RV Park,12801 FM971,Granger,TX,76530, (512) 677-6998,17.0595491409079
860,30.83401,-97.6011,Valley View RV Park,13483 N I-35,Jarrell,TX,76537, (512) 887-9168,24.79686607098698
861,31.0943,-97.69269,Elm Grove Mh Community,1704 MLK Jr Blvd,Killeen,TX,76543, (254) 690-3838,39.775700069401154
862,31.051409999999997,-98.18168,Boone RV Park,1907 S Highway 281,Lampasas,TX,76550, (888) 577-5171,42.0522918005513
863,32.0101,-97.34361,Lake Whitney RV,417 Thousand Trails Dr,Whitney,TX,76692, (888) 563-7040,46.17216314868933
864,29.67557,-95.42979,South Main RV Park,10100 South Main,Houston,TX,77025, (713) 667-0120,4.0411298750389015
865,29.652620000000002,-95.44553,Lakeview RV Resort,11991 Main St,Houston,TX,77035, (800) 385-9122,5.595691757161266
866,29.920579999999998,-95.44884,Fallbrook RV Resort,3102 Fallbrook Dr,Houston,TX,77038, (866) 923-4988,6.394319911804863
867,29.923602000000002,-95.360675,Houston Central RV Park,1620 Peach Leaf St,Houston,TX,77039, (281) 442-3700,8.770379021787578
868,29.89503,-95.60712,Traders Village RV Park,7979 N Eldridge Pkwy,Houston,TX,77041, (281) 890-5500,5.422035847593098
869,29.8927,-95.2107,Eastlake RV Resort,18102 Lockwood Rd,Houston,TX,77044, (832) 243-6919,9.474531704558336
870,29.60817,-95.38416,Southlake RV Resort,13701 Hycohen Rd,Houston,TX,77047, (866) 789-7664,4.395909873107575
871,29.596828000000002,-95.381011,Advanced RV Resort,2850 S Sam Houston Pkwy E,Pearland,TX,77047, (888) 515-6950,3.640294593976666
872,30.022509999999997,-95.39792,Northlake RV Resort,1919 Humble Westfield Road,Houston,TX,77073, (281) 209-1770,7.857123097544251
873,29.66321,-95.55156,Allstar RV Resort,10650 Sw Plaza Ct,Houston,TX,77074, (713) 981-6814,7.701808082822886
874,29.71852,-95.6405,Highway 6 RV Resort,14350 Schiller Rd.,Houston,TX,77082, (832) 230-1531,8.177013222140134
875,29.831156,-95.686266,Westlake RV Resort,18602 Clay Rd,Houston,TX,77084, (281) 463-8566,6.629519855294027
876,30.25635,-95.33559,Leisure Lane RV Resort,15406 FM 3083,Conroe,TX,77302, (936) 231-2313,7.793335112119017
877,30.32497,-95.34040999999999,Summer Breeze USA Conroe,3043 Waukegan Rd,Cut And Shoot,TX,77306, (936) 264-2854,10.500645438769482
878,30.393890000000003,-95.53353,Lake Conroe RV,11720 Thousand Trails Rd,Willis,TX,77318, (936) 856-3751,13.635355237593103
879,30.3257,-95.10248,East Fork RV Resort,1626 Hwy 59 S,Cleveland,TX,77327, (281) 593-2053,22.495904974166475
880,30.580859999999998,-95.05036,Rock'N E RV Park,5221 FM 222,Coldspring,TX,77331, (936) 653-2727,35.185762192322116
881,30.61245,-95.0444,Browder's Marina RV Park & Campground,1333 FM 3278,Coldspring,TX,77331, (936) 653-3278,37.03381776231582
882,30.16702,-95.59994,Timber Ridge RV Village,28323 FM 2978,Magnolia,TX,77354, (281) 356-1928,9.205543331008997
883,30.187070000000002,-95.75298000000001,Magnolia Forest RV Park,30427 Nichols Sawmill,Magnolia,TX,77355, (281) 259-9700,14.595292028632722
884,30.142482,-95.237643,Forest Retreat RV Park,21711 Mccleskey Rd,New Caney,TX,77357, (888) 354-9888,8.530619960230123
885,30.08313,-95.61196,Corral RV Park,1402 S Cherry,Tomball,TX,77375, (281) 351-2761,9.39866663443131
886,30.20638,-95.43198000000001,Woodland Lakes RV Park,17110 Fire House Rd,Conroe,TX,77385, (936) 273-6666,1.3023791715309605
887,30.114420000000003,-95.41584,Rayford Crossing RV Resort,29321 S Plum Creek Dr,Spring,TX,77386, (281) 298-8008,6.859178820108961
888,29.028340000000004,-95.56241999999999,Brazoria Lakes RV Resort,109 Stephen F  Austin Trail,Brazoria,TX,77422, (979) 798-1000,37.04818734314227
889,29.78149,-95.97145,Houston West RV Park,35303 Cooper Rd,Brookshire,TX,77423, (866) 621-1899,11.41205810482652
890,29.2217,-96.25744,El Campo Lost Lagoon RV Resort,665 CR 451,El Campo,TX,77437, (979) 275-1600,44.705503130541935
891,29.81,-95.72043000000001,Katy Lake RV Resort,20222 Morton Rd,Katy,TX,77449, (281) 492-0044,4.128589451911502
892,30.021390000000004,-95.98984,Lone Star Jellystone Park,34843 Betka Rd,Waller,TX,77484, (979) 826-4111,16.911739979750017
893,29.82075,-94.90589,Bayou Bend RV Resort,10220 I-10 East Freeway,Baytown,TX,77521, (281) 867-7702,24.192845933928094
894,29.82307,-94.87494000000001,Houston East RV Resort,11810 I-10 E,Baytown,TX,77523, (888) 383-3618,25.45415380977202
895,29.83395,-94.8044,Mont Belvieu RV Resort,6103 S FM 565,Baytown,TX,77523, (832) 902-2200,28.850133602943657
896,29.8074,-94.83675,Crystal Lake RV Resort,5511 S FM 565 Rd,Baytown,TX,77523, (281) 303-8777,26.183567571316672
897,29.4929,-94.94314,Tropical Gardens RV Park & Resort,609 24th St,San Leon,TX,77539, (281) 339-1729,12.350213485050219
898,29.057879999999997,-95.14386999999999,Blue Water RV Resort,11511 Bluewater Hwy,Freeport,TX,77541, (979) 239-4301,32.95725933183855
899,29.30926,-94.76811,Sandpiper RV Resort,201 Seawall Blvd,Galveston,TX,77550, (409) 765-9431,27.441882074010874
900,29.12071,-95.07153000000001,Galveston Island RV Resort,23700 San Luis Pass Rd,Galveston,TX,77554, (409) 200-2745,28.944277649412342
901,29.239620000000002,-94.88235999999999,Stella Mare RV Resort,3418 Stella Mare Lane,Galveston,TX,77554, (409) 632-7017,25.75102502341835
902,29.178333000000002,-94.982222,Jamaica Beach RV Park,17200 Termini San Luis Pass Rd,Galveston,TX,77554, (866) 725-5511,26.47909896613553
903,29.809046999999996,-95.057417,San Jacinto Riverfront RV Park,540 S Main St,Highlands,TX,77562, (281) 426-6919,19.276969815945762
904,29.36577,-95.0305,Texas RV Park,5605 FM 2004,Hitchcock,TX,77563, (409) 440-8722,13.538937260506296
905,29.4716,-95.10545,Safari Mobile Home & RV Community,2935 Calder Dr,League City,TX,77573, (281) 332-4131,4.977291497256699
906,30.052212,-94.734798,Cedar Grove RV Park,710 E Main St,Ames,TX,77575, (936) 334-0711,31.957664935655124
907,30.0512,-94.73406999999999,Highway 90 RV Resort,710 E Main,Liberty,TX,77575, (936) 641-5148,31.99679286671397
908,29.59092,-95.17401,Jetstream RV Resort at NASA,14450 Ellington Park Dr,Webster,TX,77598, (713) 609-1019,4.220419784985642
909,29.82985,-94.38433,Winnie Inn & RV Park,205 Spur 5,Winnie,TX,77665, (409) 296-2947,49.851299062742534
910,30.190590000000004,-96.52816,Artesian Park RV Campground,8601 Hwy 290 W,Brenham,TX,77833, (979) 836-0680,51.0232708342799
911,30.5561,-96.6735,Brazos Valley RV Park,2190 Hwy 21 East,Caldwell,TX,77836, (979) 200-3007,55.291080630711434
912,30.5028,-96.4713,Paradise RV Park,40 CR 267,Somerville,TX,77879, (979) 820-5528,58.02868619336828
913,29.723740000000003,-99.06947,Pioneer River Resort/Bandera,1202 Maple St.,Bandera,TX,78003, (866) 371-3751,30.177438159367178
914,29.3631,-98.941,Alsatian Resort  & Golf Club,1581 CR 4516,Castroville,TX,78009, (830) 931-9190,25.38838272950091
915,29.978945,-98.90594300000001,RV Park USA,108 Blue Rdg,Comfort,TX,78013, (830) 995-2900,33.37679665323363
916,29.758981,-98.682448,Cascade Caverns,226 Cascade Caverns Rd,Boerne,TX,78015, (830) 755-8080,13.599320304016087
917,30.121784,-99.19754499999999,Buckhorn Lake Resort,2885 Goat Creek Rd,Kerrville,TX,78028, (830) 895-0007,52.07710559048114
918,30.05645,-99.16001,Take It Easy RV Resort,703 Junction Hwy,Kerrville,TX,78028, (800) 828-6984,47.30045042969804
919,29.948259999999998,-99.10933,Triple T RV Resort,3900 Bandera Hwy,Kerrville,TX,78028, (830) 634-3000,40.053003939751584
920,29.595409999999998,-98.95844,Medina Lake RV,215 Spettle Rd.,Lakehills,TX,78063, (888) 563-7040,21.787194566323738
921,29.62425,-98.96506,Lake Medina RV Resort,1218 Leibold's Point,Lakehills,TX,78063, (888) 722-2640,22.388874567208543
922,29.22955,-98.68195,A Country Breeze RV Park,19575 Benton City Rd,Somerset,TX,78069, (210) 624-2665,24.410021514814723
923,29.29893,-98.6534,Alamo River RV Resort,12430 Trawalter Ln,Von Ormy,TX,78073, (210) 622-5022,19.38886864719689
924,29.672005,-98.1522702,Hill Country Cottage and RV Resort,131 S Rueckle Rd,New Braunfels,TX,78130, (830) 625-1919,19.870489180204967
925,29.69412,-98.10605,River Ranch RV Resort,420 North Business I-35,New Braunfels,TX,78130, (830) 625-7788,22.922638462461936
926,29.832729999999998,-98.16363,Summit Vacation & RV Resort,13105 River Road,New Braunfels,TX,78132, (830) 964-2531,24.122868425040508
927,29.618109999999998,-98.26514,Stone Creek RV Park,18905 Interstate 35 N,Schertz,TX,78154, (830) 609-7759,12.657754995797964
928,29.789590999999998,-98.420713,Texas 281 RV Park Ltd,33300 Hwy 281 N,Bulverde,TX,78163, (830) 980-2282,12.651652252454333
929,29.374840000000003,-98.48154,Traveler's World RV Resort,2617 Roosevelt Ave,San Antonio,TX,78214, (210) 532-8310,15.516443532981627
930,29.436220000000002,-98.41461,Alamo City RV Park,1011 Gembler Rd.,San Antonio,TX,78219, (210) 337-6501,12.66151542761207
931,29.309659999999997,-98.38812,Greenlake RV Resort,10842 Green Lake St,San Antonio,TX,78233, (210) 467-9178,21.491113609198543
932,29.445320000000002,-98.71039,Blazing Star Luxury RV Resort,1120 W Loop 1604 N,San Antonio,TX,78251, (888) 239-2113,11.29786480747575
933,29.44728,-98.69054,Admiralty RV Resort,1485 N Ellison Dr,San Antonio,TX,78251, (210) 647-7878,10.504697529256166
934,29.4599,-98.7479,Tejas Valley RV Park,13080 Potranco Rd,San Antonio,TX,78253, (210) 679-7715,12.10253630707467
935,26.2367,-98.20671999999999,McAllen Mobile Park,4900 N McColl,Mcallen,TX,78504, (956) 682-3304,2.994989995631752
942,26.16925,-98.12385,Alamo Rose RV Resort,938 S Alamo Rd,Alamo,TX,78516, (956) 783-2600,5.16833888652169
941,26.19333,-98.12822,Alamo Rec-Veh Park/MHP,1320 W Frontage Road,Alamo,TX,78516, (956) 787-8221,4.622890724327514
940,26.18233,-98.1299,Alamo Palms RV Resort,1341 W Bus Hwy 83,Alamo,TX,78516, (888) 563-7040,4.582001684962865
939,26.203429999999997,-98.11079000000001,Winter Ranch RV Resort,600 SH-495,Alamo,TX,78516, (956) 781-1358,5.747235211001039
938,26.20652,-98.11877,Casa Del Valle RV Resort,1048 N Alamo Rd,Alamo,TX,78516, (956) 783-5008,5.2878259595117365
937,26.17662,-98.09362,Acacia RV & MH Park,89 E. Business Hwy 83,Alamo,TX,78516, (956) 464-4080,6.869549144446326
936,26.20469,-98.11395,Trophy Gardens,800 TX-495,Alamo,TX,78516, (956) 787-7717,5.563945474480019
943,25.92928,-97.43204,Sunset Palms RV and MHP FKA Paul's RV Park,1129 N Minnesota Ave,Brownsville,TX,78521, (956) 831-4852,51.24759775135391
944,25.93454,-97.41743000000001,Breeze Lake RV Campground Mhp,1710 N Vermillion Ave,Brownsville,TX,78521, (956) 831-4427,51.97167213127606
945,26.175179999999997,-98.02848,Victoria Palms Resort,602 N Victoria Rd,Donna,TX,78537, (888) 563-7040,10.89046226470726
946,26.54583,-98.15833,Lazy Palms Ranch RV Park,35100 Lazy Palms Dr,Linn,TX,78541, (956) 383-1020,24.42131004587716
947,26.2312,-97.71765,Sunshine RV Resort,1900 Grace Ave,Harlingen,TX,78550, (888) 563-7040,30.230221351577104
948,26.22428,-97.67939,Tropic Winds RV Resort,1501 North Loop 499,Harlingen,TX,78550, (888) 563-7040,32.56423027562838
953,26.1892,-97.7467,Lakewood RV Resort,4525 Graham Rd,Harlingen,TX,78552, (888) 563-7040,28.320290420250483
952,26.204,-97.72178000000001,Paradise Park RV Resort,1201 N Expwy 77,Harlingen,TX,78552, (888) 563-7040,29.87371821016158
949,26.18678,-97.77838,Fig Tree RV Resort,15257 N 83 Expressway,Harlingen,TX,78552, (956) 423-6699,26.355387050015615
950,26.185568,-97.733243,Palm Gardens Mhp & RV Community,3401 W Business 83,Harlingen,TX,78552, (956) 423-7670,29.16002483806978
951,26.18071,-97.7465,Park Place Estates,5401 W Bus 83,Harlingen,TX,78552, (956) 428-4414,28.34565737147577
954,26.165754999999997,-97.817269,Vip La Feria RV Park & Mhp,600 E Expressway 83,La Feria,TX,78559, (956) 797-1401,24.013527919375765
955,26.16725,-97.82458000000001,Kenwood RV Resort,1201 N Main St,La Feria,TX,78559, (956) 797-1851,23.552629232063126
956,26.075210000000002,-97.52687,Palmdale RV Resort,30910 State Highway 100,Los Fresnos,TX,78566, (956) 399-8694,42.7729974611255
957,26.157329999999998,-97.9437,Paradise South RV Resort,9099 N. Mile 2 West Road,Mercedes,TX,78570, (888) 563-7040,16.275549802011316
958,26.13459,-97.94189,Llano Grande Lake Park Resort & Country Club MHP,2215 East West Blvd,Mercedes,TX,78570, (956) 565-2638,16.696962104821218
959,26.218759999999996,-98.34855,Circle T RV & MH Park,1820 Clay Tolle,Mission,TX,78572, (866) 428-5500,9.22771949554014
960,26.18841,-98.37832,Bentsen Palm Village RV Resort,2500 S Bentsen Palm Dr,Mission,TX,78572, (877) 247-3727,10.91586695890204
961,26.25005,-98.36739,Bluebonnet RV Resort,3366 N Bentsen Palm Dr,Mission,TX,78574, (956) 585-7630,10.948476713606071
964,26.2201,-98.17546,Tip O Texas RV Resort,101 E Sioux Rd,Pharr,TX,78577, (956) 787-9959,2.4985995949200395
963,26.24652,-98.18207,Texas Trails RV Resort,501 W Owassa Rd,Pharr,TX,78577, (956) 787-6538,3.8770760505535744
962,26.176270000000002,-98.1853,Tropic Star RV Resort,1401 S Cage Blvd,Pharr,TX,78577, (956) 787-5957,1.5950874989548967
965,26.13813,-97.67034,Fun N Sun RV Resort,1400 Zillock Rd,San Benito,TX,78586, (888) 563-7040,33.286483916571875
966,26.143520000000002,-97.97355,Country Sunshine RV Resort,1601 S Airport Dr,Weslaco,TX,78596, (888) 563-7040,14.639750254869698
967,26.14668,-97.97283,Southern Comfort RV Resort,1501 S Airport Drive,Weslaco,TX,78596, (888) 563-7040,14.633753893177646
968,26.17859,-97.95903,Snow To Sun RV & Mh Resort,1701 N International Blvd,Weslaco,TX,78596, (956) 968-0322,15.165983870006745
969,30.079620000000002,-97.82405,Crestview RV Center,15700 S IH 35,Buda,TX,78610, (512) 282-3516,9.670643770166357
970,29.748170000000002,-97.775,Leisure Resort RV Park,1 River Lane,Fentress,TX,78622, (800) 248-4103,32.68913312113926
971,30.26158,-98.87314,Fredericksburg RV Park,305 E Highway St,Fredericksburg,TX,78624, (866) 324-7275,50.03371421742582
972,30.252029999999998,-98.89554,Oakwood RV Resort,78 Fm 2093,Fredericksburg,TX,78624, (830) 997-9817,49.880137653947926
973,30.3017,-98.9029,The Vineyards At Fredericksburg RV Park,2647 N US Hwy 87,Fredericksburg,TX,78624, (830) 992-1237,53.23681090757793
976,30.6517,-97.625,East View RV Ranch,552 Eastview Dr,Georgetown,TX,78626, (512) 931-2251,12.360731767144529
974,30.692526,-97.64914499999999,Berry Springs RV Park,131 Market St,Georgetown,TX,78626, (512) 864-2724,15.23501119544139
975,30.67685,-97.6437,New Life RV Park,1200 County Rd 152,Georgetown,TX,78626, (512) 931-2073,14.25919464259339
977,29.49747,-97.37938,Texas Freedom RV Village,5784 US Hwy 90A East,Gonzales,TX,78629, (830) 519-9005,56.9562283040561
978,30.268929999999997,-98.39766,Roadrunner RV Park,501 S Us Highway 281,Johnson City,TX,78636, (830) 868-7449,33.371822008975556
979,30.5661,-98.34298000000001,Sunset Point On Lake LBJ,2322 Wirtz Dam Rd,Marble Falls,TX,78654, (830) 798-8199,31.346862394348
980,29.85975,-97.88911,Pecan Park Riverside RV & Cabins,50 Squirrel Run,San Marcos,TX,78666, (512) 396-0070,24.907475764321603
981,30.235629,-98.657653,Peach Country RV Park,14789 Us Hwy 290 E,Stonewall,TX,78671, (830) 644-2233,44.312170488187
982,30.284979999999997,-97.63622,Oak Forest RV Park,8207 Canoga Ave,Austin,TX,78724, (512) 926-8984,10.023633361260774
983,30.418409999999998,-97.93005,La Hacienda RV Resort,5220 Hudson Bend Rd,Austin,TX,78734, (512) 266-8001,10.004160437004176
984,30.18545,-97.77313000000001,Austin Lone Star RV Resort,7009 S I-35,Austin,TX,78744, (800) 284-0206,4.759864834882353
985,29.730959999999996,-96.60858,Colorado River RV Resort,1062 Thousand Trails Lane,Columbus,TX,78934, (888) 563-7040,49.83258608918628
986,29.898609999999998,-96.87633000000001,Colorado Landing RV Park,64 East Bluffview,La Grange,TX,78945, (979) 968-9465,58.51784106748384
987,29.692709999999998,-96.64751,Whispering Oaks RV Park,2965 Hwy 90,Weimar,TX,78962, (979) 732-9494,52.421747466193764
988,34.22507,-101.71784,The Hitchin' Post RV Park and Cabins,4018 N Interstate 27,Plainview,TX,79072, (806) 789-3066,47.395464375845876
989,33.59073,-102.29852,Opdyke West RV Park,301 Drew Drive,Levelland,TX,79336, (806) 778-9500,20.33172878646549
990,33.44723,-101.66530999999999,Twin Pine RV Park,1202 W Highway 84,Slaton,TX,79364, (866) 708-3311,18.18803870433293
991,33.514106,-101.998593,Mesa Verde RV Park,503 E Hwy 62/82,Wolfforth,TX,79382, (806) 773-3135,4.563153691323417
992,33.648976,-101.836518,Lubbock RV Park,4811 N I-27,Lubbock,TX,79403, (806) 747-2366,8.645396178211609
993,33.56305,-101.94696,Camelot Village RV & Mhp,6001 34Th St,Lubbock,TX,79407, (806) 792-6477,0.11111721022289012
994,31.90775,-106.59375,Gaslight Square Mobile Estates,500 Talbot Rd,Canutillo,TX,79835, (915) 877-2238,13.864803591228643
995,31.70689,-106.34283,Mission Trail Mobile Home & RV Village,8479 Alameda Ave,El Paso,TX,79907, (915) 859-0202,6.508325846496809
996,31.7007,-106.28062,Mission RV Park,1420 Rv Dr,El Paso,TX,79928, (915) 859-1133,9.440822992098559
997,39.64989,-105.02355,South Park Mobile Home and RV Community,3650 S Federal Blvd #97,Englewood,CO,80110, (303) 761-0121,0.9216836888809183
998,39.71952,-105.20123999999998,Dakota Ridge RV Resort,17800 W Colfax Ave,Golden,CO,80401, (303) 279-1625,7.9666175460104425
999,39.220240000000004,-105.99297,Middlefork RV Resort,255 US Hwy 285,Fairplay,CO,80440, (719) 836-4857,56.24277440178808
1000,40.10093,-105.94814,River Run,1051 Summit Trail,Granby,CO,80446, (888) 303-7027,42.18684249939759
1001,40.36238,-105.54311000000001,Spruce Lake RV Park,1050 Marys Lake Rd,Estes Park,CO,80517, (800) 536-1050,31.18765429976173
1002,40.36235,-105.53831000000001,Manor RV Park & Motel,815 Riverside Dr,Estes Park,CO,80517, (800) 344-3256,30.951471665468954
1003,40.36222,-105.5529,Elk Meadow Lodge And RV Resort,1665 State Highway 66,Estes Park,CO,80517, (800) 582-5342,31.675481733705464
1004,40.41688,-105.1899,Riverview RV Park & Campground,2444 River Rim Rd,Loveland,CO,80537, (800) 447-9910,12.78047112948299
1005,40.40763,-105.01351000000001,Loveland RV Resort,4421 E Us Highway 34,Loveland,CO,80537, (888) 571-3350,7.898704801041878
1006,40.39311,-104.67192,Greeley RV Park,501 E 27Th St,Greeley,CO,80631, (800) 572-2130,18.88057518217036
1007,38.84885,-104.86828999999999,Fountain Creek RV Park,3023 W Colorado Ave,Colorado Springs,CO,80904, (719) 633-2192,4.625954882248778
1008,38.844928,-104.86694299999999,Goldfield RV Park,411 S 26Th St,Colorado Springs,CO,80904, (888) 471-0495,4.81870054495086
1009,38.498090000000005,-105.34682,Royal View @ Royal Gorge Campground,43590 W Us Highway 50,Canon City,CO,81212, (719) 275-1900,39.92339954901875
1010,39.55939,-107.29356000000001,Glenwood Canyon Resort,1308 CR 129,Glenwood Springs,CO,81601, (800) 958-6737,22.278288966176426
1011,39.64784,-107.00223000000001,Aunt Sara's River Dance RV Resort,6700 US Hwy 6,Gypsum,CO,81637, (720) 933-9212,5.946538063349836
1012,41.156940000000006,-104.73333000000001,Restway Travel Park,4212 Whitney Rd,Cheyenne,WY,82001, (800) 443-2751,45.910368788941085
1013,41.15963,-104.51576,WYO Campground,4066 Interstate 80 Service [15 miles east of downtown],Cheyenne,WY,82003, (307) 547-2244,50.591663257153904
1014,41.002629999999996,-104.90465,Terry Bison Ranch RV Park,51 I-25 Service Rd E,Cheyenne,WY,82007, (307) 634-4171,33.557157968718855
1015,41.10191,-104.8226,AB Camping RV Park,1503 W College Dr,Cheyenne,WY,82007, (307) 634-7035,41.05230239505369
1016,41.27081,-110.94717,Phillips RV Park,225 Bear River Dr,Evanston,WY,82930, (800) 349-3805,53.92214608915438
1017,43.025240000000004,-112.41443999999998,Buffalo Meadows RV Park,I-15,Fort Hall,ID,83203, (208) 237-8774,8.553346559467125
1018,42.85024,-112.41995,Cowboy RV Park,845 Barton Rd,Pocatello,ID,83204, (208) 232-4587,4.181306896090103
1019,42.83818,-112.40241999999999,Flamingo Manufactured Housing Community,1002 Samuel St #145,Pocatello,ID,83204, (208) 232-1325,5.3334198189725965
1020,42.7248,-112.8741,Indian Springs Resort & RV,3249 Indian Springs Rd,American Falls,ID,83211, (208) 226-7700,24.65687999021621
1021,42.572070000000004,-113.62455,Village Of Trees RV Resort At Travel Stop 216,274 Highway 25,Declo,ID,83323, (800) 777-9121,42.835549139693605
1022,42.57751,-114.2897,Anderson Camp RV Park,1188 E 990 S,Eden,ID,83325, (888) 480-9400,8.946276543197355
1023,42.823240000000006,-114.89528999999999,Hagerman RV Village,18049 Hwy 30,Hagerman,ID,83332, (208) 837-4906,27.11186317210538
1024,42.57966,-113.92798,Kasota RV Resort,1325 W Hwy 25,Heyburn,ID,83336, (208) 438-5500,27.34753173784809
1025,42.546982,-113.759072,Heyburn Riverside RV Park,1177 7Th,Heyburn,ID,83336, (208) 431-2977,36.096505846167325
1026,42.77091,-114.71533000000001,Intermountain Motor Homes & RV Camp,1894 Frontage Rd N,Wendell,ID,83355, (208) 536-2301,17.74582410172672
1027,43.508722,-112.053219,Snake River RV Park And Campground,1440 Lindsay Blvd,Idaho Falls,ID,83402, (208) 523-3362,3.469766581638409
1028,43.7939,-111.81924,Wakeside Lake RV Park,2245 South 2000 West,Rexburg,ID,83440, (208) 356-3681,21.179583217063563
1029,45.921383,-116.145403,Bear Den RV Resort,16967 Highway 95 S,Grangeville,ID,83530, (800) 530-3658,55.31417913359287
1030,46.21693,-116.00668999999999,Long Camp RV Park,4192 Hwy 12,Kamiah,ID,83536, (208) 935-7922,51.625325638061284
1031,46.481284,-116.259571,Clearwater Crossing RV Park,500 Riverfront Ave,Orofino,ID,83544, (208) 476-4800,37.63468268075353
1032,43.66417,-116.64138999999999,Ambassador RV Resort,615 S Smeed Pkwy,Caldwell,ID,83605, (888) 877-8307,4.275299598701712
1033,43.80689,-116.74571999999999,Country Corners RV Park And Campground,17671 Oasis Rd,Caldwell,ID,83607, (877) 474-9826,15.385504362652497
1034,44.03566,-116.92541999999999,Neat Retreat RV Park,2701 N Alder Dr,Fruitland,ID,83619, (208) 452-4324,33.54688745563467
1035,42.94545,-115.31205,Y Knot Winery & RV Park,1294 W Madison Ave,Glenns Ferry,ID,83623, (208) 366-2313,49.52536435964454
1036,43.14156,-115.699,Gem State RV Park and Campground,220 E Tenth North,Mountain Home,ID,83647, (208) 587-5111,42.238171391554346
1037,43.13215,-115.67376999999999,Mountain Home RV Park,2295 American Legion Blvd,Mountain Home,ID,83647, (208) 580-1211,43.58863250187755
1038,44.27057,-116.94502,Monroe Creek Campground & RV Park,822 Highway 95,Weiser,ID,83672, (208) 549-2026,48.614486076226235
1039,43.56843,-116.20683999999999,Mountain View RV Park,2040 W Airport Way,Boise,ID,83705, (877) 610-4141,3.6893876018404694
1040,43.6985,-116.31428999999999,Hi Valley RV Park,10555 Horseshoe Bend Rd,Boise,ID,83714, (888) 457-5959,8.054174254731624
1041,43.659449,-116.27973100000001,Boise Riverside RV Park,6000 N Glenwood St,Boise,ID,83714, (800) 375-7432,5.1367115872632025
1042,47.63053,-116.61636000000001,Wolf Lodge Campground,12329 E Frontage Rd,Coeur D Alene,ID,83814, (866) 664-2812,9.47438549553911
1043,47.82963,-116.77916,Alpine Country RV Park,17568 N Highway 95,Hayden,ID,83835, (208) 772-4305,8.34662801585261
1044,48.423320000000004,-116.73918,The Hemlocks RV and Lodging,73400 Hwy 2,Moyie Springs,ID,83845, (208) 267-4363,49.40565181262773
1045,47.508759999999995,-116.00747,Blue Anchor RV Park,300 W Mullan Ave,Osburn,ID,83849, (208) 752-3443,38.7805933147621
1046,47.715375,-116.91230800000001,Coeur D'Alene RV Resort,2652 E Mullan Ave,Post Falls,ID,83854, (208) 773-3527,6.044940549051734
1047,40.913095,-111.40026399999999,Holiday Hills RV Park,500 West 100 South,Coalville,UT,84017, (435) 336-4421,25.960214493468147
1048,40.51043,-111.89047,Mountain Shadows RV Park & Mhp,13275 S Minuteman Dr,Draper,UT,84020, (801) 571-4024,2.724445511519567
1049,40.20029,-110.90541999999999,Red Rock RV Park,17525 E US 40,Fruitland,UT,84032, (435) 548-2795,39.741772662943745
1050,40.288920000000005,-111.24105,Mountain Valley RV Resort,2120 South Hwy 40,Heber City,UT,84032, (435) 657-6100,23.21523384988847
1051,41.062529999999995,-111.97025,Circle L Mobile Home Community,231 North Main,Layton,UT,84041, (801) 544-8945,9.290188864007472
1052,40.83037,-111.93858,Pony Express RV Resort,1012 Recreation Way,North Salt Lake,UT,84054, (800) 760-0170,4.665508827796144
1053,41.48761,-112.03175,Golden Spike RV Park,905 W 1075 S,Brigham City,UT,84302, (435) 723-8858,20.24862907368184
1054,41.71167,-112.17608,Aspen Grove RV Park,700 West Main St,Tremonton,UT,84337, (435) 339-6003,36.979256088446384
1055,41.22672,-112.01377,Century RV Park & Campground Mhp,1399 W 2100 S,Ogden,UT,84401, (801) 731-3800,2.7817779394701714
1056,39.67819,-110.85703000000001,Castle Gate RV Park & Campground,1020 Spring Glen Rd,Helper,UT,84526, (801) 599-7714,52.1514374737839
1057,40.23534,-111.72735,Lakeside RV Campground,4000 W Center St,Provo,UT,84601, (801) 373-5267,3.957794594237993
1058,39.69539,-111.8352,High Country RV Camp,899 SO Main,Nephi,UT,84648, (435) 623-2624,31.175242935096996
1059,37.73325,-113.20804,Iron Springs Adventure Resort,3196 North Iron Springs Rd,Cedar City,UT,84720, (435) 708-0101,45.55506711127555
1060,37.70767,-113.06206999999999,Cedar Breaks RV Park,1700 N Main St,Cedar City,UT,84721, (435) 586-2550,47.67591573097716
1061,37.31814,-112.59893000000001,Bauers Canyon Ranch RV Park,90 W Mill St,Glendale,UT,84729, (888) 648-2564,52.745036849309386
1062,37.385290000000005,-112.57596000000001,Bryce-Zion Campground,175 E Koa Road,Glendale,UT,84729, (435) 648-2490,55.28852452407283
1063,37.1752,-113.30953000000001,Willowind RV Park,1150 West 80 South,Hurricane,UT,84737, (435) 635-4154,12.359161361823785
1064,37.04233,-112.51728999999999,J & J RV Park,584 E 300 South,Kanab,UT,84741, (435) 899-1956,55.86695997674085
1065,37.03941,-112.52536,Kanab RV Corral,483 S 100 E,Kanab,UT,84741, (435) 644-5330,55.444796310222586
1066,37.23298,-113.36305,Leeds RV Park & Motel,97 Valley Rd,Leeds,UT,84746, (435) 879-2450,11.682478790464065
1067,37.09146,-113.58308000000001,Mcarthur's Temple View RV Resort,975 S Main St,St George,UT,84770, (800) 510-6765,3.92379640844486
1068,37.2031,-113.17743999999999,Zion River Resort RV Park & Campground,551E Hwy 9,Virgin,UT,84779, (888) 466-8594,19.893015157658613
1069,33.56957,-112.10298999999999,Royal Palm RV Resort/Mhc,2050 West Dunlap Ave,Phoenix,AZ,85021, (602) 943-5833,3.3985665965931955
1070,33.69355,-112.112448,Phoenix Metro RV Park,22701 N Black Canyon Hwy,Phoenix,AZ,85027, (877) 582-0390,2.354056840613139
1071,33.66008,-112.12125,Desert Shadows RV Resort/Pmp,19203 N 29Th Ave,Phoenix,AZ,85027, (800) 595-7290,0.3132049317757578
1072,33.87339,-112.14540900000001,Pioneer RV Resort/Pmp,36408 N Black Canyon Hwy,Phoenix,AZ,85086, (800) 658-5895,14.838513174895274
1073,33.36141,-111.47491000000001,Canyon Vistas RV Resort & Superstition Views Resort,6601 E US Hwy 60,Gold Canyon,AZ,85118, (888) 940-8989,11.401762527299313
1074,33.30003,-111.39457,Arizonian RV Resort,15976 East US Hwy 60,Apache Junction,AZ,85118, (520) 463-2978,17.03203692451094
1075,33.356654999999996,-111.468595,Gold Canyon RV & Golf Resort,7151 E Us Highway 60,Gold Canyon,AZ,85118, (877) 465-3226,11.819350715182628
1076,33.39077,-111.54558,Countryside RV Resort,2701 S Idaho Rd,Apache Junction,AZ,85119, (888) 563-7040,7.158240750773003
1077,33.41214,-111.52808,Weaver's Needle Travel Trailer Resort,250 S Tomahawk Rd,Apache Junction,AZ,85119, (480) 982-3683,8.324579312792167
1082,33.411749,-111.563392,Vip RV Resort,401 S Ironwood Dr,Apache Junction,AZ,85120, (480) 983-0847,6.3273485802080245
1080,33.40733,-111.55701,Golden Sun RV Resort,999 W Broadway Ave,Apache Junction,AZ,85120, (888) 563-7040,6.619908713538061
1081,33.40767,-111.5606,Sunrise RV Resort/Pmp,1403 W Broadway Ave,Apache Junction,AZ,85120, (480) 983-2500,6.421098650429135
1078,33.40206,-111.58095,Superstition Sunrise RV Resort/Pmp,702 S Meridian Rd,Apache Junction,AZ,85120, (800) 624-7027,5.19285995706633
1079,33.4156,-111.59177,Blue Star at Lost Dutchman,11050 E Apache Trail,Apache Junction,AZ,85120, (480) 986-3192,4.851355853353359
1083,32.87878,-111.72068,Fiesta Grande RV Resort,1511 E Florence Blvd,Casa Grande,AZ,85122, (888) 934-3782,28.796140216130603
1084,32.8977,-111.77521000000002,Sundance 1 RV Resort/PMP,1703 N Thornton Rd,Casa Grande,AZ,85122, (520) 426-9662,27.513682406931725
1085,32.88405,-111.70477,Palm Creek Golf & RV Resort/Pmp,1110 N Henness Rd,Casa Grande,AZ,85122, (800) 421-7004,28.49410307012994
1086,32.97092,-111.77698999999998,Foothills West RV Resort,10167 N Encore Dr,Casa Grande,AZ,85122, (520) 836-2531,22.48871160099975
1087,32.91575,-111.73171,Casita Verde RV Resort,"2200 N Trekell Rd, Casa Verde RV Resort",Casa Grande,AZ,85122, (520) 836-9031,26.225235385413487
1088,32.92311,-111.7546,Casa Grande RV Resort,195 W Rodeo Rd,Casa Grande,AZ,85122, (520) 421-0401,25.712774476134342
1089,32.81531,-111.67353999999999,Las Colinas RV Park,7136 Sunland Gin Rd,Eloy,AZ,85131, (520) 836-5050,33.39379527872109
1090,32.86527,-111.62777,Silverado RV Resort,4555 W Tonto Rd,Eloy,AZ,85131, (866) 502-4700,30.461404405631516
1091,32.64001,-111.38297,Picacho Peak Resort/Pmp,17065 E Peak Lane,Picacho,AZ,85141, (520) 466-7841,29.10007803928302
1094,33.416602000000005,-111.729336,Mesa Regal RV Resort/Pmp,4700 E Main St,Mesa,AZ,85205, (800) 845-4752,3.9603470317374287
1092,33.416016,-111.72581100000001,Towerpoint Resort/Pmp,4860 E Main St,Mesa,AZ,85205, (888) 940-8989,3.7630270768137604
1093,33.422496,-111.72205100000001,Sun Life RV Resort/Pmp,5055 E University Dr,Mesa,AZ,85205, (888) 940-8989,3.829326077455908
1095,33.413779999999996,-111.66438000000001,Agave Village RV Resort,7807 E Main St,Mesa,AZ,85207, (480) 986-5451,1.7457443684348781
1096,33.42328,-111.6434,Viewpoint RV & Golf Resort,8700 E University Dr,Mesa,AZ,85207, (888) 563-7040,2.81099372226613
1097,33.41485,-111.61742,Western Acres,9913 East Apache Trail,Mesa,AZ,85207, (480) 986-1158,3.4990470233373783
1098,33.40834,-111.63073999999999,Silver Sands RV Resort/PMP,9252 E Broadway Rd,Mesa,AZ,85208, (480) 984-6731,2.608059064929995
1099,33.40834,-111.63073999999999,Mesa Sunset RV Resort,9252 E Broadway Rd,Mesa,AZ,85208, (480) 984-6731,2.608059064929995
1100,33.41172,-111.6149,Country Cowboy RV Park,201 S Crismon,Mesa,AZ,85208, (480) 354-3700,3.523039460695588
1101,33.388717,-111.633096,Valle Del Oro RV Resort/Pmp,1452 S Ellsworth Rd,Mesa,AZ,85209, (888) 940-8989,2.0974680108186448
1102,33.37905,-111.64045,Monte Vista Village RV Resort,8865 E Baseline Rd,Mesa,AZ,85209, (888) 563-7040,1.8022836804762707
1105,33.41628,-111.76615,Mesa Spirit RV Resort,3020 E Main St,Mesa,AZ,85213, (888) 563-7040,5.102151454056695
1104,33.414656,-111.758004,Good Life RV Resort/Pmp,3403 E Main St,Mesa,AZ,85213, (888) 940-8989,5.424197410487295
1103,33.419305,-111.75334299999999,Val Vista Village RV Resort,233 N Val Vista Dr,Mesa,AZ,85213, (888) 940-8989,5.289351644356046
1106,33.464273999999996,-111.710641,Apache Wells RV Resort,2656 N 56Th St,Mesa,AZ,85215, (888) 940-8989,5.722177547298357
1107,33.277,-111.96206000000001,The MotorCoach Resort,1575 S Nelson Dr,Chandler,AZ,85226, (480) 639-1507,3.8295038778892607
1108,33.574529999999996,-111.67523,Eagle View RV Resort At Fort Mcdowell,9605 N Fort Mcdowell Rd,Fort Mcdowell,AZ,85264, (800) 843-3678,12.804775209852407
1109,33.41494,-111.90652,Apache Palms RV Park,1836 E Apache Blvd,Tempe,AZ,85281, (480) 966-7399,4.656947365458866
1110,34.07164,-112.15262,Black Canyon Ranch RV Resort,33900 S Old Black Canyon Hwy,Black Canyon City,AZ,85324, (623) 374-9800,28.483341222444235
1111,34.05976,-112.14213000000001,Black Canyon Campground,19600 E St Joseph Rd,Black Canyon,AZ,85324, (844) 562-5314,27.553254490131273
1112,33.58817,-112.32425,Pueblo El Mirage RV Resort & Golf,11201 N El Mirage Rd,El Mirage,AZ,85335, (800) 445-4115,6.46890853898445
1113,33.45139,-112.43271000000001,Cotton Lane RV & Golf Resort,17506 W Van Buren,Goodyear,AZ,85338, (888) 907-7223,9.208590450318692
1114,33.45134,-112.44435,Destiny Phoenix RV Resorts,416 N Citrus Rd,Goodyear,AZ,85338, (888) 667-2454,9.87689907106108
1115,33.488713,-112.93668600000001,Saddle Mountain RV Park,3607 N 411Th Ave,Tonopah,AZ,85354, (623) 386-3892,38.27576024954835
1116,32.72367,-114.63605,Shady Acres Mh & RV Park,1340 W 3rd St,Yuma,AZ,85364, (928) 783-9431,54.88585089836374
1117,32.66724,-114.62488,Capri RV Resort,3380 S 4th Ave,Yuma,AZ,85365, (888) 563-7040,56.10897522324323
1118,32.67027,-114.60078999999999,Suni Sands RV Resort,1960 E 32nd St,Yuma,AZ,85365, (888) 563-7040,57.45331326804347
1119,32.660540000000005,-114.62361999999999,Mesa Verde RV Resort,3649 S 4th Ave,Yuma,AZ,85365, (888) 563-7040,56.26704234776385
1120,32.614755,-114.58074099999999,Del Pueblo RV Park And Tennis Resort/Pmp,14794 S Avenue 3 E,Yuma,AZ,85365, (928) 341-2100,59.379252568606226
1121,33.65361,-112.29482,Paradise RV Resort,10950 W Union Hills Dr,Sun City,AZ,85373, (888) 563-7040,3.6671253532627808
1122,33.63378,-112.32453899999999,Sunflower RV Resort/Pmp,16501 N El Mirage Rd,Surprise,AZ,85378, (623) 583-0100,5.330511886583911
1123,33.95275,-112.70964,Horspitality RV Park,51802 US Hwy 60/89,Wickenburg,AZ,85390, (928) 684-2519,34.79957024663875
1124,34.24204,-111.31031999999999,Payson Campground And RV Resort,808 E Hwy 260,Payson,AZ,85541, (928) 472-2267,54.445190435250794
1125,33.35648,-110.66725,Apache Gold RV Park,MP 259,San Carlos,AZ,85550, (928) 475-7800,57.9892999813439
1128,31.94906,-110.28601,San Pedro Resort Community,1110 S Highway 80,Benson,AZ,85602, (520) 586-9546,39.576247267524366
1127,31.968009999999996,-110.30678,Butterfield RV Resort,251 S Ocotillo Ave,Benson,AZ,85602, (800) 863-8160,37.85335404823599
1126,31.971420000000002,-110.28841000000001,Pato Blanco Lakes RV Resort,635 E Pearl St,Benson,AZ,85602, (520) 586-8966,38.662105913117685
1129,31.68252,-110.35307,Mountain View RV Park,99 W Vista Ln,Huachuca City,AZ,85616, (520) 456-2860,48.90518526324023
1130,31.721445000000003,-110.224244,Tombstone Territories RV Park,2111 E Hwy 82,Tombstone,AZ,85616, (520) 457-2584,52.20910371390173
1131,31.905759999999997,-110.22724,Apache Mobile Home and RV Park,79 N Apache Trail,St David,AZ,85630, (520) 720-4634,44.090515336671714
1132,31.730359999999997,-110.07935,Tombstone RV Park & Campground,1475 N Hwy 80,Tombstone,AZ,85638, (520) 457-3829,58.21209059686922
1133,31.70562,-111.06379,De Anza RV Resort,2869 E Frontage Rd,Amado,AZ,85645, (520) 398-8628,33.39869949489957
1134,32.449496999999994,-111.21699199999999,Valley Of The Sun Mh/RV Park,13377 N Sandario Rd,Marana,AZ,85653, (520) 682-3434,12.961401827477028
1135,32.27028,-111.01026,Prince Of Tucson RV Park,3501 N Freeway,Tucson,AZ,85705, (800) 955-3501,4.4852282823346465
1136,32.22813,-110.82388999999999,Far Horizons Tucson Village RV Resort,555 N Pantano Rd,Tucson,AZ,85710, (800) 480-3488,2.6406820488620477
1137,32.17745,-110.80146,Rincon Country East RV Resort,8989 E Escalante Rd,Tucson,AZ,85730, (520) 886-8431,6.129731792799239
1138,32.32396,-111.04146999999999,South Forty RV Ranch,3600 W Orange Grove,Tucson,AZ,85741, (520) 297-2503,0.5015937322853311
1139,32.22815,-110.98888999999998,Sentinel Peak RV Park,450 N Grande Ave,Tucson,AZ,85745, (520) 495-0175,4.136519709819211
1140,32.168662,-111.00283,Rincon Country West RV Resort,4555 S Mission Rd,Tucson,AZ,85746, (520) 294-5608,3.376712756802546
1141,32.04851,-110.7738,The RV Park at the Pima County Fairgrounds,11300 S Houghton Rd,Tucson,AZ,85747, (520) 762-8579,13.598965397620988
1142,32.117290000000004,-110.97213,Mission View RV Resort,31 W Los Reales Rd,Tucson,AZ,85756, (800) 444-8439,4.5677077834770765
1143,32.130720000000004,-110.87533,Crazy Horse Campground & RV Park,6660 Craycroft Rd,Tucson,AZ,85756, (520) 574-0157,5.3897857979498465
1144,32.0939,-110.8395,Voyager RV Resort & Hotel,8701 S Kolb Rd,Tucson,AZ,85756, (800) 424-9191,8.644102595295182
1145,36.8671,-112.73605,Kaibab Paiute Tribe RV Park,HC 65 Box 6,Fredonia,AZ,86022, (928) 643-6601,46.98167828827352
1146,35.249520000000004,-112.19397,Grand Canyon Railway RV Park,601 W Franklin Ave,Williams,AZ,86046, (800) 843-8724,49.72026171942288
1147,35.25719,-112.17078000000001,Canyon Motel & RV Park,1900 E Rodeo Rd [Rt 66],Williams,AZ,86046, (928) 635-9371,50.55294657028519
1148,35.262715,-112.19336000000001,Canyon Gateway RV Park,1060 N Grand Canyon Blvd,Williams,AZ,86046, (888) 635-0329,50.61326601370065
1149,34.654415,-112.273374,Fairgrounds RV Park,10443 E State Route 89A,Prescott Valley,AZ,86315, (928) 227-3310,10.171144950999178
1150,35.22211,-112.49184,I 40 Grand Canyon RV Park,783 S Old Route 66,Ash Fork,AZ,86320, (928) 637-9897,46.789477146451894
1154,34.58443,-111.88563,Verde Ranch RV Resort,1105 N Dreamcatcher Dr,Camp Verde,AZ,86322, (928) 567-7126,29.258817263256734
1153,34.612915,-111.86428899999999,Distant Drums RV Resort,583 W Middle Verde Rd,Camp Verde,AZ,86322, (928) 554-8000,30.691017584793872
1151,34.550509999999996,-111.84863999999999,Zane Grey RV Park,4500 E State Route 260,Camp Verde,AZ,86322, (928) 567-4320,31.266244523701246
1152,34.59953,-111.88461000000001,Verde River RV Resort & Cottages,1472 W Horseshoe Bend Dr,Camp Verde,AZ,86322, (928) 202-3409,29.421866535852295
1155,34.779109999999996,-112.0541,Rain Spirit RV Resort,551 N Broadway,Clarkdale,AZ,86324, (928) 639-1104,25.20151217573981
1156,34.67069,-111.94843,Verde Valley RV & Camping Resort,6400 E Thousand Trails Rd,Cottonwood,AZ,86326, (888) 563-7040,26.921556619045383
1157,34.7217,-111.98983999999999,Rio Verde RV Park,3420 E SR 89a,Cottonwood,AZ,86326, (928) 634-5990,26.1013348480102
1158,34.563087,-112.260034,Orchard Ranch RV Resort/Pmp,11250 E State Route 69,Dewey,AZ,86327, (928) 772-8266,7.872155198483346
1159,34.86529,-111.75921000000001,Rancho Sedona RV Park,135 Bear Wallow Ln,Sedona,AZ,86336, (888) 641-4261,42.381869057434685
1160,36.89889,-113.93305,Beaver Dam Lodge RV Resort,452 Old Hwy 91 North,Beaver Dam,AZ,86432, (928) 347-2222,27.39765493586552
1161,35.94115,-114.08596000000001,Meadview RV Park,28100 N Pierce Ferry Rd,Meadview,AZ,86444, (928) 564-2662,54.0439104444223
1162,35.870290000000004,-114.66006999999999,Willow Beach RV & Campground,25804 N Willow Beach Rd,Willow Beach,AZ,86445, (928) 767-4747,25.237251837066136
1163,34.41623,-106.84293999999998,Kiva RV Park & Horse Motel,21 Old Highway 60 W,Bosque,NM,87006, (505) 861-0693,48.35717338186803
1164,34.90997,-106.693749,Isleta Lakes & RV Park,4051 Hwy 47,Albuquerque,NM,87022, (505) 244-8102,14.342354785752656
1165,35.05018,-106.01776000000001,Cuervo Mountain RV Park and Horse Hotel,16 Ella Dora Rd,Stanley,NM,87056, (505) 316-5070,29.05791740916853
1166,35.10485,-106.35091000000001,Coronado Village MHP,8401 Pan American Freeway NE,Alququerque,NM,87113, (505) 823-2515,10.449530251109858
1167,35.15653,-106.61948999999998,Balloon View RV Park,500 Tyler Rd NE,Albuquerque,NM,87113, (505) 345-3716,1.4090971435442117
1168,35.058809000000004,-106.814594,Enchanted Trails RV Park & Trading Post,14305 Central Ave Nw,Albuquerque,NM,87121, (505) 831-6317,12.580366848633766
1169,35.060190000000006,-106.79693,American RV Park,13500 Central Ave SW,Albuquerque,NM,87121, (505) 831-3545,11.639479510655855
1170,35.02693,-106.95236000000001,Route 66 RV Resort,14500 Central Ave SW,Albuquerque,NM,87121, (505) 352-8000,20.141794453380392
1171,35.32323,-106.57075,Stagecoach Stop RV Park,3650 State Hwy 528 NE,Rio Rancho,NM,87144, (505) 867-1000,10.198929909548612
1172,35.54586,-105.86457,Rancheros De Santa Fe Campground,736 Old Las Vegas Hwy,Santa Fe,NM,87505, (505) 466-3482,49.970051095515004
1173,35.880340000000004,-106.01299999999999,Roadrunner RV Park,55 Ogo Wii,Santa Fe,NM,87506, (505) 455-2626,59.71485202883767
1174,35.58835,-106.04473,Santa Fe Skies RV Park,14 Brown Castle Rnch,Santa Fe,NM,87508, (877) 565-0451,44.1296605895853
1176,32.3102,-106.796692,Sunny Acres RV Park,595 N Valley Dr,Las Cruces,NM,88005, (877) 800-1716,42.89107829504391
1175,32.28651,-106.78702,Hacienda RV & Rally Resort,740 Stern Dr,Las Cruces,NM,88005, (888) 686-9090,41.20925445570172
1177,35.976820000000004,-114.85093,Canyon Trail RV Park,1200 Industrial Rd,Boulder City,NV,89005, (702) 293-1200,12.263933999545804
1178,36.072446,-114.81983100000001,Lake Mead RV Village,268 Lake Shore Rd,Boulder City,NV,89005, (702) 293-2540,12.189901407332012
1179,36.0664,-115.0101,Desert Sands RV Park,1940 N Boulder Hwy,Henderson,NV,89011, (702) 565-1945,1.5563346111253087
1180,36.81907,-114.0414,Desert Skies RV Resort,350 E Hwy 91,Mesquite,NV,89024, (928) 347-6000,35.479755673707245
1181,36.809709999999995,-114.06168000000001,Sun Resorts RV Park,401 E Old Mill Rd,Mesquite,NV,89027, (702) 346-6666,36.76833766946846
1182,36.307970000000005,-114.42383000000001,Lake Mead RV Village at Echo Bay,600 Echo Bay Rd,Overton,NV,89040, (702) 394-4000,38.03065660189083
1183,35.49122,-114.6863,Cottonwood Cove Resort,10000 Cottonwood Cove Rd,Searchlight,NV,89046, (702) 297-1464,42.27981746692231
1184,36.13215,-115.95895,Lakeside Casino & RV Resort,5870 S Homestead Rd,Pahrump,NV,89048, (888) 558-5253,35.071090428025045
1185,36.19056,-115.94563000000001,Wine Ridge RV Resort,3810 Winery Rd #2,Pahrump,NV,89048, (775) 751-7805,34.29975174834672
1186,36.21096,-115.98183999999999,Preferred RV Resort,1801 E Crawford Way,Pahrump,NV,89048, (800) 445-7840,36.41635525991842
1187,36.31185,-116.01843000000001,Nevada Treasure RV Resort,301 W Leslie St,Pahrump,NV,89060, (800) 429-6665,39.63532887143162
1188,36.147206,-115.10096100000001,Riviera RV Park,2200 Palm St,Las Vegas,NV,89104, (702) 457-8700,3.8417216218961943
1189,36.13974,-115.16463,Circus Circus RV Park,500 Circus Circus Drive,Las Vegas,NV,89109, (702) 691-5988,2.197841581927241
1190,36.22262,-115.08371000000001,Hitchin' Post RV Park,3640 Las Vegas Blvd N,Las Vegas,NV,89115, (888) 433-8402,5.647561723393079
1191,36.12477,-115.07717,Arizona Charlie's Boulder RV Park,4445 Boulder Hwy,Las Vegas,NV,89121, (800) 970-7280,4.38870058562947
1192,36.12812,-115.08001000000002,Thousand Trails Las Vegas RV Resort,4295 Boulder Hwy,Las Vegas,NV,89121, (888) 563-7040,4.668327050021747
1193,36.118759999999995,-115.0646,Las Vegas RV Resort,3890 S Nellis Blvd,Las Vegas,NV,89121, (702) 451-8005,3.697467300979499
1194,36.08518,-115.033079,Duck Creek RV Park,6635 Boulder Hwy,Las Vegas,NV,89122, (702) 454-7090,1.0885454429735772
1195,36.042533,-115.17833300000001,Oasis Las Vegas RV Resort,2711 W Windmill Ln,Las Vegas,NV,89123, (800) 566-4707,4.743123396497937
1196,36.0413,-115.19949,LVM Resort,8175 Arville St,Las Vegas,NV,89139, (866) 897-9300,5.3847089380511814
1197,39.242740000000005,-119.59038999999999,Dayton RV Park,75 E Pike St,Dayton,NV,89403, (775) 246-9300,13.243639068756323
1198,39.486540000000005,-118.87297,Fallon RV Park,5787 Reno Hwy,Fallon,NV,89405, (775) 867-2332,46.67232875443559
1199,39.59239,-119.15613,Desert Rose RV Park,3285 US Hwy 50 E,Fernley,NV,89408, (877) 767-3478,31.097064226391733
1200,38.695440000000005,-119.54847,Topaz Lodge,1979 Us Highway 395 S,Gardnerville,NV,89410, (800) 962-0732,31.546697431065194
1201,38.95704,-119.77022,Carson Valley RV Resort & Casino,1627 Us Highway 395 N,Minden,NV,89423, (775) 782-9711,11.016119203113359
1202,39.53573,-119.74051999999999,Victorian RV Park,205 Nichols Blvd,Sparks,NV,89431, (800) 955-6405,2.992177488036752
1203,39.53748,-119.72441,Sparks Marina RV Park,1200 E Lincoln Way,Sparks,NV,89434, (775) 851-8888,2.965449203062775
1204,39.50176,-120.00085,Gold Ranch Casino & RV Resort,320 Gold Ranch Road,Verdi,NV,89439, (877) 914-6789,11.531530509882515
1205,39.49799,-119.79908,Silver Sage RV Park,2760 S. Virginia St,Reno/Sparks,NV,89502, (888) 823-2002,0.8265861510560732
1206,39.52667,-119.83086000000002,Keystone RV Park & Motel,1455 W 4Th St,Reno,NV,89503, (800) 686-8559,2.9370031733430557
1207,39.571995,-119.83070900000001,Bonanza Terrace RV Park,4800 Stoltz Rd,Reno,NV,89506, (775) 329-9624,4.950704581602227
1208,39.67015,-119.999719,Bordertown Casino & RV Resort,19575 Us Highway 395 N,Reno,NV,89508, (800) 218-9339,15.290572595611186
1209,39.56913,-119.82178,Shamrock RV Park,260 E Parr Blvd,Reno,NV,89512, (775) 329-5222,4.502506690554513
1210,39.52272,-119.77644,Grand Sierra Resort RV Park,2500 E 2nd St,Reno,NV,89595, (775) 789-2147,1.4304207392582937
1212,39.11786,-119.77411000000001,Comstock Country RV Resort,5400 S Carson St,Carson City,NV,89701, (775) 882-2445,0.1486365627510454
1211,39.17263,-119.74233000000001,Gold Dust West Casino & RV Park,2171 Hwy 50E,Carson City,NV,89701, (775) 885-9000,4.272884849920254
1213,39.182224,-119.76806699999999,Camp N Town RV Park,2438 N Carson St,Carson City,NV,89706, (800) 872-1123,4.544844662971737
1214,41.97978,-114.67201000000001,Cactus Petes RV Park,1385 Highway 93,Jackpot,NV,89825, (775) 755-2321,43.646154428424836
1215,33.84367,-118.19067,Arbor Mobile Village,300 E Arbor St,Long Beach,CA,90805, (562) 422-3666,3.136126768808561
1216,34.23525,-118.55075,Walnut RV Park,19130 Nordhoff St,Northridge,CA,91324, (800) 868-2749,0.316413844231813
1217,34.43053,-118.62261000000001,Valencia Travel Village,27946 Henry Mayo Dr (Hwy 126),Castaic,CA,91384, (661) 257-3333,9.366545695316493
1218,34.08981,-117.76391000000001,Fairplex RV Park (formerly Los Angeles/Pomona KOA),2200 N White Ave,Pomona,CA,91768, (909) 593-8915,4.043988674060726
1219,34.08404,-117.7915,Bonelli Bluffs RV Resort & Campground (formerly East Shore RV Park),1440 Camper View Rd,San Dimas,CA,91773, (909) 599-8355,2.9348926221451834
1220,32.88475,-116.57864,Oakzanita Springs RV Campground,11053 Hwy 79,Descanso,CA,91916, (888) 563-7040,23.95552559926942
1221,32.65208,-116.85448999999998,Pio Pico RV Resort & Campground,14615 Otay Lakes Rd,Jamul,CA,91935, (888) 563-7040,9.832451586831873
1222,32.772795,-117.03738600000001,San Diego RV Resort Sunland,7407 Alvarado Rd,La Mesa,CA,91942, (866) 225-6358,0.7485237767454715
1225,33.140209000000006,-116.135957,Leapin' Lizard RV Ranch,5929 Kunkler Ln,Borrego Springs,CA,92004, (760) 767-4526,39.68565406285702
1223,33.266259999999996,-116.36526,The Springs At Borrego RV Resort & Golf Course,2255 Digiorgio Road,Borrego Springs,CA,92004, (760) 767-0004,30.65610037160314
1224,33.25642,-116.39828,Palm Canyon Hotel and RV Resort,221 Palm Canyon Dr,Borrego Springs,CA,92004, (760) 767-5341,31.702666168996224
1226,32.85642,-116.84322,Oak Creek RV Resort  Sunland,15379 Oak Creek Rd,El Cajon,CA,92021, (866) 225-6164,8.4459016325003
1227,32.806364,-116.923449,Vacationer RV Resort  Sunland,1581 E Main St,El Cajon,CA,92021, (866) 226-8998,4.427296266223369
1228,32.81561,-116.91588,Circle RV Resort  Sunland,1835 E Main St,El Cajon,CA,92021, (866) 226-2747,4.5171027386711735
1229,33.14735,-117.10263,Escondido RV Resort  Sunland,1740 Seven Oakes Rd,Escondido,CA,92026, (866) 226-2661,1.4835053073322966
1230,32.8369,-116.90059,Rancho Los Coches RV Park,13468 Highway 8 Business,Lakeside,CA,92040, (800) 630-0448,5.053908886434715
1231,33.181309999999996,-117.36697,Oceanside RV Park,1510 S Coast Hwy,Oceanside,CA,92054, (760) 722-4404,5.129785319127898
1232,33.36453,-117.08908999999998,Pala Casino RV Resort,11042 Hwy 76,Pala,CA,92059, (844) 472-5278,11.438751572776082
1233,32.86646,-117.00616000000001,Santee Lakes Recreation Preserve,9310 Fanita Pkwy,Santee,CA,92071, (619) 596-3141,2.051592164370349
1235,32.797792,-117.216128,Mission Bay RV Resort,2727 De Anza Rd,San Diego,CA,92109, (877) 219-6900,1.8664114870686697
1234,32.79691,-117.22551000000001,Campland On The Bay,2211 Pacific Beach Dr,San Diego,CA,92109, (800) 422-9386,1.8386089963736567
1236,33.70674,-116.21637,Indian Waters RV Resort,47/202 Jackson St,Indio,CA,92201, (760) 342-8100,3.2948980372609395
1237,33.70418,-116.26834099999999,Indian Wells RV Resorts,47340 Jefferson St,Indio,CA,92201, (800) 789-0895,0.29756265182252356
1238,33.754545,-116.26988,Shadow Hills RV Resort,40 655 Jefferson Street,Indio,CA,92203, (760) 360-4040,3.46349517698811
1239,33.77283,-116.33842,Emerald Desert RV Resort Sunland,76000 Frank Sinatra Dr,Palm Desert,CA,92211, (866) 226-9001,3.6322579847223304
1240,33.76314,-116.31021000000001,Palm Springs RV Resort,77500 Varner Rd,Palm Desert,CA,92211, (888) 563-7040,4.5680966365975495
1241,33.78675,-116.45735,Palm Springs Oasis RV Resort,36100 Dat Palm Dr,Cathedral City,CA,92234, (888) 563-7040,4.087708240720808
1242,33.92861,-116.48438,The Sands Golf & RV Resort,16400 Bubbling Wells Road,Desert Hot Springs,CA,92240, (877) 426-5882,10.181879014171882
1243,33.91315,-116.44053999999998,Catalina Spa and RV Resort,18800 Corkill Rd,Desert Hot Springs,CA,92241, (760) 329-4431,8.081470505285129
1244,32.766083,-115.690327,Rio Bend RV & Golf Resort,1589 Drew Rd,El Centro,CA,92243, (760) 352-7061,7.529724162494456
1245,33.3082,-115.9301,Sea View Estates & RV Resort & Spa,336 Seaview Dr,Salton City,CA,92275, (760) 394-4333,33.743225968804296
1246,34.165584,-116.04498799999999,Twentynine Palms Resort: RV Park Cottages Golf,4949 Desert Knoll Ave,Twentynine Palms,CA,92277, (800) 874-4548,31.815547660247407
1247,34.814865000000005,-116.61802,Newberry Mountain RV & Motel Park,47800 National Trails Hwy,Newberry Springs,CA,92365, (760) 257-0066,44.93046006699306
1248,34.063061,-117.228567,Mission RV Park,26397 Redlands Blvd,Redlands,CA,92373, (909) 796-7570,2.0299555077779945
1249,33.67776,-117.37218,Lake Park RV Resort & Motel,32000 Riverside Dr,Lake Elsinore,CA,92530, (951) 674-7911,2.26065463684093
1250,33.747240000000005,-117.01098799999998,Golden Village Palms RV Resort Sunland,3600 W Florida Ave,Hemet,CA,92545, (866) 225-6320,17.633918752590752
1251,33.76677,-116.73299999999999,Idyllwild RV Resort,24400 Canyon Trail,Idyllwild,CA,92549, (888) 563-7040,19.941318143161144
1252,33.67439,-117.13678,Wilderness Lakes RV Resort,30605 Briggs Rd,Menifee,CA,92584, (888) 563-7040,10.604506905742904
1253,33.452459999999995,-117.10423999999999,Pechanga RV Resort,45000 Pechanga Pkwy,Temecula,CA,92592, (951) 770-2656,5.55327071846642
1254,33.6156,-117.89091,Newport Dunes Waterfront Resort & Marina,1131 Back Bay Dr,Newport Beach,CA,92660, (800) 765-7661,6.4955709062575515
1255,33.812563,-117.907517,Anaheim RV Park,200 W Midway Dr,Anaheim,CA,92805, (714) 774-3860,3.3632230108471277
1256,33.80545,-117.86957,Orangeland RV Park,1600 W Struck Ave,Orange,CA,92867, (714) 633-0414,4.685309496313197
1257,34.340709999999994,-119.08285,Mountain View RV Park,714 W Harvard Blvd,Santa Paula,CA,93060, (805) 933-1942,8.784382517456988
1258,34.53651,-119.77303,Rancho Oso RV & Camping Resort,3750 Paradise Rd,Santa Barbara,CA,93105, (888) 563-7040,9.481370647538947
1259,36.31374,-119.65425,Bel Air RV & MH Community,10954 Hanford Armona Rd,Hanford,CA,93230, (559) 582-9692,8.553797583118678
1260,35.76327,-118.4234,Rivernook Campground,14001 Sierra Way,Kernville,CA,93238, (760) 376-2705,43.86626005707482
1261,35.64353,-118.41383,Lake Isabella RV Resort,11936 Hwy 178,Lake Isabella,CA,93240, (760) 379-2046,40.01742731693805
1262,36.36946,-119.03272,Lemon Cove Village RV Park,32075 Sierra Dr,Lemon Cove,CA,93244, (559) 370-4152,16.164927492436604
1263,36.152845,-119.334442,Sun & Fun RV Park,1000 E Rankin Ave,Tulare,CA,93274, (559) 686-5779,9.776189370129758
1264,36.323240000000006,-119.3356,Country Manor Mh Community,820 S Chinowth St,Visalia,CA,93277, (559) 732-8144,2.6510615674354803
1265,35.34199,-118.87918,Orange Grove RV Park,1452 S Edison Rd,Bakersfield,CA,93307, (661) 366-4662,10.03422128386685
1266,35.36116,-118.92979,Shady Haven RV Park,250 Fairfax Rd,Bakersfield,CA,93307, (661) 366-6700,6.9275718295814395
1267,35.35403,-118.90908999999999,Bakersfield RV Travel Park,8633 E Brundage Ln,Bakersfield,CA,93307, (877) 361-3550,8.181459706206725
1268,35.349519,-118.932055,A Country RV Park,622 S Fairfax Rd,Bakersfield,CA,93307, (661) 363-6412,7.036406683959295
1269,35.37919,-119.04763999999999,Bakersfield River Run RV Park,3715 Burr St,Bakersfield,CA,93308, (888) 748-7786,0.37220770868487185
1270,35.30922,-119.0391,Bakersfield RV Resort,5025 Wible Rd,Bakersfield,CA,93313, (661) 833-9998,1.3568784339395707
1271,34.61107,-120.19353000000001,Flying Flags RV Resort & Campground,180 Avenue of Flags,Buellton,CA,93427, (805) 688-3716,22.143114347891455
1272,35.0936,-120.61607,Pacific Dunes Ranch RV Resort,1205 Silver Spur Pl,Oceano,CA,93445, (888) 563-7040,11.709253923965065
1273,35.09786,-120.60653,Pismo Sands RV Park,2220 Cienaga St,Oceano,CA,93445, (800) 404-7004,11.647757429699046
1274,35.681470000000004,-120.69753,Paso Robles RV Ranch,398 Exline Rd,Paso Robles,CA,93446, (805) 237-8685,29.620535946740546
1275,35.65215,-120.65808,Cava Robles RV Resort,3800 Golden Hill Rd,Paso Robles,CA,93446, (888) 886-2477,27.660250683640868
1276,35.6481,-120.64076999999999,Wine Country RV Resort,2500 Airport Rd,Paso Robles,CA,93446, (805) 238-4560,27.465638402783537
1277,35.68187,-120.6987,Vines RV Resort,88 Wellsona Rd,Paso Robles,CA,93446, (855) 467-2100,29.64897629810358
1278,35.129341,-118.119229,Sierra Trails RV Park,21282 State Highway 14,Mojave,CA,93501, (877) 994-7999,32.285225298312454
1279,34.48778,-118.14238,The Californian RV Resort,1535 Sierra Hwy,Acton,CA,93510, (888) 787-8386,12.00325029352686
1280,34.44453,-118.21268,Soledad Canyon RV & Camping Resort,4700 Crown Valley Rd,Acton,CA,93510, (888) 563-7040,14.482735668934588
1281,34.70431,-118.10403000000001,Crestview MH Community,1449 East Ave I,Lancaster,CA,93535, (661) 942-3487,3.9914791892191417
1282,37.32359,-119.55471000000001,Bass Lake at Yosemite,39744 Rd 274,Bass Lake,CA,93604, (559) 642-3145,35.77497796902996
1283,37.12706,-120.23052,The Lakes RV & Golf Resort,5001 E Robertson Blvd,Chowchilla,CA,93610, (866) 665-6980,19.067590099735526
1284,37.12373,-120.25513000000001,Arena RV Park,203 S Chowchilla Blvd,Chowchilla,CA,93610, (559) 665-1752,18.197799751956257
1285,36.760355,-119.83553500000001,Fresno Mobile Home & RV  Park,1362 N Hughes Ave,Fresno,CA,93728, (559) 264-3122,4.030657508080985
1286,36.3422,-121.25776,Yanks RV Resort,40399 Livingston Rd,Greenfield,CA,93927, (855) 926-5778,33.8305445318855
1287,36.70232,-121.80298,Marina Dunes RV Park,3330 Dunes Rd,Marina,CA,93933, (831) 384-6914,6.3400745231253275
1288,37.64638,-122.49221999999999,San Francisco RV Resort,700 Palmetto Ave,Pacifica,CA,94044, (650) 355-7093,2.7215757788747243
1289,38.42606,-122.69858,Sonoma County Fairgrounds RV Park,1500 Aston Ave,Santa Rosa,CA,94504, (707) 293-8410,0.8194262652492311
1290,38.02585,-121.61482,Sugar Barge RV Resort And Marina,4515 Willow Rd,Bethel Island,CA,94511, (800) 799-4100,12.277366333618826
1291,38.29925,-122.27807,Napa Valley Expo RV Park,575 3Rd St,Napa,CA,94559, (707) 253-4900,9.267565981784765
1292,38.2961,-122.27583,Giant Redwoods RV And Camp,601 Silverado Trail,Napa,CA,94559, (707) 253-4900,9.037403550126255
1293,38.14411,-121.68455,Duck Island RV Park & Fishing Resort,16814 Hwy 160,Rio Vista,CA,94571, (916) 777-6663,12.515886966809274
1294,38.086290000000005,-122.23311000000001,Tradewinds RV Park Of Vallejo,239 Lincoln Rd W,Vallejo,CA,94590, (707) 643-4000,3.41078826279428
1295,37.939434999999996,-122.51577900000001,Marin Park,2140 Redwood Hwy,Greenbrae,CA,94904, (888) 461-5199,10.371570546809416
1296,38.115809999999996,-122.56381,Novato RV Park,1530 Armstrong Ave,Novato,CA,94945, (800) 733-6787,2.0957786095995505
1297,38.044090000000004,-122.78993999999999,Olema RV Resort & Campground,10155 Hwy 1,Olema,CA,94950, (415) 663-8106,13.384043332211741
1298,36.9928,-121.37983,Casa De Fruta,10031 Pacheco Pass Hwy,Hollister,CA,95023, (408) 842-9316,9.836411306046445
1299,37.06091,-121.66512,Morgan Hill RV Resort,12895 Uvas Rd,Morgan Hill,CA,95037, (888) 563-7040,7.00765725146556
1300,37.192170000000004,-121.71234,Coyote Valley RV Resort,9750 Monterey Rd,Morgan Hill,CA,95037, (866) 376-5500,5.320791474151655
1301,36.6322,-121.29733,San Benito RV & Camping Resort,16225 Cienega Rd,Paicines,CA,95043, (888) 564-7040,21.204611385628116
1302,36.96063,-121.55828999999999,Betabel RV Park,9664 Betabel Rd,San Juan Bautista,CA,95045, (800) 278-7275,3.294129392208775
1303,37.046,-122.0149,Santa Cruz Ranch RV Resort,917 Disc Dr,Scotts Valley,CA,95066, (888) 563-7040,4.378640136554649
1304,38.0439,-120.52215,Angels Camp RV Resort,3069 Highway 49 South,Angels Camp,CA,95222, (888) 398-0404,38.03596033955203
1305,38.114740000000005,-121.39015,Flag City RV Resort,6120 W Banner Rd,Lodi,CA,95242, (866) 371-4855,6.983176219257846
1306,38.043040000000005,-120.39870400000001,49Er RV Ranch,23223 Italian Bar Rd,Columbia,CA,95310, (209) 532-4978,43.4856404891452
1307,37.401059000000004,-120.745071,Merced River RV Resort,7765 Campground Rd,Delhi,CA,95315, (209) 634-6056,11.336662795540695
1308,37.81577,-119.93906000000001,Yosemite Lakes RV Resort,31191 Hardin Flat Rd,Groveland,CA,95321, (888) 563-7040,46.772677022889084
1309,37.825759999999995,-120.19561999999999,Yosemite Pines RV Resort,20450 Old Hwy 120,Groveland,CA,95321, (209) 962-7690,39.652746945939754
1310,37.09863,-121.01636,Santa Nella RV Park,13023 State Highway 33,Santa Nella,CA,95322, (888) 826-3105,29.84092708920044
1311,37.77162,-121.29793000000001,Turtle Beach,703 E Williamson Rd,Manteca,CA,95337, (888) 563-7040,2.2605464009135923
1312,37.469141,-121.177035,Kit Fox RV Park,14750 Rogers Ct,Patterson,CA,95363, (209) 892-2638,16.22249257613294
1313,37.97249,-120.24025,The RV Park at Black Oak Casino Resort,19400 Tuolumne Rd N,Tuolumne,CA,95379, (877) 747-8777,47.30872721217458
1314,38.845420000000004,-123.01976,Russian River RV Campground,33655 Geysers Rd,Cloverdale,CA,95425, (888) 563-7040,21.84055611661314
1315,38.50489,-122.94188,River Bend Resort,11820 River Rd,Forestville,CA,95436, (707) 887-7662,13.807155704121408
1316,39.405120000000004,-123.80883,Pomo RV Park & Campground,17999 Tregoning Ln,Fort Bragg,CA,95437, (707) 964-3373,37.88529275035104
1317,39.019740000000006,-122.88741,Konocti Vista RV Park,2755 Mission Rancheria Rd,Lakeport,CA,95453, (707) 262-1900,18.319448001401426
1318,39.31073,-123.30576,Golden Rule RV Park,16100 N Highway 101,Willits,CA,95490, (707) 459-2958,13.752484621704529
1319,39.40822,-123.3792,Willits KOA,1600 Hwy 20,Willits,CA,95490, (800) 562-8542,21.522851694520778
1320,40.80206,-124.14528999999999,Shoreline RV Park,2600 6Th St,Eureka,CA,95501, (707) 443-2222,2.0890067174680778
1321,40.826029999999996,-124.08266,Redwood Coast Cabins & RV Resort,4050 N Hwy 101,Eureka,CA,95503, (707) 822-4243,5.7534676423916755
1322,40.90185,-124.09113,Mad River Rapids RV Park,3501 Janes Rd,Arcata,CA,95521, (800) 822-7776,8.967877675203933
1323,40.57612,-124.15093,Riverwalk RV Park & Campground,2189 Riverwalk Dr,Fortuna,CA,95540, (800) 705-5359,15.00253280904828
1324,41.5765,-124.07418,Mystic Forest RV Park,15875 US Hwy 101,Klamath,CA,95548, (707) 482-4901,54.421015520802555
1325,41.53069,-124.05223000000001,Kamp Klamath RV Park & Campground,1661 W Klamath Beach Rd,Klamath,CA,95548, (866) KLA-MATH,51.41724813529042
1326,41.514565000000005,-124.03759099999999,Klamath River RV Park,700 W Klamath Beach Rd,Klamath,CA,95548, (707) 482-2091,50.423713305998625
1327,40.14098,-123.81031000000002,Dean Creek Resort,4112 Redwood Dr,Redway,CA,95560, (707) 923-2555,49.03537590267393
1328,40.410476,-123.95669199999999,Ancient Redwoods RV Park,28101 Avenue Of The Giants,Redcrest,CA,95569, (707) 722-4396,28.900609110201145
1330,41.07241,-124.1441,Emerald Forest Cabins & RV,753 Patricks Point Dr,Trinidad,CA,95570, (707) 677-3554,19.444331659461675
1329,41.12323,-124.15611000000001,Sounds Of The Sea RV Park & Spa,3443 Patricks Point Dr,Trinidad,CA,95570, (800) 598-0600,22.88780202670764
1331,38.3673,-120.7306,Jackson Rancheria RV Park,12222 New York Ranch Rd,Jackson,CA,95642, (800) 822-WINN,28.10542340554367
1332,38.808679999999995,-120.90378999999999,Ponderosa RV Resort,7291 Hwy 49,Lotus,CA,95651, (888) 563-7040,15.818591614764602
1333,38.89626,-121.57005,Lake Minden RV Resort,1256 Marcum Rd,Nicolaus,CA,95659, (888) 563-7040,17.479178028691756
1334,38.47507,-120.85041000000001,49er Village RV Resort,18265 Hwy 49,Plymouth,CA,95669, (800) 339-6981,18.304895831797346
1335,38.4171,-121.93616000000002,Vineyard RV Park,4985 Midway Rd,Vacaville,CA,95688, (866) 447-8797,5.176681459691181
1336,38.41717,-121.93956000000001,Midway RV Park,4933 Midway Rd,Vacaville,CA,95688, (707) 446-7679,5.098422156804227
1337,38.57312,-121.57523,Sac West RV Park and Campground,3951 Lake Rd,West Sacramento,CA,95691, (916) 371-6771,6.838720503908518
1338,39.25889,-120.62808999999999,Snowflower RV Resort,41776 Yuba Gap Dr,Emigrant Gap,CA,95715, (888) 563-7040,46.762812996562005
1339,39.35926,-121.6871,Gridley Inn & RV Park,1490 State Highway 99,Gridley,CA,95948, (877) 846-4520,25.836501827789935
1340,39.36846,-121.26398,Lake of the Springs RV Resort,14152 French Town Rd,Oregon House,CA,95962, (888) 563-7040,38.038882285674305
1341,39.755523,-122.216401,The Parkway RV Resort & Campground,6330 County Road 200,Orland,CA,95963, (800) 468-9452,21.703162220255123
1342,39.47915,-121.57757,River Reflections RV Park & Campground,4360 Pacific Heights Rd,Oroville,CA,95965, (530) 533-1995,20.845289804402267
1343,39.505,-121.507,Berry Creek Rancheria RV Park,3900 Olive Hwy,Oroville,CA,95966, (866) 991-5061,22.050444824381785
1344,39.93636,-120.91428,Pioneer RV Park,1326 Pioneer Rd,Quincy,CA,95971, (888) 216-3266,49.974448732341486
1345,39.76783,-121.87212,Almond Tree RV Park,3124 Esplanade,Chico,CA,95973, (530) 899-1271,4.563038480812137
1346,39.14732,-121.62062,Travelhome Park,1257 Live Oak Blvd,Yuba City,CA,95991, (530) 674-8910,31.66758700422198
1347,40.57632,-122.37167,Marina RV Park,2615 Park Marina Dr,Redding,CA,96001, (530) 241-4396,1.5670603207706357
1348,40.48062,-122.32066,Jgw RV Park,6612 Riverland Dr,Redding,CA,96002, (530) 365-7965,7.4072286161077034
1349,40.61314,-122.37035,Redding Premier RV Resort,280 N Boulder Dr,Redding,CA,96003, (888) 710-8450,2.2801859178523793
1350,40.609395,-122.365153,Redding RV Park,11075 Campers Ct,Redding,CA,96003, (530) 241-0707,1.9119381725977969
1351,40.699740000000006,-122.33963,Mountain Gate RV Park,14161 Holiday Rd,Redding,CA,96003, (800) 404-6040,7.828446823253523
1352,39.926803,-122.19698999999999,Heritage RV Park,975 99W,Corning,CA,96021, (530) 824-6130,24.940950974845766
1353,40.70915,-122.81241000000001,Old Lewiston Bridge RV Resort,8460 Rush Creek Rd,Lewiston,CA,96052, (530) 778-3894,25.98793537146205
1354,41.33795,-122.35337,Abrams Lake RV Park,2601 N Old Stage Rd,Mount Shasta,CA,96067, (530) 926-2312,51.865591549555646
1355,40.65157,-121.45966999999999,Hat Creek Resort & RV Park,12533 Hwy 44/89,Old Station,CA,96071, (530) 335-7121,46.76404443895817
1356,40.183170000000004,-122.22939,Durango RV Resort,100 Lake Ave,Red Bluff,CA,96080, (530) 527-5300,28.479696998680737
1357,41.42103,-122.38408000000001,Hi Lo RV Park,88 S Weed Blvd,Weed,CA,96094, (530) 938-2731,57.63340342519266
1358,41.39982,-122.37817,Friendly RV Park,1800 Black Butte Drive,Weed,CA,96094, (530) 938-2805,56.16024116295951
1359,41.42103,-122.38408000000001,Hi-Lo RV Park,88 S Weed Blvd,Weed,CA,96094, (530) 938-2731,57.63340342519266
1360,41.70952,-122.6381,Waiiaka Trailer Haven,240 Sharps Rd,Yreka,CA,96097, (530) 842-4500,47.661143826374264
1361,38.9087,-119.99700000000001,Tahoe Valley Campground,1175 Melba Dr,South Lake Tahoe,CA,96150, (888) 563-7040,18.620767508771674
1362,39.38203,-120.08061000000001,Truckee River RV Park,10068 Hirschdale Rd,Trucker,CA,96161, (530) 448-4650,17.87826592527159
1363,39.33967,-120.17443,Coachland RV Park,10100 Pioneer Trl,Truckee,CA,96161, (530) 587-3071,23.6873423496414
1364,45.233059999999995,-122.8061,Aurora Acres RV Resort,21599 Dolores Way Ne,Aurora,OR,97002, (503) 678-2646,7.186816331931532
1365,46.1031,-123.19837,Clatskanie River Inn & RV Park,600 East Columbia River Hwy,Clatskanie,OR,97016, (503) 728-9000,34.49630590581218
1366,45.54333,-122.44438000000001,Portland Fairview RV Park,21401 NE Sandy Blvd,Fairview,OR,97024, (888) 563-7040,4.042081716758886
1367,45.53976,-122.38305,Sandy Riverfront RV Resort Llc,1097 E Historic Columbia River Hwy,Troutdale,OR,97060, (503) 665-6722,6.995200592019153
1368,45.35584,-121.98636,Mt Hood Village Resort,65000 E Hwy 26,Welches,OR,97067, (503) 622-4011,29.11809462241617
1369,45.33548,-122.76191999999999,Pheasant Ridge RV Resort,8275 SW Elligsen Rd,Wilsonville,OR,97070, (503) 682-7829,0.2068911677900907
1370,45.15274,-122.88253,Portland/Woodburn RV Park,115 N Arney Rd,Woodburn,OR,97071, (888) 988-0002,13.717956550625264
1371,45.889179999999996,-123.9557,Cannon Beach RV Resort,340 Elk Creek Road,Cannon Beach,OR,97110, (800) 847-2231,17.91402472928557
1372,45.23731,-123.96315,Pacific City RV Camping Resort,30000 Sandlake Rd,Cloverdale,OR,97112, (888) 563-7040,52.19562325516661
1373,45.558659999999996,-123.90981000000001,The Old Mill RV Park,210 S 3rd St,Garibaldi,OR,97118, (503) 322-0322,40.627913281553944
1374,45.20162,-123.13633,Olde Stone Village RV Park,4155 Ne Three Mile Ln,Mcminnville,OR,97128, (877) 472-4315,20.31610323376343
1375,45.21522,-123.96963999999998,Cape Kiwanda RV Resort & Market Place,33305 Cape Kiwanda Dr,Pacific City,OR,97135, (503) 965-6230,51.872341930364186
1376,45.21577,-123.96828000000001,Hart's Camp,33145 Webb Park Rd,Pacific City,OR,97135, (503) 965-7006,51.82596844963148
1378,45.96541,-123.92473000000001,Circle Creek RV Park,85658 Highway 101,Seaside,OR,97138, (503) 738-6070,12.546726029998768
1377,46.001540000000006,-123.91054,Seaside RV Resort,1703 12th Ave,Seaside,OR,97138, (888) 563-7040,10.041865981068897
1379,45.5112,-123.87558999999999,Tillamook Bay City RV Park,7805 Alderbrook Rd,Tillamook,OR,97141, (800) 200-2075,43.94399738253948
1380,45.42655,-123.93851000000001,Netarts Bay Garden RV Resort,2260 Bilyeu Ave W,Tillamook,OR,97141, (503) 842-7774,49.31484105916275
1381,45.599689,-122.65261000000001,Columbia River RV Park,10649 Ne 13Th Ave,Portland,OR,97211, (888) 366-7725,6.380269769289635
1382,45.61538,-122.68536,Jantzen Beach RV Park,1503 N Hayden Island Dr,Portland,OR,97217, (800) 443-7248,6.249904018603472
1383,44.930890000000005,-123.12405,Premier RV Resorts [Salem],4700 Salem Dallas Hwy Nw,Salem,OR,97304, (877) 364-9990,6.362759833921832
1384,44.99106,-122.99156,Hee Hee Illahee RV Resort,4751 Astoria St Ne,Salem,OR,97305, (877) 564-7295,4.965127755736
1385,44.9693,-122.98078999999998,Phoenix RV Park,4130 Silverton Rd Ne,Salem,OR,97305, (800) 237-2497,3.5323309663401807
1386,44.63279,-123.05063999999999,The Blue Ox RV Park,4000 Blue Ox Drive SE,Albany,OR,97322, (541) 926-2886,0.8179850312355647
1387,44.64448,-123.05507,Knox Butte RV Park,125 Expo Parkway NE,Albany,OR,97322, (541) 928-9033,0.6367817501736611
1389,44.843724,-124.047618,Fogarty Creek RV Park,3340 N Highway 101,Depoe Bay,OR,97341, (541) 764-2228,50.38511569105106
1388,44.861366,-124.03799599999999,Sea & Sand RV Park,4985 N Highway 101,Depoe Bay,OR,97341, (541) 764-2313,50.28298914597695
1390,44.62097,-124.04768999999999,Port Of Newport Marina & RV Park,2120 Se O.S.U. Dr,Newport,OR,97365, (541) 867-3321,48.46585604784382
1391,44.68204,-124.06357,Pacific Shores Motorcoach Resort,6225 N Coast Hwy 101,Newport,OR,97365, (541) 265-3759,49.29882941422364
1392,44.54864,-124.07186999999999,Whaler's Rest RV & Camping Resort,50 SE 123rd,South Beach,OR,97366, (888) 563-7040,50.06074915986892
1393,44.93457,-124.02221999999999,Premier RV Resorts [Lincoln City],4100 SE Hwy 101,Lincoln City,OR,97367, (877) 871-0663,50.38216007859882
1394,44.99921,-124.00453,Logan Road RV Park,4800 Ne Logan Rd,Lincoln City,OR,97367, (877) 564-2678,49.782901898126745
1395,45.002590000000005,-122.80304,Silver Spur RV Park,12622 Silverton Rd Ne,Silverton,OR,97381, (866) 854-7785,11.049241454128031
1396,44.04094,-123.02877,Shamrock RV & Mhp Village,4531 Franklin Blvd,Eugene,OR,97403, (541) 747-7473,3.7838874946649814
1397,44.13415,-123.05672,Eugene Kamping World,90932 S Stuart St,Coburg,OR,97408, (800) 343-3008,3.1223990450898267
1398,44.13462,-123.04842,Premier RV Resorts [Eugene],33022 Van Duyn Rd,Coburg,OR,97408, (541) 686-3152,3.231829567163717
1399,43.08473,-124.41543,Bandon By The Sea RV Park,49612 Highway 101,Bandon,OR,97411, (541) 347-5155,55.1738567355742
1400,43.11925,-124.40194,Bandon RV Park,935 2Nd St Se (Hwy 101),Bandon,OR,97411, (541) 347-4122,54.017246872510675
1401,44.174640000000004,-122.19166000000001,Patio RV Park,55636 Mckenzie River Dr,Blue River,OR,97413, (541) 822-3596,43.80581638352325
1402,42.93611,-123.29386000000001,Seven Feathers RV Resort,325 Quintioosa Blvd,Canyonville,OR,97417, (877) 839-3599,22.492898935780772
1403,43.37271,-124.29157,Bay Point Landing,92443 Cape Arago Hwy,Coos Bay,OR,97420, (541) 351-9160,48.11156219407805
1404,43.3436,-124.32581,Charleston Marina & RV Park,63402 Kingfisher Rd,Charleston,OR,97420, (541) 888-9512,49.55104214082153
1405,43.37992,-124.24633,Alder Acres RV Park,1800 S 28Th Ct,Coos Bay,OR,97420, (888) 400-7275,45.94796985473543
1406,43.91806,-123.01581999999999,Meadowlark RV Park,PO Box 1024,Creswell,OR,97426, (541) 525-3348,12.068643808841731
1407,43.91398,-122.81008,Dexter Shores RV Park,39140 Dexter Rd,Dexter,OR,97431, (866) 558-9777,17.531464462840123
1408,44.03298,-124.12835,Heceta Beach RV Park,4636 Heceta Beach Rd,Florence,OR,97439, (541) 997-7664,53.10370058908053
1409,44.00292,-124.09961000000001,Pacific Pines RV Park,4044 Hwy 101-At 42Nd St,Florence,OR,97439, (541) 997-1434,51.88716002300383
1410,43.95493,-124.11117,South Jetty RV & Camping Resort,5010 South Jetty Rd,Florence,OR,97439, (888) 563-7040,52.95878577071407
1411,43.901263,-124.1161,Woahink Lake RV Resort,83570 Highway 101,Florence,OR,97439, (541) 997-6454,53.99299668507476
1412,43.57779,-124.16518,Osprey Point RV Resort,1505 N Lake Rd.,Lakeside,OR,97449, (541) 759-2801,46.548614372462104
1413,42.9879,-123.32019,Tri City RV Park,187 N Old Pacific Hwy,Myrtle Creek,OR,97457, (541) 860-5000,18.798852033457486
1414,42.99279,-123.87588999999998,Remote Outpost RV Park,23146 Hwy 42,Remote,OR,97458, (541) 572-5105,32.34504120501658
1415,43.39483,-124.2191,The Mill Casino Hotel & RV Park,2665 Tremont Ave,North Bend,OR,97459, (800) 953-4800,44.79714202377562
1416,43.58447,-123.83559,Loon Lake Lodge & RV Resort,9011 Loon Lake Rd,Reedsport,OR,97467, (541) 599-2244,33.185054525363796
1417,43.13411,-123.39615,Rising River RV Park,5579 Grange Rd,Roseburg,OR,97471, (541) 679-7256,8.957347724968937
1418,43.38688,-123.35229,Hi Way Haven RV Park,609 Fort Mckay Rd,Sutherlin,OR,97479, (541) 459-4557,8.804209981810834
1419,43.75707,-122.52763,Casey'S Riverside RV Park,46443 Westfir Rd,Westfir,OR,97492, (541) 782-1906,35.2707252122614
1420,42.630949,-123.38335500000001,Sunny Valley RV Park,140 Old Stage Rd,Wolf Creek,OR,97497, (541) 479-0209,30.867381104414754
1421,44.230558,-124.10975900000001,Sea Perch RV Resort,95480 Highway 101 S,Yachats,OR,97498, (541) 547-3505,52.85684784800628
1422,42.155159999999995,-122.62913999999999,Ashland's Creekside Campground & RV Park,5310 Hwy 66,Ashland,OR,97520, (541) 488-1785,20.138505641595007
1425,42.46175,-123.31839,Jack's Landing RV Resort,247 NE Morgan Ln,Grants Pass,OR,97526, (541) 472-1144,22.806313283378643
1424,42.45949,-123.32283000000001,Rogue Valley Overniters,1806 Nw 6Th St,Grants Pass,OR,97526, (541) 479-2208,22.985428586237944
1423,42.43646,-123.27271,Moon Mountain RV Resort,3298 Pearce Park Rd,Grants Pass,OR,97526, (877) 479-1145,20.123937364870308
1426,42.066990000000004,-123.70828,Lone Mountain RV Resort & Tipi Campground,169 Lone Mountain Rd,O'Brien,OR,97534, (541) 596-2878,47.11470392611529
1427,42.2805,-122.81898999999999,Holiday RV Park,201 Fern Valley Rd,Phoenix,OR,97535, (800) 452-7970,7.390854251163318
1428,42.27518,-121.81133,Oregon Motel 8 & RV Park,5225 N Highway 97,Klamath Falls,OR,97601, (541) 883-3431,55.58467725882843
1429,42.525209999999994,-121.88689,Waterwheel RV Park and Campground,200 Williamson River Dr,Chiloquin,OR,97624, (541) 783-2738,52.23681625636859
1430,44.250547999999995,-121.488689,Bend/Sisters Garden RV Resort,67667 Highway 20,Bend,OR,97701, (888) 503-3588,17.287245796437517
1431,44.030213,-121.311325,Scandia RV Park Mhp,61415 S. 3Rd St (Us Bus 97),Bend,OR,97702, (541) 382-6206,2.8683169631725414
1432,44.0172,-121.29413000000001,Crown Villa RV Resort,60801 Brosterhous Rd,Bend,OR,97702, (541) 388-1131,3.065362872271294
1433,43.8205,-121.45747,Bend Sunriver RV,17480 S Century Dr,Bend,OR,97707, (888) 563-7040,18.892456321913638
1434,44.460159999999995,-121.64706000000001,Camp Sherman RV Park & Motel,25635 SW Forest Service Rd 1419,Camp Sherman,OR,97730, (541) 595-6514,33.590584784297306
1436,43.44914,-121.7054,Big Pines RV Park,135151 Highway 97 N,Crescent,OR,97733, (541) 433-2785,47.35668547766474
1437,43.5281,-121.94441,Crescent Junction RV Park,20030 Crescent Lake Hwy,Crescent,OR,97733, (541) 433-5300,49.8024292055862
1435,43.58175,-122.04026999999999,Shelter Cove Resort and Marina,27600 W Odell Lake Rd,Crescent Lake,OR,97733, (541) 433-2548,50.69069200512886
1438,44.409225,-121.239492,Crooked River Ranch RV Park,14875 Sw Hays Rd,Crooked River Ranch,OR,97760, (800) 841-0563,24.340933449480193
1439,45.64821,-118.67603000000001,Wildhorse RV Resort,46510 Wildhorse Blvd,Pendleton,OR,97801, (800) 654-9453,48.13238398125602
1440,45.64862,-119.67454,Driftwood RV Park & Resort,800 W Kunze Ln,Boardman,OR,97818, (541) 481-2262,45.14707391134129
1441,45.843509999999995,-119.70825,Boardman Marina & RV Park,#1 W Marine Dr,Boardman,OR,97818, (541) 481-7217,34.86962826668251
1442,45.91091,-119.17126,Hat Rock Campground,82280 Hat Rock Rd,Hermiston,OR,97838, (541) 567-4188,21.965813302230565
1443,45.770405,-119.205028,Pilot RV Park,2125 S Highway 395,Stanfield,OR,97875, (541) 449-1189,31.488662816462313
1444,45.92352,-119.3299,Umatilla Marina & RV Park,1710 Quincy St,Umatilla,OR,97882, (541) 922-3939,21.37514219855102
1445,44.26406,-117.12006000000001,Catfish Junction RV Park & Campground,6170 Hwy 201 N,Huntington,OR,97907, (541) 262-3833,52.04509434977595
1446,47.60025,-121.9447,Tall Chief RV & Camping Resort,29290 SE 8th St,Fall City,WA,98024, (888) 563-7040,6.081612532406391
1447,47.53649,-122.03123000000001,Issaquah Village RV Park,650 1St Ave Ne,Issaquah,WA,98027, (800) 258-9233,1.3863987970345308
1449,47.88586,-122.2605,Lakeside RV Park,12321 Hwy 99,Everett,WA,98204, (425) 347-2970,2.639337463250606
1448,47.88527,-122.26158000000001,Maple Grove RV Resort,12417 Highway 99,Everett,WA,98204, (866) 793-2200,2.7027407692159517
1450,48.7875,-122.5204,Bellingham RV Park,3939 Bennett Dr,Bellingham,WA,98225, (888) 372-1224,0.3900014494228228
1451,48.945440000000005,-122.74751,Birch Bay Resort -Thousand Trails,8418 Harborview Rd,Blaine,WA,98230, (888) 563-7040,15.009696179129483
1452,48.570679999999996,-122.34421,Mount Vernon Thousand Trails Campground Resort,5409 N Darrk Lane,Bow,WA,98232, (888) 563-7040,8.046006340936964
1453,48.5826,-122.33782,Friday Creek Thousand Trails Campground,4474 Friday Creek Rd,Burlington,WA,98233, (888) 563-7040,8.862848344433015
1454,48.53864,-121.87723000000001,Grandy Creek RV Campground KOA,7370 Russell Rd,Concrete,WA,98237, (888) 563-7040,21.901217501588714
1455,48.870963,-122.585269,The Cedars RV Resort,6335 Portal Way,Ferndale,WA,98248, (360) 384-2622,6.346683949460727
1456,48.4013,-122.49287,La Conner Marina RV Park,420 Pearle Jensen Way,La Cconner,WA,98257, (360) 466-3118,8.051756291927274
1457,48.40742,-122.54839,La Conner Thousand Trails,16362 Snee Oosh Rd,La Conner,WA,98257, (888) 563-7040,10.248261588953403
1458,47.844879999999996,-121.87328000000001,Thunderbird Resort,26702 Ben Howard Rd,Monroe,WA,98272, (888) 563-7040,13.523499740176309
1459,48.42286,-122.35161000000001,Mount Vernon RV Park,1229 Memorial Hwy,Mount Vernon,WA,98273, (800) 385-9895,2.276635069668967
1460,48.51211,-121.46998,Glacier Peak Resort and Winery,58468 Clark Cabin Rd,Rockport,WA,98283, (360) 873-2250,40.024404831016945
1461,48.14662,-122.30271,Cedar Grove Shores RV Park,16529 W Lake Goodwin Rd,Stanwood,WA,98292, (866) 342-4981,5.158634478787758
1462,47.344640000000005,-122.59895,Gig Harbor RV Resort,9515 Burnham Dr Nw,Gig Harbor,WA,98332, (800) 526-8311,0.9149344385285988
1463,46.60617,-121.67253000000001,Rainier Wings,12985 Hwy 12,Packwood,WA,98361, (360) 494-5145,45.08209543824493
1464,48.098428999999996,-123.55513,Elwha Dam RV Park,47 Lower Dam Rd,Port Angeles,WA,98363, (877) 435-9421,19.94645628085307
1465,47.70628,-122.59423000000001,Eagle Tree RV Park,16280 Washington State Hwy 305,Poulsbo,WA,98370, (360) 598-5988,5.298423320872321
1466,47.70603,-122.59449,Cedar Glen RV Park,16300 NE State Hwy 305,Poulsbo,WA,98370, (360) 779-4305,5.278036416078636
1467,47.20939,-122.33743999999999,Majestic Mobile Manor RV Park [MHP],7022 River Rd E,Puyallup,WA,98371, (800) 348-3144,2.6345319992392966
1468,48.07716,-123.09138999999999,Gilgal Oasis RV Park,400 S Brown Rd,Sequim,WA,98382, (888) 445-4251,1.5756784015790675
1469,47.05056,-122.74663999999999,Washington Land Yacht Harbor,9101 Steilacoom Rd SE,Olympia,WA,98513, (360) 491-3750,0.9249366254495401
1470,46.73536,-122.99497,Midway RV Park,3200 Galvin Rd,Centralia,WA,98531, (800) 600-3204,18.404351886611984
1472,46.40485,-122.59266000000001,Riverside Golf Course & RV Park,1451 Nw Airport Way,Chehalis,WA,98532, (360) 748-8182,43.64135670840678
1471,46.62513,-122.7807,Chehalis Resort,2228 Centralia Alpha Rd,Chehalis,WA,98532, (888) 563-7040,26.423091923664163
1473,47.00189,-123.38806399999999,Elma RV Park,4730 State Route 12,Elma,WA,98541, (866) 211-3939,22.317424509999444
1474,46.75393,-124.08686000000002,Kenanna RV Park,2959 SR 105,Grayland,WA,98547, (800) 867-3515,42.73294154373413
1475,47.42031,-123.13203999999999,Glen Ayr Resort,25381 N Hwy 101,Hoodsport,WA,98548, (360) 877-9522,25.13365763737429
1476,47.46257,-123.21682,Skokomish Park At Lake Cushman,7211 N Lake Cushman Rd,Hoodsport,WA,98548, (360) 877-9422,28.420455301474416
1477,46.99433,-123.89238,Hoquiam River RV Park,425 Queen Ave,Hoquiam,WA,98550, (360) 538-2870,46.151051202914005
1478,46.946690000000004,-123.64237,Friends Landing,300 Katon Rd,Montesano,WA,98563, (360) 249-5117,34.51998085474923
1479,47.0805,-124.16778000000001,Oceana Campground,2733 SR 109,Ocean City,WA,98569, (888) 563-7046,59.40521541932171
1480,46.81054,-123.05724,Outback RV Park,19100 Huntington St Sw,Rochester,WA,98579, (360) 273-0585,14.46651135309236
1481,47.371190999999996,-123.15895800000001,The Waterfront At Potlatch,21660 N Us Highway 101,Shelton,WA,98584, (360) 877-9422,26.047015503249852
1482,47.12863,-123.10441000000002,Little Creek Casino Resort & RV Park,91 W State Route 108,Shelton,WA,98584, (800) 667-7711,12.760954781247916
1484,46.54795,-122.58028999999999,Paradise Thousand Trails Resort,173 Salem Plant Rd,Silver Creek,WA,98585, (888) 563-7040,34.820869569805524
1483,46.55808,-122.50376000000001,Harmony Lakeside RV Park,563 Sr-122,Silver Creek,WA,98585, (877) 780-7275,36.03433917294113
1485,46.89914,-124.10723,American Sunset RV Resort,1209 North Montesano,Westport,WA,98595, (800) 569-2267,52.76939238432137
1486,46.35132,-122.9068,Toutle River RV Resort,150 Happy Trails,Castle Rock,WA,98611, (360) 274-8373,44.54797976722728
1487,46.14413,-122.87961000000001,Brookhollow RV Park,2506 Allen St,Kelso,WA,98626, (800) 867-0453,34.35439098446774
1488,46.361740000000005,-124.05396999999999,Driftwood RV Park,1512 Pacific Ave N,Long Beach,WA,98631, (888) 567-1902,16.28494639463453
1489,46.48992,-124.0473,Ocean Park Resort,25904 R St,Ocean Park,WA,98640, (360) 665-4585,24.53648492178353
1490,45.75238,-122.67142,Clark County Fairgrounds RV Park and Storage,203 NW 179th St,Ridgefield,WA,98642, (360) 326-3503,5.661885148074224
1491,46.31896,-124.05906999999999,Long Beach Thousand Trails Preserve,2215 Willows Rd,Seaview,WA,98644, (888) 563-7040,13.77028442434648
1492,46.314392,-122.76296599999999,Silver Cove RV Resort,351 Hall Rd,Silverlake,WA,98645, (877) 380-7278,44.10698533486052
1493,45.660618,-122.56723000000001,Van Mall RV Park,10400 Ne 53Rd St,Vancouver,WA,98662, (360) 891-1091,2.4653201588648272
1494,45.72337,-121.48793,Bridge RV Park & Campground,65271 Highway 14,White Salmon,WA,98672, (509) 493-1111,48.166510386606326
1496,47.80042,-120.63098000000001,Leavenworth RV Campground,20752 Chiwawa Loop Rd,Leavenworth,WA,98826, (888) 563-7040,32.063373697187224
1495,47.548468,-120.688846,Icicle River RV Resort,7305 Icicle Rd,Leavenworth,WA,98826, (509) 548-5420,21.66882789392821
1497,47.222879999999996,-119.99851000000001,Crescent Bar Thousand Trails Resort,9252 Crescent Bar Rd NW,Quincy,WA,98848, (888) 563-7040,18.094380667738495
1498,47.18894,-120.93636000000001,Whispering Pines RV Park,100 Whispering Pines Dr.,Cle Elum,WA,98922, (509) 674-7278,34.16301472682398
1499,46.93359,-120.51801999999999,Yakima River RV Park,791 Ringer Loop Rd,Ellensburg,WA,98926, (509) 925-4734,25.663308319766582
1500,46.97072,-120.53549,E & J RV Park,901 Berry Rd,Ellensburg,WA,98926, (509) 933-1500,28.263867740949575
1501,46.3325,-120.02165,Sunnyside RV Park,609 Scoon Rd,Sunnyside,WA,98944, (509) 837-8486,27.819579434422714
1502,47.658409999999996,-117.56262,Northern Quest RV Resort,303 South Kalispel Way,Airway Heights,WA,99001, (833) 702-2082,10.705401007370828
1503,47.47562,-117.59805,Peaceful Pines RV Park,1231 W 1st,Cheney,WA,99004, (800) 985-2966,17.695700975670494
1504,47.87001,-117.42039,Wild Rose RV Park,23106 N Hwy 395,Colbert,WA,99005, (509) 276-6853,7.676665212310213
1505,47.9727,-117.44734,Deer Park RV Resort,1205 N Country Club Dr,Deer Park,WA,99006, (509) 276-1555,14.880847201499998
1506,47.675129999999996,-117.10108000000001,Liberty Lake RV Campground,22751 E Appleway Ave,Liberty Lake,WA,99019, (509) 868-0567,10.878086563414211
1507,47.78539,-117.35431000000001,Alderwood RV Resort,14007 N Newport Hwy,Mead,WA,99021, (888) 847-0500,2.386697676907372
1508,48.347770000000004,-117.3036,Kalispel RV Resort,371 Qlispe River Way,Cusick,WA,99119, (509) 447-7144,40.75489725853781
1509,48.138020000000004,-117.21503,Little Diamond KOA & Thousand Trails Resort,1002 McGowen Rd,Newport,WA,99156, (888) 563-7040,27.303833974216495
1510,47.45655,-118.42813000000001,Country Lane Campground & RV Park,14 Portland St Nw,Wilbur,WA,99185, (509) 647-0100,52.84751498688983
1511,47.75701,-117.39465,North Spokane RV Campground,10904 Newport Hwy,Spokane,WA,99218, (509) 315-5561,0.33059771942855376
1512,46.65102,-118.85797,Coyote Run RV Park,351 E Hawthorn,Connell,WA,99326, (877) 273-9484,34.44271393603099
1513,46.19523,-119.28263000000001,Columbia Sun RV Resort,103907 E Wiser Parkway,Kennewick,WA,99338, (509) 420-4880,3.1180241889588682
1514,46.97018,-119.34577,O'Sullivan Sportsman Resort (Camping Resort),6897 Hwy 262 SE,Othello,WA,99344, (509) 346-2447,51.68390726604018
1515,46.96601,-119.32121000000001,MarDon Resort at Potholes Reservoir,8198 Hwy 262 SE,Othello,WA,99344, (800) 416-2736,51.29042527943149
1516,46.21975,-119.7839,Wine Country RVPark,330 Merlot Dr,Prosser,WA,99350, (800) 726-4969,26.324723849875753
1517,46.23968,-119.25061000000001,Wright's Desert Gold Motel & RV Park,611 Columbia Park Trl,Richland,WA,99352, (509) 627-1000,1.21776278001473
1518,46.3272,-119.31501000000002,Horn Rapids RV Resort,2640 Kingsgate Way,Richland,WA,99354, (866) 557-9637,7.983773025514761
1519,46.04847,-118.35761000000001,RV Resort Four Seasons,1440 The Dalles Military Rd,Walla Walla,WA,99362, (509) 529-6072,43.865448210021
1520,46.4155,-117.19422,Chief Timothy Park,13766 Hwy 12,Clarkston,WA,99403, (509) 758-9580,7.222705245326292
1521,46.42411,-117.04308,Granite Lake Premier RV Resort,306 Granite Lake Dr,Clarkston,WA,99403, (800) 989-4578,0.04509207657644376
